ID,Organization,RoadwayName,DirectionOfTravel,Description,Reported,LastUpdated,StartDate,PlannedEndDate,LanesAffected,Latitude,Longitude,LatitudeSecondary,LongitudeSecondary,EventType,EventSubType,IsFullClosure,Severity,EncodedPolyline,Width,Height,Length,Weight,Speed,DetourPolyline,DetourInstructions,Recurrence,RecurrenceSchedules,Details,LaneCount,near_tmc
407101,ERS,I-10,west,Left lanes closed on I-10 Westbound from SR-143 Northbound (MP 154)  to  40th St (MP 152) . 2 Left Lanes Closed.   6/12/2025 8:00 PM  to 6/13/2025 4:00 AM  ,1749783600,1749069103,1749783600,1749812400.0,2 Left Lanes Closed,33.4071198215334,-111.970047791644,33.4110349610881,-111.997790039035,roadwork,leftlanes,0,Minor,oy{jExcljTYVoApAg@j@mA|Ae@p@c@p@q@pAQ^iAjBw@dBc@hAs@tBWz@k@xBYpAYbBOdAObAOlAI~@OvBC^GlACt@CvBAzAAbACzJ?h@D`H?|D@jC?pC@jC@xAB`B?fM@`Z?nEDpL,,,,,,,,"""<b>Thu:</b><br/>8:00 PM - 12:00 AM<br/><br/><b>Fri:</b><br/>12:00 AM - 4:00 AM<br/><br/>""","[{""StartDate"": ""6/12/2025 8:00:00 PM-07:00:00"", ""EndDate"": ""6/13/2025 4:00:00 AM-07:00:00"", ""Times"": [{""StartTime"": ""20:00:00-07:00:00"", ""EndTime"": ""23:59:59-07:00:00""}], ""DaysOfWeek"": [""Thursday""]}, {""StartDate"": ""6/12/2025 8:00:00 PM-07:00:00"", ""EndDate"": ""6/13/2025 4:00:00 AM-07:00:00"", ""Times"": [{""StartTime"": ""00:00:00-07:00:00"", ""EndTime"": ""03:59:59-07:00:00""}], ""DaysOfWeek"": [""Friday""]}]",,8.0,115P04184
407753,ERS,I-10 Westbound,west,HOV ramp closed on  ramp  from I-10 Westbound  to  SR-143 Northbound . All HOV Lanes Closed.   6/12/2025 8:00 PM  to 6/13/2025 4:00 AM  ,1749783600,1749160239,1749783600,1749812400.0,All HOV Lanes Closed,33.4067600000001,-111.96971,33.4106397162038,-111.974524893464,closures,hovrampclosed,1,Major,gw{jEtaljTcAj@w@f@i@^k@f@_@^QR_AjAk@x@Yb@a@r@GJU^}@`BaAfBuAbCqAzBcA~Am@~@s@dAQXi@z@KNaAzAa@j@]j@a@h@c@d@c@b@m@d@c@Ri@Tq@No@Jo@Fu@BO@_@@aBF,,,,,,,,"""<b>Thu:</b><br/>8:00 PM - 12:00 AM<br/><br/><b>Fri:</b><br/>12:00 AM - 4:00 AM<br/><br/>""","[{""StartDate"": ""6/12/2025 8:00:00 PM-07:00:00"", ""EndDate"": ""6/13/2025 4:00:00 AM-07:00:00"", ""Times"": [{""StartTime"": ""20:00:00-07:00:00"", ""EndTime"": ""23:59:59-07:00:00""}], ""DaysOfWeek"": [""Thursday""]}, {""StartDate"": ""6/12/2025 8:00:00 PM-07:00:00"", ""EndDate"": ""6/13/2025 4:00:00 AM-07:00:00"", ""Times"": [{""StartTime"": ""00:00:00-07:00:00"", ""EndTime"": ""03:59:59-07:00:00""}], ""DaysOfWeek"": [""Friday""]}]",,1.0,115P04184
410039,ERS,I-10 Westbound,west,Exit ramp restricted on  ramp  from I-10 Westbound  to  S 40th St . 1 Right Ramp Closed.   6/12/2025 8:00 PM  to 6/13/2025 4:00 AM  ,1749783600,1749577910,1749783600,1749812400.0,1 Right Ramp Closed,33.4110700000001,-111.99025,33.4113719652333,-111.992867814089,roadwork,exitrestricted,0,Minor,er|jE`bpjTQdAIr@GhBGlBCn@S|EGpAOjC?nA?\AdA?f@,,,,,,,,"""<b>Thu:</b><br/>8:00 PM - 12:00 AM<br/><br/><b>Fri:</b><br/>12:00 AM - 4:00 AM<br/><br/>""","[{""StartDate"": ""6/12/2025 8:00:00 PM-07:00:00"", ""EndDate"": ""6/13/2025 4:00:00 AM-07:00:00"", ""Times"": [{""StartTime"": ""20:00:00-07:00:00"", ""EndTime"": ""23:59:59-07:00:00""}], ""DaysOfWeek"": [""Thursday""]}, {""StartDate"": ""6/12/2025 8:00:00 PM-07:00:00"", ""EndDate"": ""6/13/2025 4:00:00 AM-07:00:00"", ""Times"": [{""StartTime"": ""00:00:00-07:00:00"", ""EndTime"": ""03:59:59-07:00:00""}], ""DaysOfWeek"": [""Friday""]}]",,2.0,115P04185
410040,ERS,I-10 Westbound,west,Exit ramp restricted on  ramp  from I-10 Westbound  to  S 40th St . 1 Right Ramp Closed.   6/13/2025 8:00 PM  to 6/14/2025 4:00 AM  ,1749870000,1749578009,1749870000,1749898800.0,1 Right Ramp Closed,33.4110700000001,-111.99025,33.4113719652333,-111.992867814089,roadwork,exitrestricted,0,Minor,er|jE`bpjTQdAIr@GhBGlBCn@S|EGpAOjC?nA?\AdA?f@,,,,,,,,"""<b>Fri:</b><br/>8:00 PM - 12:00 AM<br/><br/><b>Sat:</b><br/>12:00 AM - 4:00 AM<br/><br/>""","[{""StartDate"": ""6/13/2025 8:00:00 PM-07:00:00"", ""EndDate"": ""6/14/2025 4:00:00 AM-07:00:00"", ""Times"": [{""StartTime"": ""20:00:00-07:00:00"", ""EndTime"": ""23:59:59-07:00:00""}], ""DaysOfWeek"": [""Friday""]}, {""StartDate"": ""6/13/2025 8:00:00 PM-07:00:00"", ""EndDate"": ""6/14/2025 4:00:00 AM-07:00:00"", ""Times"": [{""StartTime"": ""00:00:00-07:00:00"", ""EndTime"": ""03:59:59-07:00:00""}], ""DaysOfWeek"": [""Saturday""]}]",,2.0,115P04185
428704,ERS,I-10,east,Disabled vehicle on the left shoulder on I-10 Eastbound  near   S 40th St (MP 152)   ,1749824220,1749824298,1749824220,,No Data,33.4107913445965,-111.995027134887,,,accidentsAndIncidents,C34Lshoulder,0,None,,,,,,,,,,,,1.0,115N04185
428680,ERS,I-10,west,Disabled vehicle on the right shoulder on I-10 Westbound  near   Elliot Rd (MP 158)   ,1749821460,1749821539,1749821460,,No Data,33.3457896889813,-111.972038380042,,,accidentsAndIncidents,C34Rshoulder,0,None,,,,,,,,,,,,1.0,115P04180
428802,ERS,I-10,west,Disabled vehicle on the right shoulder on I-10 Westbound  near   Elliot Rd (MP 158)   ,1749835200,1749835332,1749835200,,No Data,33.3457896889813,-111.972038380042,,,accidentsAndIncidents,C34Rshoulder,0,None,,,,,,,,,,,,1.0,115P04180
428685,ERS,I-10,east,Disabled vehicle on the exit ramp on I-10 Eastbound  near   E Warner Rd (MP 159)   ,1749821880,1749821962,1749821880,,No Data,33.331200150968,-111.972342330238,,,accidentsAndIncidents,C34exit,0,None,,,,,,,,,,,,1.0,115N04179
428868,ERS,I-10,west,Crash on the right shoulder on I-10 Westbound  near   24th St (MP 150)   ,1749844140,1749844698,1749844140,,No Data,33.4254892033632,-112.025898254986,,,accidentsAndIncidents,Crash on right shoulder,0,Minor,,,,,,,,,,,,1.0,115P04187
429042,ERS,I-10,east,Disabled vehicle on the right shoulder on I-10 Eastbound  near   Elliot Rd (MP 157)   ,1749860760,1749861143,1749860760,,No Data,33.3606895543767,-111.969555883289,,,accidentsAndIncidents,C34Rshoulder,0,None,,,,,,,,,,,,1.0,115-04180
429576,ERS,I-10,west,Disabled vehicle on the exit ramp on I-10 Westbound  near   W Baseline Rd (MP 155)   ,1749997800,1749997819,1749997800,,No Data,33.387344,-111.96757,,,accidentsAndIncidents,C34exit,0,None,,,,,,,,,,,,1.0,115P04182
429583,ERS,I-10,west,Disabled vehicle on the exit ramp on I-10 Westbound  near   E University Dr (MP 151)   ,1750000200,1750000272,1750000200,,No Data,33.4135714204425,-112.013036417281,,,accidentsAndIncidents,C34exit,0,None,,,,,,,,,,,,1.0,115P04186
429587,ERS,I-10,east,Debris blocking the right lanes on I-10 Eastbound  near   S 40th St (MP 153)   ,1750001580,1750001663,1750001580,,No Data,33.4108040647673,-111.993297191653,,,accidentsAndIncidents,TDEBRISRM,0,Minor,,,,,,,,,,,,1.0,115N04185
429641,ERS,I-10,east,Debris blocking the on ramp on I-10 Eastbound  near   E Warner Rd (MP 159)   ,1750013760,1750013786,1750013760,,No Data,33.3327901296008,-111.972346492486,,,accidentsAndIncidents,TDEBRISONB,0,Minor,,,,,,,,,,,,1.0,115N04179
429566,ERS,I-10,east,Debris on the right shoulder on I-10 Eastbound  near   E Chandler Blvd (MP 161)   ,1749993960,1749994761,1749993960,,No Data,33.297836,-111.97249,,,accidentsAndIncidents,DebrisRshoulder,0,None,,,,,,,,,,,,1.0,115N05165
430087,ERS,I-10,east,Disabled vehicle on the right shoulder on I-10 Eastbound  near   S 24th St (MP 150)   ,1750097400,1750097477,1750097400,,No Data,33.4262193923079,-112.028764438462,,,accidentsAndIncidents,C34Rshoulder,0,None,,,,,,,,,,,,1.0,115N04187
430157,ERS,I-10,west,Disabled vehicle on the right shoulder on I-10 Westbound  near   24th St (MP 150)   ,1750105860,1750105935,1750105860,,No Data,33.4254892033632,-112.025898254986,,,accidentsAndIncidents,C34Rshoulder,0,None,,,,,,,,,,,,1.0,115P04187
430188,ERS,I-10,west,Debris on the right shoulder on I-10 Westbound  near   Broadway Rd (MP 154)   ,1750109340,1750110262,1750109340,,No Data,33.4047218133209,-111.96830162758,,,accidentsAndIncidents,DebrisRshoulder,0,None,,,,,,,,,,,,1.0,115P04183
430276,ERS,I-10,west,Disabled vehicle on the right shoulder on I-10 Westbound  near   Hohokam Expy (MP 153)   ,1750116960,1750117037,1750116960,,No Data,33.41112,-111.984338,,,accidentsAndIncidents,C34Rshoulder,0,None,,,,,,,,,,,,1.0,115+04185
430280,ERS,I-10,east,Disabled vehicle on the right shoulder on I-10 Eastbound  near   S 48th St (MP 154)   ,1750117560,1750117643,1750117560,,No Data,33.4044988,-111.9685644,,,accidentsAndIncidents,C34Rshoulder,0,None,,,,,,,,,,,,1.0,115-04182
430314,ERS,I-10,east,Debris blocking the center lanes on I-10 Eastbound  near   Elliot Rd (MP 158)   ,1750121160,1750121242,1750121160,,No Data,33.3492770115606,-111.972025075145,,,accidentsAndIncidents,TDEBRISCM,0,Minor,,,,,,,,,,,,1.0,115N04180
430321,ERS,I-10,east,Traffic signal timing issue or timing adjusted  on I-10 Eastbound  near   E Warner Rd (MP 159)   ,1750121880,1750121954,1750121880,,No Data,33.3327901296008,-111.972346492486,,,accidentsAndIncidents,signaltiming,0,None,,,,,,,,,,,,1.0,115N04179
430231,ERS,I-10,west,Debris blocking the left lanes on I-10 Westbound  near   SR-143 Northbound (MP 154)   ,1750111320,1750111456,1750111320,,No Data,33.4071844460926,-111.970108459597,,,accidentsAndIncidents,TDEBRISLM,0,Minor,,,,,,,,,,,,1.0,115P04184
430279,ERS,I-10,east,Disabled vehicle on the right shoulder on I-10 Eastbound  near   S 48th St (MP 154)   ,1750117560,1750117643,1750117560,,No Data,33.4044988,-111.9685644,,,accidentsAndIncidents,C34Rshoulder,0,None,,,,,,,,,,,,1.0,115-04182
430355,ERS,I-10,east,Debris on the left shoulder on I-10 Eastbound  near   32nd St (MP 151)   ,1750126740,1750127352,1750126740,,No Data,33.4144690845362,-112.014512459794,,,accidentsAndIncidents,debrisLshoulder,0,Minor,,,,,,,,,,,,1.0,115N04186
430368,ERS,I-10,west,Debris on the left shoulder on I-10 Westbound  near   40th St (MP 152)   ,1750131180,1750131982,1750131180,,No Data,33.4110600000001,-111.995005,,,accidentsAndIncidents,debrisLshoulder,0,Minor,,,,,,,,,,,,1.0,115P04185
430371,ERS,I-10,west,Crash on the left shoulder on I-10 Westbound  near   40th St (MP 152)   ,1750131540,1750132405,1750131540,,No Data,33.4110600000001,-111.995005,,,accidentsAndIncidents,CrashLshoulder,0,Minor,,,,,,,,,,,,1.0,115P04185
430382,RADS,"I10 @ S 40TH ST WB ON ,PHX",,"I10 @ S 40TH ST WB ON ,PHX - AccidentIncident - accident involving a motorcycle",1750131464,1750132742,1750131464,35659335599.0,No Data,33.4113999173975,-111.998164871832,,,accidentsAndIncidents,AccidentIncident,0,,,,,,,,,,,,,,115P04185
428174,ERS,I-10 Eastbound,east,Exit ramp closed on  ramp  from I-10 Eastbound  to  SR-143 Southbound . 1 Right Ramp Closed.   6/16/2025 9:30 PM  to 6/17/2025 4:00 AM  ,1750134600,1749745402,1750134600,1750158000.0,1 Right Ramp Closed,33.41083,-111.98399,33.4102105422782,-111.981123193012,roadwork,exitclosed,0,Minor,up|jE|znjTHk@JcAFcADw@BY@YHq@TeBLm@Po@f@wAb@qAb@sA^mATw@F[Hs@Ds@?kA,,,,,,,,"""<b>Mon:</b><br/>9:30 PM - 12:00 AM<br/><br/><b>Tue:</b><br/>12:00 AM - 4:00 AM<br/><br/>""","[{""StartDate"": ""6/16/2025 9:30:00 PM-07:00:00"", ""EndDate"": ""6/17/2025 4:00:00 AM-07:00:00"", ""Times"": [{""StartTime"": ""21:30:00-07:00:00"", ""EndTime"": ""23:59:59-07:00:00""}], ""DaysOfWeek"": [""Monday""]}, {""StartDate"": ""6/16/2025 9:30:00 PM-07:00:00"", ""EndDate"": ""6/17/2025 4:00:00 AM-07:00:00"", ""Times"": [{""StartTime"": ""00:00:00-07:00:00"", ""EndTime"": ""03:59:59-07:00:00""}], ""DaysOfWeek"": [""Tuesday""]}]",,2.0,115N04184
430445,ERS,I-10,west,Disabled vehicle on the right shoulder on I-10 Westbound  near   202-LOOP Eastbound (MP 161)   ,1750153500,1750153817,1750153500,,No Data,33.3060087207162,-111.972059222498,,,accidentsAndIncidents,C34Rshoulder,0,None,,,,,,,,,,,,1.0,115P04177
430542,ERS,I-10,west,Crash on the right shoulder on I-10 Westbound  near   24th St (MP 150)   ,1750173420,1750175246,1750173420,,No Data,33.4254892033632,-112.025898254986,,,accidentsAndIncidents,Crash on right shoulder,0,Minor,,,,,,,,,,,,1.0,115P04187
430870,ERS,I-10,east,Disabled vehicle on the right shoulder on I-10 Eastbound  near   S 48th St (MP 154)   ,1750206360,1750206438,1750206360,,No Data,33.4044988,-111.9685644,,,accidentsAndIncidents,C34Rshoulder,0,None,,,,,,,,,,,,1.0,115-04182
430748,ERS,I-10,east,Debris on the left shoulder on I-10 Eastbound  near   S 48th St (MP 154)   ,1750197060,1750197444,1750197060,,No Data,33.4044988,-111.9685644,,,accidentsAndIncidents,debrisLshoulder,0,Minor,,,,,,,,,,,,1.0,115-04182
431000,ERS,I-10,west,Abandoned vehicle on the right shoulder on I-10 Westbound  near   Hohokam Expy (MP 153)   ,1750243140,1750243218,1750243140,,No Data,33.41112,-111.984338,,,accidentsAndIncidents,T1018SR,0,Minor,,,,,,,,,,,,1.0,115+04185
431001,ERS,I-10,east,Debris blocking the left lane on I-10 Eastbound  near   S 48th St (MP 154)   ,1750243380,1750243460,1750243380,,No Data,33.4044988,-111.9685644,,,accidentsAndIncidents,debrisLlane,0,Minor,,,,,,,,,,,,1.0,115-04182
431008,ERS,I-10,west,Crash on the right shoulder on I-10 Westbound  near   Warner Rd (MP 159)   ,1750248000,1750248088,1750248000,,No Data,33.3327291390222,-111.972060887521,,,accidentsAndIncidents,Crash on right shoulder,0,Minor,,,,,,,,,,,,1.0,115P04179
431201,ERS,I-10,east,Crash on the right shoulder on I-10 Eastbound  near   Baseline Rd (MP 155)   ,1750271640,1750271715,1750271640,,No Data,33.3931876150084,-111.967815355649,,,accidentsAndIncidents,Crash on right shoulder,0,Minor,,,,,,,,,,,,1.0,115N04182
431337,ERS,I-10,east,Disabled vehicle on the left shoulder on I-10 Eastbound  near   Baseline Rd (MP 155)   ,1750282680,1750282762,1750282680,,No Data,33.3917364889306,-111.967841691932,,,accidentsAndIncidents,C34Lshoulder,0,None,,,,,,,,,,,,1.0,115N04182
431697,ERS,I-10,west,Crash blocking the on ramp on I-10 Westbound  near   E University Dr (MP 151)   ,1750344900,1750344921,1750344900,,No Data,33.4157678396127,-112.015292034446,,,accidentsAndIncidents,crashBOnramp,0,Minor,,,,,,,,,,,,1.0,115+04187
431713,ERS,I-10,east,Sign damage on I-10 Eastbound  near   40th St (MP 152)   ,1750346580,1750346600,1750346580,,No Data,33.4107223248959,-112.001946333227,,,accidentsAndIncidents,signdamaged,0,Minor,,,,,,,,,,,,1.0,115-04185
431714,ERS,I-10,east,Disabled vehicle on the right shoulder on I-10 Eastbound  near   Superstition Fwy (MP 156)   ,1750347000,1750347085,1750347000,,No Data,33.378606666715,-111.968111445781,,,accidentsAndIncidents,C34Rshoulder,0,None,,,,,,,,,,,,1.0,115N04181
431988,ERS,I-10,east,Debris on the left shoulder on I-10 Eastbound  near   S 48th St (MP 154)   ,1750373580,1750374389,1750373580,,No Data,33.4044988,-111.9685644,,,accidentsAndIncidents,debrisLshoulder,0,Minor,,,,,,,,,,,,1.0,115-04182
432470,ERS,I-10,west,Disabled vehicle on the right shoulder on I-10 Westbound  near   W Baseline Rd (MP 156)   ,1750465800,1750465823,1750465800,,No Data,33.3844430200244,-111.967646787626,,,accidentsAndIncidents,C34Rshoulder,0,None,,,,,,,,,,,,1.0,115+04182
432405,ERS,I-10,west,Debris on the left shoulder on I-10 Westbound  near   W Broadway Rd (MP 154)   ,1750453620,1750454177,1750453620,,No Data,33.410534015544,-111.975761259067,,,accidentsAndIncidents,debrisLshoulder,0,Minor,,,,,,,,,,,,1.0,115P04184
432736,ERS,I-10,west,Crash on the right shoulder on I-10 Westbound  near   E Elliot Rd (MP 157)   ,1750567200,1750567998,1750567200,,No Data,33.3605770085628,-111.969301169868,,,accidentsAndIncidents,Crash on right shoulder,0,Minor,,,,,,,,,,,,1.0,115+04181
432748,ERS,I-10,west,Crash on the right shoulder on I-10 Westbound  near   E Elliot Rd (MP 157)   ,1750570140,1750570523,1750570140,,No Data,33.3605770085628,-111.969301169868,,,accidentsAndIncidents,Crash on right shoulder,0,Minor,,,,,,,,,,,,1.0,115+04181
432752,ERS,I-10,west,Disabled vehicle on the right shoulder on I-10 Westbound  near   SR-143 Northbound (MP 154)   ,1750573680,1750573762,1750573680,,No Data,33.4071844460926,-111.970108459597,,,accidentsAndIncidents,C34Rshoulder,0,None,,,,,,,,,,,,1.0,115P04184
428175,ERS,I-10,west,Right lanes closed on I-10 Westbound from E Elliot Rd (MP 158)  to  Baseline Rd (MP 156) . 3 Right Lanes Closed.   6/21/2025 8:00 PM  to 6/22/2025 5:00 AM  ,1750561200,1749745624,1750561200,1750593600.0,3 Right Lanes Closed,33.3493785940869,-111.971715435108,33.3781732999156,-111.96785,roadwork,rightlanes,0,Minor,sppjEfnljTqDUoBOuGm@_Gq@_CYuEo@_De@kIwA_AO_LmB_C]iEk@gDc@{AQy@IkAK]EkCYyD[wCSmBMy@EmBKkBIo@CkHUiCG_FEq@AyAAaU?}L@,,,,,,,,"""<b>Sat:</b><br/>8:00 PM - 12:00 AM<br/><br/><b>Sun:</b><br/>12:00 AM - 5:00 AM<br/><br/>""","[{""StartDate"": ""6/21/2025 8:00:00 PM-07:00:00"", ""EndDate"": ""6/22/2025 5:00:00 AM-07:00:00"", ""Times"": [{""StartTime"": ""20:00:00-07:00:00"", ""EndTime"": ""23:59:59-07:00:00""}], ""DaysOfWeek"": [""Saturday""]}, {""StartDate"": ""6/21/2025 8:00:00 PM-07:00:00"", ""EndDate"": ""6/22/2025 5:00:00 AM-07:00:00"", ""Times"": [{""StartTime"": ""00:00:00-07:00:00"", ""EndTime"": ""04:59:59-07:00:00""}], ""DaysOfWeek"": [""Sunday""]}]",,5.0,115P04180
428179,ERS,I-10 Westbound,west,Exit ramp closed on  ramp  from I-10 Westbound  to  W Baseline Rd . All Ramps Closed.   6/21/2025 8:00 PM  to 6/22/2025 5:00 AM  ,1750561200,1749745754,1750561200,1750593600.0,All Ramps Closed,33.3726600000001,-111.96784,33.3755069834011,-111.967506084717,closures,exitclosed,1,Minor,cbujE~ukjTeAQsAIkCKg@CiESo@CwAI_BIYAuAEI?O?]?aDAk@A,,,,,,,,"""<b>Sat:</b><br/>8:00 PM - 12:00 AM<br/><br/><b>Sun:</b><br/>12:00 AM - 5:00 AM<br/><br/>""","[{""StartDate"": ""6/21/2025 8:00:00 PM-07:00:00"", ""EndDate"": ""6/22/2025 5:00:00 AM-07:00:00"", ""Times"": [{""StartTime"": ""20:00:00-07:00:00"", ""EndTime"": ""23:59:59-07:00:00""}], ""DaysOfWeek"": [""Saturday""]}, {""StartDate"": ""6/21/2025 8:00:00 PM-07:00:00"", ""EndDate"": ""6/22/2025 5:00:00 AM-07:00:00"", ""Times"": [{""StartTime"": ""00:00:00-07:00:00"", ""EndTime"": ""04:59:59-07:00:00""}], ""DaysOfWeek"": [""Sunday""]}]",,1.0,115P04181
432803,ERS,I-10,east,Disabled vehicle on the right shoulder on I-10 Eastbound  near   Superstition Fwy (MP 157)   ,1750615140,1750615223,1750615140,,No Data,33.3670023793983,-111.968468138705,,,accidentsAndIncidents,C34Rshoulder,0,None,,,,,,,,,,,,1.0,115-04180
428180,ERS,I-10 Eastbound,east,Exit ramp closed on  ramp  from I-10 Eastbound  to  SR-143 Southbound . 1 Right Ramp Closed.   6/22/2025 9:30 PM  to 6/23/2025 4:00 AM  ,1750653000,1749745846,1750653000,1750676400.0,1 Right Ramp Closed,33.41083,-111.98399,33.4102105422782,-111.981123193012,roadwork,exitclosed,0,Minor,up|jE|znjTHk@JcAFcADw@BY@YHq@TeBLm@Po@f@wAb@qAb@sA^mATw@F[Hs@Ds@?kA,,,,,,,,"""<b>Mon:</b><br/>12:00 AM - 4:00 AM<br/><br/><b>Sun:</b><br/>9:30 PM - 12:00 AM<br/><br/>""","[{""StartDate"": ""6/22/2025 9:30:00 PM-07:00:00"", ""EndDate"": ""6/23/2025 4:00:00 AM-07:00:00"", ""Times"": [{""StartTime"": ""00:00:00-07:00:00"", ""EndTime"": ""03:59:59-07:00:00""}], ""DaysOfWeek"": [""Monday""]}, {""StartDate"": ""6/22/2025 9:30:00 PM-07:00:00"", ""EndDate"": ""6/23/2025 4:00:00 AM-07:00:00"", ""Times"": [{""StartTime"": ""21:30:00-07:00:00"", ""EndTime"": ""23:59:59-07:00:00""}], ""DaysOfWeek"": [""Sunday""]}]",,2.0,115N04184
432913,ERS,I-10,west,Disabled vehicle on the right shoulder on I-10 Westbound  near   24th St (MP 150)   ,1750685160,1750685241,1750685160,,No Data,33.426830269663,-112.030807831461,,,accidentsAndIncidents,C34Rshoulder,0,None,,,,,,,,,,,,1.0,115P04188
431887,ERS,I-10 Eastbound,east,HOV ramp closed on  ramp  from I-10 Eastbound  to  US-60 Eastbound . All HOV Lanes Closed.   6/23/2025 8:00 PM  to 6/24/2025 4:00 AM  ,1750734000,1750366052,1750734000,1750762800.0,All HOV Lanes Closed,33.39588,-111.96769,33.388517964937,-111.966599956171,closures,hovrampclosed,1,Major,gsyjE`ukjTREFAJAJA`A?bB?hDB|EBlEDlBB~B?Z?VAZCXERC^IXINGZKXOZQXQTS\[PQX_@V]R_@LYJUFORm@Le@H_@DUF_@D]B[Dg@P}BHeANqBJsAFw@JaATwBNcBBWBS@IBQDWBON{@V{AHc@DS@E@EBI@CHQHQ,,,,,,,,"""<b>Mon:</b><br/>8:00 PM - 12:00 AM<br/><br/><b>Tue:</b><br/>12:00 AM - 4:00 AM<br/><br/>""","[{""StartDate"": ""6/23/2025 8:00:00 PM-07:00:00"", ""EndDate"": ""6/24/2025 4:00:00 AM-07:00:00"", ""Times"": [{""StartTime"": ""20:00:00-07:00:00"", ""EndTime"": ""23:59:59-07:00:00""}], ""DaysOfWeek"": [""Monday""]}, {""StartDate"": ""6/23/2025 8:00:00 PM-07:00:00"", ""EndDate"": ""6/24/2025 4:00:00 AM-07:00:00"", ""Times"": [{""StartTime"": ""00:00:00-07:00:00"", ""EndTime"": ""03:59:59-07:00:00""}], ""DaysOfWeek"": [""Tuesday""]}]",,1.0,115N04182
433718,ERS,I-10,east,Vehicle fire on I-10 Eastbound  near   Elliot Rd (MP 158)   ,1750799640,1750799714,1750799640,,No Data,33.3492770115606,-111.972025075145,,,accidentsAndIncidents,vehicleOnFire,0,Minor,,,,,,,,,,,,1.0,115N04180
436538,ERS,I-10,east,Crash on the left shoulder on I-10 Eastbound  near   Elliot Rd (MP 158)   ,1750983780,1750983855,1750983780,,No Data,33.3492770115606,-111.972025075145,,,accidentsAndIncidents,CrashLshoulder,0,Minor,,,,,,,,,,,,1.0,115N04180
436545,ERS,I-10,east,Crash blocking the on ramp on I-10 Eastbound  near   E Ray Rd (MP 160)   ,1750985400,1750985488,1750985400,,No Data,33.3148096139548,-111.972403194166,,,accidentsAndIncidents,crashBOnramp,0,Minor,,,,,,,,,,,,1.0,115-04177
431898,ERS,I-10,east,Right lane closed on I-10 Eastbound from Hohokam Expy (MP 154)  to  I-10 (MP 172.0) . 1 Right lane closed.   6/26/2025 8:00 PM  to 6/27/2025 5:00 AM  ,1750993200,1750366571,1750993200,1751025600.0,1 Right lane closed,33.4089717032865,-111.972875170135,33.3950140717009,-111.967750359291,roadwork,rightlane,0,Minor,ae|jEnuljTXm@P_@xBkDxAmB`@g@bAeA|AyAxAiAh@a@l@a@`BcAf@UpAm@`@SrBy@vA]|Bi@lB]xAQpAKhAGlACbAAR?jABhB@r@@|EBzA@vC@tDFhBFbAB,,,,,,,,"""<b>Thu:</b><br/>8:00 PM - 12:00 AM<br/><br/><b>Fri:</b><br/>12:00 AM - 5:00 AM<br/><br/>""","[{""StartDate"": ""6/26/2025 8:00:00 PM-07:00:00"", ""EndDate"": ""6/27/2025 5:00:00 AM-07:00:00"", ""Times"": [{""StartTime"": ""20:00:00-07:00:00"", ""EndTime"": ""23:59:59-07:00:00""}], ""DaysOfWeek"": [""Thursday""]}, {""StartDate"": ""6/26/2025 8:00:00 PM-07:00:00"", ""EndDate"": ""6/27/2025 5:00:00 AM-07:00:00"", ""Times"": [{""StartTime"": ""00:00:00-07:00:00"", ""EndTime"": ""04:59:59-07:00:00""}], ""DaysOfWeek"": [""Friday""]}]",,6.0,115N04184
436948,ERS,I-10,east,Debris on the right shoulder on I-10 Eastbound  near   Elliot Rd (MP 158)   ,1751059560,1751061020,1751059560,,No Data,33.3492770115606,-111.972025075145,,,accidentsAndIncidents,DebrisRshoulder,0,None,,,,,,,,,,,,1.0,115N04180
437129,ERS,I-10,west,Debris on the left shoulder on I-10 Westbound  near   US-60 Eastbound (MP 156)   ,1751079780,1751080225,1751079780,,No Data,33.375223,-111.96784,,,accidentsAndIncidents,debrisLshoulder,0,Minor,,,,,,,,,,,,1.0,115P04181
437819,ERS,I-10,east,Crash on the right shoulder on I-10 Eastbound  near   Elliot Rd (MP 158)   ,1751189040,1751190019,1751189040,,No Data,33.3492770115606,-111.972025075145,,,accidentsAndIncidents,Crash on right shoulder,0,Minor,,,,,,,,,,,,1.0,115N04180
440505,ERS,I-10,west,Disabled vehicle on the right shoulder on I-10 Westbound  near   40th St (MP 152)   ,1751251680,1751251814,1751251680,,No Data,33.4110600000001,-111.995005,,,accidentsAndIncidents,C34Rshoulder,0,None,,,,,,,,,,,,1.0,115P04185
441215,ERS,I-10,east,Disabled vehicle on the right shoulder on I-10 Eastbound  near   I-10 (MP 172.0)   ,1751270040,1751270119,1751270040,,No Data,33.4002506353591,-111.967572071823,,,accidentsAndIncidents,C34Rshoulder,0,None,,,,,,,,,,,,1.0,115-04182
440495,ERS,I-10,west,Debris on the left shoulder on I-10 Westbound  near   Hohokam Expy (MP 153)   ,1751250180,1751251586,1751250180,,No Data,33.41112,-111.984338,,,accidentsAndIncidents,debrisLshoulder,0,Minor,,,,,,,,,,,,1.0,115+04185
441576,ERS,I-10,east,Crash on the right shoulder on I-10 Eastbound  near   E Warner Rd (MP 159)   ,1751276460,1751277140,1751276460,,No Data,33.3327901296008,-111.972346492486,,,accidentsAndIncidents,Crash on right shoulder,0,Minor,,,,,,,,,,,,1.0,115N04179
442015,ERS,I-10,west,Abandoned vehicle on the right shoulder on I-10 Westbound  near   Broadway Rd (MP 172.0)   ,1751286120,1751301618,1751286120,,No Data,33.4004896288355,-111.967272699445,,,accidentsAndIncidents,T1018SR,0,Minor,,,,,,,,,,,,1.0,115+04183
442596,ERS,I-10,west,Disabled vehicle on the on ramp on I-10 Westbound  near   E University Dr (MP 151)   ,1751324160,1751325496,1751324160,,No Data,33.4157678396127,-112.015292034446,,,accidentsAndIncidents,C34onramp,0,None,,,,,,,,,,,,1.0,115+04187
433009,ERS,I-10,west,Right lanes closed on I-10 Westbound from Ray Rd (MP 160)  to  Warner Rd (MP 159) . 3 Right Lanes Closed.   6/30/2025 8:00 PM  to 6/30/2025 10:00 PM  ,1751338800,1750701961,1751338800,1751346000.0,3 Right Lanes Closed,33.3196344151293,-111.972139852973,33.3341460625859,-111.97205,roadwork,rightlanes,0,Minor,uvjjEzpljTaB?_QKsD@mI?eCAmJ?_GAmC@i@?gWE,,,,,,,,"""<b>Mon:</b><br/>8:00 PM - 10:00 PM<br/><br/>""","[{""StartDate"": ""6/30/2025 8:00:00 PM-07:00:00"", ""EndDate"": ""6/30/2025 10:00:00 PM-07:00:00"", ""Times"": [{""StartTime"": ""20:00:00-07:00:00"", ""EndTime"": ""21:59:59-07:00:00""}], ""DaysOfWeek"": [""Monday""]}]",,6.0,115P04178
433011,ERS,I-10 Westbound,west,Exit ramp closed on  ramp  from I-10 Westbound  to  W Warner Rd . All Ramps Closed.   6/30/2025 8:00 PM  to 6/30/2025 10:00 PM  ,1751338800,1750702222,1751338800,1751346000.0,All Ramps Closed,33.33027,-111.97208,33.3323744671598,-111.971789288446,closures,exitclosed,1,Minor,eyljEnpljTcDYkCQaAGsBMgBSa@GWCyBUa@Cc@?,,,,,,,,"""<b>Mon:</b><br/>8:00 PM - 10:00 PM<br/><br/>""","[{""StartDate"": ""6/30/2025 8:00:00 PM-07:00:00"", ""EndDate"": ""6/30/2025 10:00:00 PM-07:00:00"", ""Times"": [{""StartTime"": ""20:00:00-07:00:00"", ""EndTime"": ""21:59:59-07:00:00""}], ""DaysOfWeek"": [""Monday""]}]",,1.0,115+04179
443007,ERS,I-10,east,Debris on the left shoulder on I-10 Eastbound  near   S 24th St (MP 150)   ,1751336520,1751337199,1751336520,,No Data,33.4242511854867,-112.024179359496,,,accidentsAndIncidents,debrisLshoulder,0,Minor,,,,,,,,,,,,1.0,115-04186
443083,ERS,I-10,east,Crash on the left shoulder on I-10 Eastbound  near   32nd St (MP 151)   ,1751337480,1751337567,1751337480,,No Data,33.4156237016577,-112.015595331492,,,accidentsAndIncidents,CrashLshoulder,0,Minor,,,,,,,,,,,,1.0,115-04186
443109,ERS,I-10,east,Disabled vehicle on the left shoulder on I-10 Eastbound  near   SR-143 (MP 153)   ,1751337720,1751337805,1751337720,,No Data,33.41083,-111.984381,,,accidentsAndIncidents,C34Lshoulder,0,None,,,,,,,,,,,,1.0,115N04184
433012,ERS,I-10,west,Right lanes closed on I-10 Westbound from Ray Rd (MP 160)  to  Warner Rd (MP 159) . 2 Left Lanes Closed.   6/30/2025 10:00 PM  to 7/1/2025 4:00 AM  ,1751346000,1751322285,1751346000,1751367600.0,2 Left Lanes Closed,33.3196344151293,-111.972139852973,33.3341460625859,-111.97205,roadwork,rightlanes,0,Minor,uvjjEzpljTaB?_QKsD@mI?eCAmJ?_GAmC@i@?gWE,,,,,,,,"""<b>Mon:</b><br/>8:00 PM - 10:00 PM<br/><br/>""","[{""StartDate"": ""6/30/2025 10:00:00 PM-07:00:00"", ""EndDate"": ""7/1/2025 4:00:00 AM-07:00:00"", ""Times"": [{""StartTime"": ""20:00:00-07:00:00"", ""EndTime"": ""21:59:59-07:00:00""}], ""DaysOfWeek"": [""Monday""]}]",,6.0,115P04178
436264,ERS,I-10,west,Right lane closed on I-10 Westbound from Broadway Rd (MP 154)  to  Broadway Rd (MP 154) . 1 Right lane closed.   6/30/2025 8:00 PM  to 7/1/2025 4:00 AM  ,1751338800,1750959421,1751338800,1751367600.0,1 Right lane closed,33.4031353525333,-111.967612750745,33.4091974404862,-111.972701129358,roadwork,rightlane,0,Minor,s`{jEptkjTe@Ja@JUHsAf@aAZ_A^y@\qAn@_BbAq@b@e@\{@l@_@ZaBzAoApAg@j@mA|Ae@p@c@p@q@pAQ^q@fA,,,,,,,,"""<b>Mon:</b><br/>8:00 PM - 12:00 AM<br/><br/><b>Tue:</b><br/>12:00 AM - 4:00 AM<br/><br/>""","[{""StartDate"": ""6/30/2025 8:00:00 PM-07:00:00"", ""EndDate"": ""7/1/2025 4:00:00 AM-07:00:00"", ""Times"": [{""StartTime"": ""20:00:00-07:00:00"", ""EndTime"": ""23:59:59-07:00:00""}], ""DaysOfWeek"": [""Monday""]}, {""StartDate"": ""6/30/2025 8:00:00 PM-07:00:00"", ""EndDate"": ""7/1/2025 4:00:00 AM-07:00:00"", ""Times"": [{""StartTime"": ""00:00:00-07:00:00"", ""EndTime"": ""03:59:59-07:00:00""}], ""DaysOfWeek"": [""Tuesday""]}]",,7.0,115+04183
444422,ERS,I-10,west,Abandoned vehicle on the right shoulder on I-10 Westbound  near   24th St (MP 150)   ,1751375340,1751379506,1751375340,,No Data,33.4228999139156,-112.021728019188,,,accidentsAndIncidents,T1018SR,0,Minor,,,,,,,,,,,,1.0,115+04187
444604,ERS,I-10,east,Debris on the left shoulder on I-10 Eastbound  near   S 24th St (MP 151)   ,1751395680,1751396299,1751395680,,No Data,33.4212878370161,-112.020425191966,,,accidentsAndIncidents,debrisLshoulder,0,Minor,,,,,,,,,,,,1.0,115-04186
444681,ERS,I-10,west,Crash on the right shoulder on I-10 Westbound  near   24th St (MP 150)   ,1751404080,1751404464,1751404080,,No Data,33.4254892033632,-112.025898254986,,,accidentsAndIncidents,Crash on right shoulder,0,Minor,,,,,,,,,,,,1.0,115P04187
444699,ERS,I-10,east,Crash on the right shoulder on I-10 Eastbound  near   Baseline Rd (MP 156)   ,1751406600,1751406678,1751406600,,No Data,33.3844811309771,-111.967947060291,,,accidentsAndIncidents,Crash on right shoulder,0,Minor,,,,,,,,,,,,1.0,115-04181
434176,ERS,I-10,west,Right lane closed on I-10 Westbound from Western Canal (MP 156)  to  Superstition Fwy (MP 155)    7/1/2025 8:00 PM  to 7/2/2025 4:00 AM  ,1751425200,1750873366,1751425200,1751454000.0,No Data,33.3846338802516,-111.967641935248,33.3926748298815,-111.967416333474,roadwork,rightlane,0,Minor,}lwjEvtkjTwHGy@AkDC}@?eBAwCEiCEc@?oFCkDEcDE,,,,,,,,"""<b>Tue:</b><br/>8:00 PM - 12:00 AM<br/><br/><b>Wed:</b><br/>12:00 AM - 4:00 AM<br/><br/>""","[{""StartDate"": ""7/1/2025 8:00:00 PM-07:00:00"", ""EndDate"": ""7/2/2025 4:00:00 AM-07:00:00"", ""Times"": [{""StartTime"": ""20:00:00-07:00:00"", ""EndTime"": ""23:59:59-07:00:00""}], ""DaysOfWeek"": [""Tuesday""]}, {""StartDate"": ""7/1/2025 8:00:00 PM-07:00:00"", ""EndDate"": ""7/2/2025 4:00:00 AM-07:00:00"", ""Times"": [{""StartTime"": ""00:00:00-07:00:00"", ""EndTime"": ""03:59:59-07:00:00""}], ""DaysOfWeek"": [""Wednesday""]}]",,4.0,115+04182
436265,ERS,I-10,east,Right lanes closed on I-10 Eastbound from S 40th St (MP 152)  to  SR-143 Northbound (MP 154) . 3 Right Lanes Closed.   7/1/2025 8:00 PM  to 7/2/2025 4:00 AM  ,1751425200,1750959566,1751425200,1751454000.0,3 Right Lanes Closed,33.4107900000001,-111.995239049866,33.4070863379525,-111.970440323571,roadwork,rightlanes,0,Minor,mp|jEfaqjTCePAcJ?}AAgP?yTAmH?_F@gF?{BD}BH}B@]RiCHu@PuAPmA^uBR}@f@sBp@{Bd@qAfAkC|@iBP_@xBkDxAmB`@g@bAeAPQ,,,,,,,,"""<b>Tue:</b><br/>8:00 PM - 12:00 AM<br/><br/><b>Wed:</b><br/>12:00 AM - 4:00 AM<br/><br/>""","[{""StartDate"": ""7/1/2025 8:00:00 PM-07:00:00"", ""EndDate"": ""7/2/2025 4:00:00 AM-07:00:00"", ""Times"": [{""StartTime"": ""20:00:00-07:00:00"", ""EndTime"": ""23:59:59-07:00:00""}], ""DaysOfWeek"": [""Tuesday""]}, {""StartDate"": ""7/1/2025 8:00:00 PM-07:00:00"", ""EndDate"": ""7/2/2025 4:00:00 AM-07:00:00"", ""Times"": [{""StartTime"": ""00:00:00-07:00:00"", ""EndTime"": ""03:59:59-07:00:00""}], ""DaysOfWeek"": [""Wednesday""]}]",,7.0,115N04185
445231,ERS,I-10,east,Disabled vehicle on the right shoulder on I-10 Eastbound  near   S 40th St (MP 152)   ,1751478240,1751478318,1751478240,,No Data,33.4107913445965,-111.995027134887,,,accidentsAndIncidents,C34Rshoulder,0,None,,,,,,,,,,,,1.0,115N04185
445243,ERS,I-10,west,Crash on the right shoulder on I-10 Westbound  near   US-60 Eastbound (MP 156)   ,1751479440,1751479528,1751479440,,No Data,33.375223,-111.96784,,,accidentsAndIncidents,Crash on right shoulder,0,Minor,,,,,,,,,,,,1.0,115P04181
445249,ERS,I-10,east,Crash blocking the right lane on I-10 Eastbound  near   40th St (MP 152)   ,1751481120,1751481138,1751481120,,No Data,33.4107223248959,-112.001946333227,,,accidentsAndIncidents,crashRlane,0,Minor,,,,,,,,,,,,1.0,115-04185
445258,RADS,"I10 @ W BROADWAY RD EB WO ,TMP",,"I10 @ W BROADWAY RD EB WO ,TMP - AccidentIncident - injury accident",1751481306,1751482746,1751481306,35659335599.0,No Data,33.4100731488052,-111.975399163236,,,accidentsAndIncidents,AccidentIncident,0,,,,,,,,,,,,,,115N04184
445341,ERS,I-10,east,Disabled vehicle on the right shoulder on I-10 Eastbound  near   32nd St (MP 151)   ,1751488860,1751488875,1751488860,,No Data,33.4144690845362,-112.014512459794,,,accidentsAndIncidents,C34Rshoulder,0,None,,,,,,,,,,,,1.0,115N04186
445661,RADS,"I10 @ S 24TH ST WB WO ,PHX",,"I10 @ S 24TH ST WB WO ,PHX - AccidentIncident - injury accident",1751513486,1751515143,1751513486,35659335599.0,No Data,33.4270782999686,-112.03223310697,,,accidentsAndIncidents,AccidentIncident,0,,,,,,,,,,,,,,115N04188
434177,ERS,I-10,west,Right lane closed on I-10 Westbound from US-60 Eastbound (MP 156)  to  US-60 Eastbound (MP 156) . 1 Right lane closed.   7/2/2025 8:00 PM  to 7/3/2025 4:00 AM  ,1751511600,1750873592,1751511600,1751540400.0,1 Right lane closed,33.3783580249207,-111.96785,33.3841599352449,-111.967653984697,roadwork,rightlane,0,Minor,wevjE`vkjT_HKwHKcEGmFC}BC,,,,,,,,"""<b>Wed:</b><br/>8:00 PM - 12:00 AM<br/><br/><b>Thu:</b><br/>12:00 AM - 4:00 AM<br/><br/>""","[{""StartDate"": ""7/2/2025 8:00:00 PM-07:00:00"", ""EndDate"": ""7/3/2025 4:00:00 AM-07:00:00"", ""Times"": [{""StartTime"": ""20:00:00-07:00:00"", ""EndTime"": ""23:59:59-07:00:00""}], ""DaysOfWeek"": [""Wednesday""]}, {""StartDate"": ""7/2/2025 8:00:00 PM-07:00:00"", ""EndDate"": ""7/3/2025 4:00:00 AM-07:00:00"", ""Times"": [{""StartTime"": ""00:00:00-07:00:00"", ""EndTime"": ""03:59:59-07:00:00""}], ""DaysOfWeek"": [""Thursday""]}]",,8.0,115P04181
445647,ERS,I-10,east,Crash blocking the intersection on I-10 Eastbound  near   Ray Rd (MP 160)   ,1751512020,1751512098,1751512020,,No Data,33.3210417678461,-111.972385122921,,,accidentsAndIncidents,crashBIntersection,0,Minor,,,,,,,,,,,,1.0,115N04178
445649,ERS,I-10,east,Traffic signal timing issue or timing adjusted  on I-10 Eastbound  near   Ray Rd (MP 160)   ,1751512200,1751512281,1751512200,,No Data,33.3210417678461,-111.972385122921,,,accidentsAndIncidents,signaltiming,0,None,,,,,,,,,,,,1.0,115N04178
445786,ERS,I-10,west,Animal near roadway on I-10 Westbound  near   E Elliot Rd (MP 157)   ,1751546940,1751546958,1751546940,,No Data,33.3605770085628,-111.969301169868,,,accidentsAndIncidents,animalOnRoadway,0,Minor,,,,,,,,,,,,1.0,115+04181
446742,ERS,I-10,west,Debris on I-10 Westbound  near   40th St (MP 152)   ,1751568240,1751568319,1751568240,,No Data,33.4110600000001,-111.995005,,,accidentsAndIncidents,debrisinroad,0,Minor,,,,,,,,,,,,1.0,115P04185
447228,ERS,I-10,west,Disabled vehicle on the right shoulder on I-10 Westbound  near   E University Dr (MP 151)   ,1751596860,1751596938,1751596860,,No Data,33.4146202702701,-112.014238378378,,,accidentsAndIncidents,C34Rshoulder,0,None,,,,,,,,,,,,1.0,115P04186
447232,ERS,I-10,east,ITS equipment damage on I-10 Eastbound  near   Ray Rd (MP 160)   ,1751597520,1751597604,1751597520,,No Data,33.3210417678461,-111.972385122921,,,accidentsAndIncidents,ITS Equipment Damage,0,Minor,,,,,,,,,,,,1.0,115N04178
448751,ERS,I-10,east,Crash on the right shoulder on I-10 Eastbound  near   SR-143 (MP 154)   ,1751676480,1751676617,1751676480,,No Data,33.4106379045093,-111.97746868435,,,accidentsAndIncidents,Crash on right shoulder,0,Minor,,,,,,,,,,,,1.0,115N04184
448998,ERS,I-10,west,Disabled vehicle on the right shoulder on I-10 Westbound  near   Broadway Rd (MP 154)   ,1751685840,1751685859,1751685840,,No Data,33.4047218133209,-111.96830162758,,,accidentsAndIncidents,C34Rshoulder,0,None,,,,,,,,,,,,1.0,115P04183
450322,ERS,I-10,east,Disabled vehicle on the right shoulder on I-10 Eastbound  near   Baseline Rd (MP 156)   ,1751737020,1751738000,1751737020,,No Data,33.3844811309771,-111.967947060291,,,accidentsAndIncidents,C34Rshoulder,0,None,,,,,,,,,,,,1.0,115-04181
450650,ERS,I-10,west,Fence damage on I-10 Westbound  near   Superstition Fwy (MP 155)   ,1751767260,1751767276,1751767260,,No Data,33.393148,-111.96741,,,accidentsAndIncidents,fencedamage,0,Minor,,,,,,,,,,,,1.0,115P04182
452027,ERS,I-10,west,Dead animal near roadway on I-10 Westbound  near   E Elliot Rd (MP 157)   ,1751794440,1751794474,1751794440,,No Data,33.3605770085628,-111.969301169868,,,accidentsAndIncidents,DeadAnimalRoad,0,Minor,,,,,,,,,,,,1.0,115+04181
453936,ERS,I-10,west,Debris on the right shoulder on I-10 Westbound  near   Hohokam Expy (MP 153)   ,1751900460,1751901328,1751900460,,No Data,33.4111100000001,-111.986068,,,accidentsAndIncidents,DebrisRshoulder,0,None,,,,,,,,,,,,1.0,115+04185
453949,ERS,I-10,east,Disabled vehicle on the on ramp on I-10 Eastbound  near   S 40th St (MP 153)   ,1751902860,1751902946,1751902860,,No Data,33.4108040647673,-111.993297191653,,,accidentsAndIncidents,C34onramp,0,None,,,,,,,,,,,,1.0,115N04185
453998,ERS,I-10,east,Crash on the right shoulder on I-10 Eastbound  near   I-10 (MP 172.0)   ,1751907060,1751907143,1751907060,,No Data,33.4002506353591,-111.967572071823,,,accidentsAndIncidents,Crash on right shoulder,0,Minor,,,,,,,,,,,,1.0,115-04182
454330,ERS,I-10,east,Crash on the on ramp on I-10 Eastbound  near   Ray Rd (MP 160)   ,1751933820,1751933907,1751933820,,No Data,33.3210417678461,-111.972385122921,,,accidentsAndIncidents,crashOnramp,0,Minor,,,,,,,,,,,,1.0,115N04178
446039,ERS,I-10,east,Right lanes closed on I-10 Eastbound from Hohokam Expy (MP 153)  to  I-10 (MP 172.0) . 3 Right Lanes Closed.   7/7/2025 9:30 PM  to 7/8/2025 5:00 AM  ,1751949000,1751560935,1751949000,1751976000.0,3 Right Lanes Closed,33.4107499248625,-111.978318872936,33.3951789052054,-111.967740369381,roadwork,rightlanes,0,Minor,ep|jEnwmjT@]RiCHu@PuAPmA^uBR}@f@sBp@{Bd@qAfAkC|@iBP_@xBkDxAmB`@g@bAeA|AyAxBcBHGl@a@`BcAf@UpAm@`@SrBy@vA]|Bi@lB]xAQpAKhAGlACbAAR?jABhB@r@@|EBzA@vC@tDFhBF`@@,,,,,,,,"""<b>Mon:</b><br/>9:30 PM - 12:00 AM<br/><br/><b>Tue:</b><br/>12:00 AM - 5:00 AM<br/><br/>""","[{""StartDate"": ""7/7/2025 9:30:00 PM-07:00:00"", ""EndDate"": ""7/8/2025 5:00:00 AM-07:00:00"", ""Times"": [{""StartTime"": ""21:30:00-07:00:00"", ""EndTime"": ""23:59:59-07:00:00""}], ""DaysOfWeek"": [""Monday""]}, {""StartDate"": ""7/7/2025 9:30:00 PM-07:00:00"", ""EndDate"": ""7/8/2025 5:00:00 AM-07:00:00"", ""Times"": [{""StartTime"": ""00:00:00-07:00:00"", ""EndTime"": ""04:59:59-07:00:00""}], ""DaysOfWeek"": [""Tuesday""]}]",,7.0,115N04184
454481,ERS,I-10,east,Crash blocking the left lane on I-10 Eastbound  near   S 24th St (MP 150)   ,1751977080,1751977216,1751977080,,No Data,33.4262193923079,-112.028764438462,,,accidentsAndIncidents,crashLlane,0,Minor,,,,,,,,,,,,1.0,115N04187
454651,ERS,I-10,east,Disabled vehicle on the right shoulder on I-10 Eastbound  near   Superstition Fwy (MP 156)   ,1751997000,1751997081,1751997000,,No Data,33.378606666715,-111.968111445781,,,accidentsAndIncidents,C34Rshoulder,0,None,,,,,,,,,,,,1.0,115N04181
446040,ERS,I-10,east,Right lanes closed on I-10 Eastbound from Hohokam Expy (MP 153)  to  I-10 (MP 172.0) . 3 Right Lanes Closed.   7/8/2025 8:00 PM  to 7/9/2025 5:00 AM  ,1752030000,1751561016,1752030000,1752062400.0,3 Right Lanes Closed,33.4107499248625,-111.978318872936,33.3951789052054,-111.967740369381,roadwork,rightlanes,0,Minor,ep|jEnwmjT@]RiCHu@PuAPmA^uBR}@f@sBp@{Bd@qAfAkC|@iBP_@xBkDxAmB`@g@bAeA|AyAxBcBHGl@a@`BcAf@UpAm@`@SrBy@vA]|Bi@lB]xAQpAKhAGlACbAAR?jABhB@r@@|EBzA@vC@tDFhBF`@@,,,,,,,,"""<b>Tue:</b><br/>8:00 PM - 12:00 AM<br/><br/><b>Wed:</b><br/>12:00 AM - 5:00 AM<br/><br/>""","[{""StartDate"": ""7/8/2025 8:00:00 PM-07:00:00"", ""EndDate"": ""7/9/2025 5:00:00 AM-07:00:00"", ""Times"": [{""StartTime"": ""20:00:00-07:00:00"", ""EndTime"": ""23:59:59-07:00:00""}], ""DaysOfWeek"": [""Tuesday""]}, {""StartDate"": ""7/8/2025 8:00:00 PM-07:00:00"", ""EndDate"": ""7/9/2025 5:00:00 AM-07:00:00"", ""Times"": [{""StartTime"": ""00:00:00-07:00:00"", ""EndTime"": ""04:59:59-07:00:00""}], ""DaysOfWeek"": [""Wednesday""]}]",,7.0,115N04184
455099,ERS,I-10,east,Debris on the right shoulder on I-10 Eastbound  near   32nd St (MP 151)   ,1752069960,1752069987,1752069960,,No Data,33.4156237016577,-112.015595331492,,,accidentsAndIncidents,DebrisRshoulder,0,None,,,,,,,,,,,,1.0,115-04186
455199,ERS,I-10,west,Disabled vehicle on the right shoulder on I-10 Westbound  near   Hohokam Expy (MP 153)   ,1752082560,1752082646,1752082560,,No Data,33.41112,-111.984338,,,accidentsAndIncidents,C34Rshoulder,0,None,,,,,,,,,,,,1.0,115+04185
455478,ERS,I-10,west,Crash on the right shoulder on I-10 Westbound  near   24th St (MP 150)   ,1752105420,1752108381,1752105420,,No Data,33.426830269663,-112.030807831461,,,accidentsAndIncidents,Crash on right shoulder,0,Minor,,,,,,,,,,,,1.0,115P04188
446050,ERS,I-10,east,Left lanes closed on I-10 Eastbound from S 40th St (MP 152)  to  SR-143 Northbound (MP 154) . All HOV Lanes Closed.   7/9/2025 8:00 PM  to 7/10/2025 5:00 AM  ,1752116400,1751561885,1752116400,1752148800.0,All HOV Lanes Closed,33.4107904621471,-111.995147147998,33.408995420554,-111.972915719012,roadwork,leftlanes,0,Minor,mp|jEt`qjTCsOAcJ?}AAgP?yTAmH?_F@gF?{BD}BH}B@]RiCHu@PuAPmA^uBR}@f@sBp@{Bd@qAfAkC\s@,,,,,,,,"""<b>Wed:</b><br/>8:00 PM - 12:00 AM<br/><br/><b>Thu:</b><br/>12:00 AM - 5:00 AM<br/><br/>""","[{""StartDate"": ""7/9/2025 8:00:00 PM-07:00:00"", ""EndDate"": ""7/10/2025 5:00:00 AM-07:00:00"", ""Times"": [{""StartTime"": ""20:00:00-07:00:00"", ""EndTime"": ""23:59:59-07:00:00""}], ""DaysOfWeek"": [""Wednesday""]}, {""StartDate"": ""7/9/2025 8:00:00 PM-07:00:00"", ""EndDate"": ""7/10/2025 5:00:00 AM-07:00:00"", ""Times"": [{""StartTime"": ""00:00:00-07:00:00"", ""EndTime"": ""04:59:59-07:00:00""}], ""DaysOfWeek"": [""Thursday""]}]",,7.0,115N04185
455660,ERS,I-10,east,Abandoned vehicle on the right shoulder on I-10 Eastbound  near   40th St (MP 152)   ,1752155580,1752161431,1752155580,,No Data,33.4107223248959,-112.001946333227,,,accidentsAndIncidents,T1018SR,0,Minor,,,,,,,,,,,,1.0,115-04185
455709,ERS,I-10,east,Debris on the right shoulder on I-10 Eastbound  near   SR-143 (MP 153)   ,1752162060,1752162139,1752162060,,No Data,33.41083,-111.984381,,,accidentsAndIncidents,DebrisRshoulder,0,None,,,,,,,,,,,,1.0,115N04184
455770,ERS,I-10,east,Crash on the left shoulder on I-10 Eastbound  near   SR-143 (MP 153)   ,1752167700,1752167789,1752167700,,No Data,33.41083,-111.986111,,,accidentsAndIncidents,CrashLshoulder,0,Minor,,,,,,,,,,,,1.0,115-04184
455878,ERS,I-10,east,Disabled vehicle on the right shoulder on I-10 Eastbound  near   S 40th St (MP 152)   ,1752176400,1752176550,1752176400,,No Data,33.4107913445965,-111.995027134887,,,accidentsAndIncidents,C34Rshoulder,0,None,,,,,,,,,,,,1.0,115N04185
455904,ERS,I-10,east,Debris on the left shoulder on I-10 Eastbound  near   S 24th St (MP 151)   ,1752178740,1752179066,1752178740,,No Data,33.4212878370161,-112.020425191966,,,accidentsAndIncidents,debrisLshoulder,0,Minor,,,,,,,,,,,,1.0,115-04186
456130,ERS,I-10,west,Crash on the right shoulder on I-10 Westbound  near   24th St (MP 150)   ,1752198480,1752199158,1752198480,,No Data,33.4228999139156,-112.021728019188,,,accidentsAndIncidents,Crash on right shoulder,0,Minor,,,,,,,,,,,,1.0,115+04187
446054,ERS,I-10,west,Left lanes closed on I-10 Westbound from Broadway Rd (MP 172.0)  to  SR-143 Northbound (MP 153) . All HOV Lanes Closed.   7/10/2025 8:00 PM  to 7/11/2025 4:00 AM  ,1752202800,1751562071,1752202800,1752231600.0,All HOV Lanes Closed,33.4012905221037,-111.967285502009,33.4110564829923,-111.978588209174,roadwork,leftlanes,0,Minor,auzjEprkjTkADsAJmANs@JUB[DcARa@JUHsAf@aAZ_A^y@\qAn@_BbAq@b@e@\{@l@_@ZaBzAoApAg@j@mA|Ae@p@c@p@q@pAQ^iAjBw@dBc@hAs@tBWz@k@xBYpAYbBOdAObAOlAI~@OvBC^Er@,,,,,,,,"""<b>Thu:</b><br/>8:00 PM - 12:00 AM<br/><br/><b>Fri:</b><br/>12:00 AM - 4:00 AM<br/><br/>""","[{""StartDate"": ""7/10/2025 8:00:00 PM-07:00:00"", ""EndDate"": ""7/11/2025 4:00:00 AM-07:00:00"", ""Times"": [{""StartTime"": ""20:00:00-07:00:00"", ""EndTime"": ""23:59:59-07:00:00""}], ""DaysOfWeek"": [""Thursday""]}, {""StartDate"": ""7/10/2025 8:00:00 PM-07:00:00"", ""EndDate"": ""7/11/2025 4:00:00 AM-07:00:00"", ""Times"": [{""StartTime"": ""00:00:00-07:00:00"", ""EndTime"": ""03:59:59-07:00:00""}], ""DaysOfWeek"": [""Friday""]}]",,7.0,115+04183
456327,ERS,I-10,west,Disabled vehicle on the right shoulder on I-10 Westbound  near   E University Dr (MP 151)   ,1752246120,1752246205,1752246120,,No Data,33.4169557760553,-112.016304711254,,,accidentsAndIncidents,C34Rshoulder,0,None,,,,,,,,,,,,1.0,115+04187
456545,ERS,I-10,west,Crash on the left shoulder on I-10 Westbound  near   24th St (MP 150)   ,1752269640,1752270562,1752269640,,No Data,33.4228999139156,-112.021728019188,,,accidentsAndIncidents,CrashLshoulder,0,Minor,,,,,,,,,,,,1.0,115+04187
456784,ERS,I-10,west,Debris on the right shoulder on I-10 Westbound  near   Hohokam Expy (MP 153)   ,1752299940,1752300617,1752299940,,No Data,33.41112,-111.984338,,,accidentsAndIncidents,DebrisRshoulder,0,None,,,,,,,,,,,,1.0,115+04185
456855,ERS,I-10,west,Debris on the left shoulder on I-10 Westbound  near   24th St (MP 150)   ,1752328260,1752329117,1752328260,,No Data,33.4247253055173,-112.024420793793,,,accidentsAndIncidents,debrisLshoulder,0,Minor,,,,,,,,,,,,1.0,115+04187
456965,ERS,I-10,west,Disabled vehicle on the right shoulder on I-10 Westbound  near   E Elliot Rd (MP 158)   ,1752352200,1752353066,1752352200,,No Data,33.3520388648649,-111.971330189189,,,accidentsAndIncidents,C34Rshoulder,0,None,,,,,,,,,,,,1.0,115P04180
457602,ERS,I-10,east,Disabled vehicle on the right shoulder on I-10 Eastbound  near   Elliot Rd (MP 157)   ,1752516360,1752516435,1752516360,,No Data,33.3606895543767,-111.969555883289,,,accidentsAndIncidents,C34Rshoulder,0,None,,,,,,,,,,,,1.0,115-04180
454021,ERS,I-10,west,Left lanes closed on I-10 Westbound from E Chandler Blvd (MP 160)  to  E Elliot Rd (MP 158) . 2 Left Lanes Closed.   7/14/2025 8:00 PM  to 7/15/2025 4:00 AM  ,1752548400,1751908618,1752548400,1752577200.0,2 Left Lanes Closed,33.3128988657171,-111.97208,33.3519314029797,-111.971348099503,roadwork,leftlanes,0,Minor,slijEnpljToA?qGBq@?}A@qJ@yB?sC@sE@}A?_QKsD@mI?eCAmJ?_GAmC@i@?cWEsA?mVD_K?gE@yB@mG@mC?o@AmAAwIMmDMgDQmDO]Ai@E_@CyDUoBO{Ec@,,,,,,,,"""<b>Mon:</b><br/>8:00 PM - 12:00 AM<br/><br/><b>Tue:</b><br/>12:00 AM - 4:00 AM<br/><br/>""","[{""StartDate"": ""7/14/2025 8:00:00 PM-07:00:00"", ""EndDate"": ""7/15/2025 4:00:00 AM-07:00:00"", ""Times"": [{""StartTime"": ""20:00:00-07:00:00"", ""EndTime"": ""23:59:59-07:00:00""}], ""DaysOfWeek"": [""Monday""]}, {""StartDate"": ""7/14/2025 8:00:00 PM-07:00:00"", ""EndDate"": ""7/15/2025 4:00:00 AM-07:00:00"", ""Times"": [{""StartTime"": ""00:00:00-07:00:00"", ""EndTime"": ""03:59:59-07:00:00""}], ""DaysOfWeek"": [""Tuesday""]}]",,5.0,115+04178
454024,ERS,I-10,west,Left lanes closed on I-10 Westbound from E Elliot Rd (MP 158)  to  Baseline Rd (MP 156) . 3 Left Lanes Closed.   7/14/2025 8:00 PM  to 7/15/2025 4:00 AM  ,1752548400,1751908873,1752548400,1752577200.0,3 Left Lanes Closed,33.3526534327553,-111.971215345165,33.3737704380757,-111.96784,roadwork,leftlanes,0,Minor,aeqjEbkljTiDa@_CYuEo@_De@kIwA_AO_LmB_C]iEk@gDc@{AQy@IkAK]EkCYyD[wCSmBMy@EmBKkBIo@CkHUiCG_FEq@AyAAoG?,,,,,,,,"""<b>Mon:</b><br/>8:00 PM - 12:00 AM<br/><br/><b>Tue:</b><br/>12:00 AM - 4:00 AM<br/><br/>""","[{""StartDate"": ""7/14/2025 8:00:00 PM-07:00:00"", ""EndDate"": ""7/15/2025 4:00:00 AM-07:00:00"", ""Times"": [{""StartTime"": ""20:00:00-07:00:00"", ""EndTime"": ""23:59:59-07:00:00""}], ""DaysOfWeek"": [""Monday""]}, {""StartDate"": ""7/14/2025 8:00:00 PM-07:00:00"", ""EndDate"": ""7/15/2025 4:00:00 AM-07:00:00"", ""Times"": [{""StartTime"": ""00:00:00-07:00:00"", ""EndTime"": ""03:59:59-07:00:00""}], ""DaysOfWeek"": [""Tuesday""]}]",,5.0,115P04180
455232,ERS,I-10,east,Right lanes closed on I-10 Eastbound from Hohokam Expy (MP 154)  to  I-10 (MP 172.0) . 2 Right Lanes Closed.   7/14/2025 8:00 PM  to 7/15/2025 5:00 AM  ,1752548400,1752085461,1752548400,1752580800.0,2 Right Lanes Closed,33.4090462192232,-111.973002568349,33.3948709090816,-111.967759035813,roadwork,rightlanes,0,Minor,qe|jEfvljTh@eAP_@xBkDxAmB`@g@bAeA|AyAxAiAh@a@l@a@`BcAf@UpAm@`@SrBy@vA]|Bi@lB]xAQpAKhAGlACbAAR?jABhB@r@@|EBzA@vC@tDFhBF~AD,,,,,,,,"""<b>Mon:</b><br/>8:00 PM - 12:00 AM<br/><br/><b>Tue:</b><br/>12:00 AM - 5:00 AM<br/><br/>""","[{""StartDate"": ""7/14/2025 8:00:00 PM-07:00:00"", ""EndDate"": ""7/15/2025 5:00:00 AM-07:00:00"", ""Times"": [{""StartTime"": ""20:00:00-07:00:00"", ""EndTime"": ""23:59:59-07:00:00""}], ""DaysOfWeek"": [""Monday""]}, {""StartDate"": ""7/14/2025 8:00:00 PM-07:00:00"", ""EndDate"": ""7/15/2025 5:00:00 AM-07:00:00"", ""Times"": [{""StartTime"": ""00:00:00-07:00:00"", ""EndTime"": ""04:59:59-07:00:00""}], ""DaysOfWeek"": [""Tuesday""]}]",,6.0,115N04184
454022,ERS,I-10,west,Left lanes closed on I-10 Westbound from E Chandler Blvd (MP 160)  to  E Elliot Rd (MP 158) . 2 Left Lanes Closed.   7/15/2025 8:00 PM  to 7/16/2025 4:00 AM  ,1752634800,1751908700,1752634800,1752663600.0,2 Left Lanes Closed,33.3128988657171,-111.97208,33.3519314029797,-111.971348099503,roadwork,leftlanes,0,Minor,slijEnpljToA?qGBq@?}A@qJ@yB?sC@sE@}A?_QKsD@mI?eCAmJ?_GAmC@i@?cWEsA?mVD_K?gE@yB@mG@mC?o@AmAAwIMmDMgDQmDO]Ai@E_@CyDUoBO{Ec@,,,,,,,,"""<b>Tue:</b><br/>8:00 PM - 12:00 AM<br/><br/><b>Wed:</b><br/>12:00 AM - 4:00 AM<br/><br/>""","[{""StartDate"": ""7/15/2025 8:00:00 PM-07:00:00"", ""EndDate"": ""7/16/2025 4:00:00 AM-07:00:00"", ""Times"": [{""StartTime"": ""20:00:00-07:00:00"", ""EndTime"": ""23:59:59-07:00:00""}], ""DaysOfWeek"": [""Tuesday""]}, {""StartDate"": ""7/15/2025 8:00:00 PM-07:00:00"", ""EndDate"": ""7/16/2025 4:00:00 AM-07:00:00"", ""Times"": [{""StartTime"": ""00:00:00-07:00:00"", ""EndTime"": ""03:59:59-07:00:00""}], ""DaysOfWeek"": [""Wednesday""]}]",,5.0,115+04178
454025,ERS,I-10,west,Left lanes closed on I-10 Westbound from E Elliot Rd (MP 158)  to  Baseline Rd (MP 156) . 3 Left Lanes Closed.   7/15/2025 8:00 PM  to 7/16/2025 4:00 AM  ,1752634800,1751908954,1752634800,1752663600.0,3 Left Lanes Closed,33.3526534327553,-111.971215345165,33.3737704380757,-111.96784,roadwork,leftlanes,0,Minor,aeqjEbkljTiDa@_CYuEo@_De@kIwA_AO_LmB_C]iEk@gDc@{AQy@IkAK]EkCYyD[wCSmBMy@EmBKkBIo@CkHUiCG_FEq@AyAAoG?,,,,,,,,"""<b>Tue:</b><br/>8:00 PM - 12:00 AM<br/><br/><b>Wed:</b><br/>12:00 AM - 4:00 AM<br/><br/>""","[{""StartDate"": ""7/15/2025 8:00:00 PM-07:00:00"", ""EndDate"": ""7/16/2025 4:00:00 AM-07:00:00"", ""Times"": [{""StartTime"": ""20:00:00-07:00:00"", ""EndTime"": ""23:59:59-07:00:00""}], ""DaysOfWeek"": [""Tuesday""]}, {""StartDate"": ""7/15/2025 8:00:00 PM-07:00:00"", ""EndDate"": ""7/16/2025 4:00:00 AM-07:00:00"", ""Times"": [{""StartTime"": ""00:00:00-07:00:00"", ""EndTime"": ""03:59:59-07:00:00""}], ""DaysOfWeek"": [""Wednesday""]}]",,5.0,115P04180
458028,ERS,I-10,east,Disabled vehicle on the on ramp on I-10 Eastbound  near   E Warner Rd (MP 159)   ,1752586080,1752586171,1752586080,,No Data,33.331200150968,-111.972342330238,,,accidentsAndIncidents,C34onramp,0,None,,,,,,,,,,,,1.0,115N04179
458086,ERS,I-10,east,Disabled vehicle on the right shoulder on I-10 Eastbound  near   E Ray Rd (MP 160)   ,1752592800,1752592829,1752592800,,No Data,33.3148096139548,-111.972403194166,,,accidentsAndIncidents,C34Rshoulder,0,None,,,,,,,,,,,,1.0,115-04177
458197,ERS,I-10,west,Debris on the right shoulder on I-10 Westbound  near   Hohokam Expy (MP 153)   ,1752603780,1752603879,1752603780,,No Data,33.4111100000001,-111.986068,,,accidentsAndIncidents,DebrisRshoulder,0,None,,,,,,,,,,,,1.0,115+04185
458364,ERS,I-10,west,Debris on the right shoulder on I-10 Westbound  near   24th St (MP 150)   ,1752622620,1752623913,1752622620,,No Data,33.426830269663,-112.030807831461,,,accidentsAndIncidents,DebrisRshoulder,0,None,,,,,,,,,,,,1.0,115P04188
455233,ERS,I-10,east,Right lanes closed on I-10 Eastbound from Hohokam Expy (MP 154)  to  I-10 (MP 172.0) . 2 Right Lanes Closed.   7/15/2025 8:00 PM  to 7/16/2025 5:00 AM  ,1752634800,1752085659,1752634800,1752667200.0,2 Right Lanes Closed,33.4090462192232,-111.973002568349,33.3948709090816,-111.967759035813,roadwork,rightlanes,0,Minor,qe|jEfvljTh@eAP_@xBkDxAmB`@g@bAeA|AyAxAiAh@a@l@a@`BcAf@UpAm@`@SrBy@vA]|Bi@lB]xAQpAKhAGlACbAAR?jABhB@r@@|EBzA@vC@tDFhBF~AD,,,,,,,,"""<b>Tue:</b><br/>8:00 PM - 12:00 AM<br/><br/><b>Wed:</b><br/>12:00 AM - 5:00 AM<br/><br/>""","[{""StartDate"": ""7/15/2025 8:00:00 PM-07:00:00"", ""EndDate"": ""7/16/2025 5:00:00 AM-07:00:00"", ""Times"": [{""StartTime"": ""20:00:00-07:00:00"", ""EndTime"": ""23:59:59-07:00:00""}], ""DaysOfWeek"": [""Tuesday""]}, {""StartDate"": ""7/15/2025 8:00:00 PM-07:00:00"", ""EndDate"": ""7/16/2025 5:00:00 AM-07:00:00"", ""Times"": [{""StartTime"": ""00:00:00-07:00:00"", ""EndTime"": ""04:59:59-07:00:00""}], ""DaysOfWeek"": [""Wednesday""]}]",,6.0,115N04184
455743,ERS,I-10,east,Left lane closed on I-10 Eastbound from Superstition Fwy (MP 156)  to  Elliot Rd (MP 157) . All HOV Lanes Closed.   7/15/2025 8:00 PM  to 7/16/2025 5:00 AM  ,1752634800,1752163922,1752634800,1752667200.0,All HOV Lanes Closed,33.3695715477246,-111.968241400136,33.3637584398979,-111.968930917519,roadwork,LeftLane,0,Minor,yntjEnxkjT|@BvEPhDN~DT^BdDTn@FdCRxALr@H,,,,,,,,"""<b>Tue:</b><br/>8:00 PM - 12:00 AM<br/><br/><b>Wed:</b><br/>12:00 AM - 5:00 AM<br/><br/>""","[{""StartDate"": ""7/15/2025 8:00:00 PM-07:00:00"", ""EndDate"": ""7/16/2025 5:00:00 AM-07:00:00"", ""Times"": [{""StartTime"": ""20:00:00-07:00:00"", ""EndTime"": ""23:59:59-07:00:00""}], ""DaysOfWeek"": [""Tuesday""]}, {""StartDate"": ""7/15/2025 8:00:00 PM-07:00:00"", ""EndDate"": ""7/16/2025 5:00:00 AM-07:00:00"", ""Times"": [{""StartTime"": ""00:00:00-07:00:00"", ""EndTime"": ""04:59:59-07:00:00""}], ""DaysOfWeek"": [""Wednesday""]}]",,6.0,115-04180
455744,ERS,I-10,east,Left lane closed on I-10 Eastbound from Ray Rd (MP 160)  to  Chandler Blvd (MP 161) . All HOV Lanes Closed.   7/15/2025 8:00 PM  to 7/16/2025 5:00 AM  ,1752634800,1752164029,1752634800,1752667200.0,All HOV Lanes Closed,33.3197324193641,-111.97239,33.3085669468506,-111.97234,roadwork,LeftLane,0,Minor,iwjjElrljTtKA|BBtI?f@@p@?tBGxCA|BBlB@`L?hCC`DEh@?,,,,,,,,"""<b>Tue:</b><br/>8:00 PM - 12:00 AM<br/><br/><b>Wed:</b><br/>12:00 AM - 5:00 AM<br/><br/>""","[{""StartDate"": ""7/15/2025 8:00:00 PM-07:00:00"", ""EndDate"": ""7/16/2025 5:00:00 AM-07:00:00"", ""Times"": [{""StartTime"": ""20:00:00-07:00:00"", ""EndTime"": ""23:59:59-07:00:00""}], ""DaysOfWeek"": [""Tuesday""]}, {""StartDate"": ""7/15/2025 8:00:00 PM-07:00:00"", ""EndDate"": ""7/16/2025 5:00:00 AM-07:00:00"", ""Times"": [{""StartTime"": ""00:00:00-07:00:00"", ""EndTime"": ""04:59:59-07:00:00""}], ""DaysOfWeek"": [""Wednesday""]}]",,4.0,115N04178
458156,ERS,I-10,west,Left lanes closed on I-10 Westbound from S 40th St (MP 152)  to  E University Dr (MP 151) . 1 Left lane closed.   7/15/2025 8:00 PM  to 7/16/2025 4:00 AM  ,1752634800,1752598571,1752634800,1752663600.0,1 Left lane closed,33.4109995582481,-112.00342564306,33.415564244116,-112.015114994883,roadwork,leftlanes,0,Minor,wq|jEltrjT?nABnBA~BE`CI~BOjCK`BUlBc@lC[zAQv@GTk@rBUv@M`@g@rAu@fBaApBi@~@q@fAc@p@sAfB}@`AUVi@j@gC~Bk@d@,,,,,,,,"""<b>Tue:</b><br/>8:00 PM - 12:00 AM<br/><br/><b>Wed:</b><br/>12:00 AM - 4:00 AM<br/><br/>""","[{""StartDate"": ""7/15/2025 8:00:00 PM-07:00:00"", ""EndDate"": ""7/16/2025 4:00:00 AM-07:00:00"", ""Times"": [{""StartTime"": ""20:00:00-07:00:00"", ""EndTime"": ""23:59:59-07:00:00""}], ""DaysOfWeek"": [""Tuesday""]}, {""StartDate"": ""7/15/2025 8:00:00 PM-07:00:00"", ""EndDate"": ""7/16/2025 4:00:00 AM-07:00:00"", ""Times"": [{""StartTime"": ""00:00:00-07:00:00"", ""EndTime"": ""03:59:59-07:00:00""}], ""DaysOfWeek"": [""Wednesday""]}]",,7.0,115+04186
458578,ERS,I-10,west,Disabled vehicle on the right shoulder on I-10 Westbound  near   E Ray Rd (MP 160)   ,1752668760,1752668841,1752668760,,No Data,33.3210099262473,-111.97212145987,,,accidentsAndIncidents,C34Rshoulder,0,None,,,,,,,,,,,,1.0,115P04178
458710,ERS,I-10,east,Crash on the right shoulder on I-10 Eastbound  near   Ray Rd (MP 160)   ,1752680700,1752680836,1752680700,,No Data,33.3210417678461,-111.972385122921,,,accidentsAndIncidents,Crash on right shoulder,0,Minor,,,,,,,,,,,,1.0,115N04178
458712,ERS,I-10,west,Crash blocking the HOV lane on I-10 Westbound  near   E Elliot Rd (MP 158)   ,1752681060,1752681140,1752681060,,No Data,33.3491839384615,-111.971739507692,,,accidentsAndIncidents,crashHOV,0,Minor,,,,,,,,,,,,1.0,115P04180
458882,ERS,I-10,east,Debris blocking the left lane on I-10 Eastbound  near   E Chandler Blvd (MP 161)   ,1752697380,1752697400,1752697380,,No Data,33.297836,-111.97249,,,accidentsAndIncidents,debrisLlane,0,Minor,,,,,,,,,,,,1.0,115N05165
458895,ERS,I-10,west,Disabled vehicle blocking the left lanes on I-10 Westbound  near   E Ray Rd (MP 160)   ,1752698280,1752698371,1752698280,,No Data,33.3210099262473,-111.97212145987,,,accidentsAndIncidents,C34leftLanes,0,Minor,,,,,,,,,,,,1.0,115P04178
459021,ERS,I-10,east,Crash on the right shoulder on I-10 Eastbound  near   Elliot Rd (MP 158)   ,1752708720,1752708748,1752708720,,No Data,33.3492770115606,-111.972025075145,,,accidentsAndIncidents,Crash on right shoulder,0,Minor,,,,,,,,,,,,1.0,115N04180
459046,ERS,I-10,west,Disabled vehicle on the right shoulder on I-10 Westbound  near   US-60 Westbound (MP 155)   ,1752711840,1752711930,1752711840,,No Data,33.3902459400167,-111.967492401,,,accidentsAndIncidents,C34Rshoulder,0,None,,,,,,,,,,,,1.0,115P04182
454043,ERS,I-10,east,Right lanes closed on I-10 Eastbound from 32nd St (MP 151)  to  40th St (MP 152) . 3 Right Lanes Closed.   7/16/2025 8:00 PM  to 7/17/2025 5:00 AM  ,1752721200,1751909713,1752721200,1752753600.0,3 Right Lanes Closed,33.4141909958447,-112.014217756011,33.4107022954147,-112.00329079805,roadwork,rightlanes,0,Minor,ue}jEzwtjTNOj@o@jAyAfAaBbAgB^s@~@sBXs@\y@Ts@L_@X}@b@{APs@Nq@b@yB^eCX{BP}BL_CH_C@{A?gI?],,,,,,,,"""<b>Wed:</b><br/>8:00 PM - 12:00 AM<br/><br/><b>Thu:</b><br/>12:00 AM - 5:00 AM<br/><br/>""","[{""StartDate"": ""7/16/2025 8:00:00 PM-07:00:00"", ""EndDate"": ""7/17/2025 5:00:00 AM-07:00:00"", ""Times"": [{""StartTime"": ""20:00:00-07:00:00"", ""EndTime"": ""23:59:59-07:00:00""}], ""DaysOfWeek"": [""Wednesday""]}, {""StartDate"": ""7/16/2025 8:00:00 PM-07:00:00"", ""EndDate"": ""7/17/2025 5:00:00 AM-07:00:00"", ""Times"": [{""StartTime"": ""00:00:00-07:00:00"", ""EndTime"": ""04:59:59-07:00:00""}], ""DaysOfWeek"": [""Thursday""]}]",,6.0,115N04186
459208,ERS,I-10,east,Disabled vehicle blocking the intersection on I-10 Eastbound  near   Elliot Rd (MP 158)   ,1752741660,1752741745,1752741660,,No Data,33.3492770115606,-111.972025075145,,,accidentsAndIncidents,TC34I,0,Minor,,,,,,,,,,,,1.0,115N04180
459306,ERS,I-10,east,Disabled vehicle on the right shoulder on I-10 Eastbound  near   Elliot Rd (MP 157)   ,1752765420,1752765503,1752765420,,No Data,33.3606895543767,-111.969555883289,,,accidentsAndIncidents,C34Rshoulder,0,None,,,,,,,,,,,,1.0,115-04180
460662,ERS,I-10,west,Crash on the right shoulder on I-10 Westbound  near   E Elliot Rd (MP 157)   ,1752821700,1752821783,1752821700,,No Data,33.3605770085628,-111.969301169868,,,accidentsAndIncidents,Crash on right shoulder,0,Minor,,,,,,,,,,,,1.0,115+04181
461080,ERS,I-10,west,Disabled vehicle on the on ramp on I-10 Westbound  near   US-60 Eastbound (MP 156)   ,1752869280,1752870748,1752869280,,No Data,33.375223,-111.96784,,,accidentsAndIncidents,C34onramp,0,None,,,,,,,,,,,,1.0,115P04181
461464,ERS,I-10,east,Crash blocking the exit ramp on I-10 Eastbound  near   E Warner Rd (MP 159)   ,1752927060,1752927151,1752927060,,No Data,33.3327901296008,-111.972346492486,,,accidentsAndIncidents,crashBExit,0,Minor,,,,,,,,,,,,1.0,115N04179
462160,ERS,I-10,west,Crash blocking the left lane on I-10 Westbound  near   W Warner Rd (MP 159)   ,1752941700,1752941723,1752941700,,No Data,33.3370818299629,-111.97207025464,,,accidentsAndIncidents,crashLlane,0,Minor,,,,,,,,,,,,1.0,115P04179
462243,ERS,I-10,west,Crash on the right shoulder on I-10 Westbound  near   E Elliot Rd (MP 157)   ,1752960420,1752960861,1752960420,,No Data,33.3605770085628,-111.969301169868,,,accidentsAndIncidents,Crash on right shoulder,0,Minor,,,,,,,,,,,,1.0,115+04181
462248,RADS,"I10 @ E ELLIOT RD NB OF ,TMP",,"I10 @ E ELLIOT RD NB OF ,TMP - AccidentIncident - injury accident",1752960986,1752962344,1752960986,35659335599.0,No Data,33.3477436830677,-111.971345249081,,,accidentsAndIncidents,AccidentIncident,0,,,,,,,,,,,,,,115P04180
454053,ERS,I-10,west,Right lanes closed on I-10 Westbound from E Elliot Rd (MP 158)  to  Baseline Rd (MP 156) . 3 Right Lanes Closed.   7/18/2025 10:00 PM  to 7/19/2025 10:00 PM  ,1752901200,1751909970,1752901200,1752987600.0,3 Right Lanes Closed,33.3492114762799,-111.971736065465,33.3764397139484,-111.967842261149,roadwork,rightlanes,0,Minor,qopjEjnljTsEYoBOmBQgD[_Gq@_CYuEo@_De@kIwA_AO_LmB_C]iEk@gDc@{AQy@IkAK]EkCYyD[wCSmBMy@EmBKkBIo@CkHUiCG_FEq@AyAAaU?cB?,,,,,,,,"""<b>Fri:</b><br/>10:00 PM - 12:00 AM<br/><br/><b>Sat:</b><br/>12:00 AM - 10:00 PM<br/><br/>""","[{""StartDate"": ""7/18/2025 10:00:00 PM-07:00:00"", ""EndDate"": ""7/19/2025 10:00:00 PM-07:00:00"", ""Times"": [{""StartTime"": ""22:00:00-07:00:00"", ""EndTime"": ""23:59:59-07:00:00""}], ""DaysOfWeek"": [""Friday""]}, {""StartDate"": ""7/18/2025 10:00:00 PM-07:00:00"", ""EndDate"": ""7/19/2025 10:00:00 PM-07:00:00"", ""Times"": [{""StartTime"": ""00:00:00-07:00:00"", ""EndTime"": ""21:59:59-07:00:00""}], ""DaysOfWeek"": [""Saturday""]}]",,5.0,115P04180
462456,ERS,I-10,east,Debris on the right shoulder on I-10 Eastbound  near   I-10 (MP 172.0)   ,1753024620,1753025358,1753024620,,No Data,33.4002506353591,-111.967572071823,,,accidentsAndIncidents,DebrisRshoulder,0,None,,,,,,,,,,,,1.0,115-04182
462668,ERS,I-10,west,Disabled vehicle on the right shoulder on I-10 Westbound  near   E Ray Rd (MP 160)   ,1753069200,1753069222,1753069200,,No Data,33.3210099262473,-111.97212145987,,,accidentsAndIncidents,C34Rshoulder,0,None,,,,,,,,,,,,1.0,115P04178
462830,ERS,I-10,east,Disabled vehicle on the right shoulder on I-10 Eastbound  near   S 40th St (MP 152)   ,1753110240,1753110320,1753110240,,No Data,33.4107913445965,-111.995027134887,,,accidentsAndIncidents,C34Rshoulder,0,None,,,,,,,,,,,,1.0,115N04185
462895,ERS,I-10,west,Crash blocking the intersection on I-10 Westbound  near   202-LOOP Eastbound (MP 161)   ,1753115460,1753115541,1753115460,,No Data,33.3060087207162,-111.972059222498,,,accidentsAndIncidents,crashBIntersection,0,Minor,,,,,,,,,,,,1.0,115P04177
462937,ERS,I-10,west,Crash on the right shoulder on I-10 Westbound  near   E University Dr (MP 151)   ,1753120800,1753120830,1753120800,,No Data,33.4146202702701,-112.014238378378,,,accidentsAndIncidents,Crash on right shoulder,0,Minor,,,,,,,,,,,,1.0,115P04186
457587,ERS,I-10,east,Left lanes closed on I-10 Eastbound from E University Dr (MP 151)  to  SR-143 Northbound (MP 153) . 3 Left Lanes Closed.   7/21/2025 8:00 PM  to 7/22/2025 5:00 AM  ,1753153200,1752514075,1753153200,1753185600.0,3 Left Lanes Closed,33.411827615828,-112.010528930051,33.4110862317845,-111.97893912909,roadwork,leftlanes,0,Minor,}v|jEx`tjTPi@b@{APs@Nq@b@yB^eCX{BP}BL_CH_C@{A?gICeGA}C?aCEuME_P?qAC_PAcJ?}AAgP?yTAmH?_F@gF?{BD}BH}B@]RiCHu@PuAPmA^uBR}@f@sBp@{Bd@qAfAkC|@iBP_@xBkDxAmB`@g@bAeA|AyAxAiAh@a@l@a@`BcAf@UpAm@`@SrBy@vA]|Bi@lB]xAQpAKhAGlACbAAR?jABhB@r@@|EBzA@vC@tDFhBFbCFxEFxC@`EBnGBnD@rDAxAA~ABpA@N@~ABjCBzG@xDDp@?hFBnMLjIJfQAtE@vI@|D@|A@nBBtCHdCFvEPhDN~DT^BdDTn@FdCRxAL|@JtDd@dD`@j@FpDb@d@FtBVr@JjIrAzAXrEv@hDj@RBlDh@|Df@tBXjIx@xBRnDXtAH`@Dj@LXBh@BnCHpERvDJvBDnDFv@@hABbC?|MCpj@?zVA|D?pE@nE?`C@lE@pI?rVBbB?~JA|BBtI?f@@p@?tBGxCA|BBlB@`L?hCC`DElK?dDAzF?zCBV@fGLhCDjEB|IBlDAvE?r@A|BArAClBEnDMbESlDUtD[nD_@nDe@dIsAp@MvD{@rA_@j@OvBm@bCu@hA_@r@WbA_@`C_AHEbCeAzAo@tAs@bE{BnDqBzA_A^W|LuIxHoF`GiEbI{FnA}@zGyEzDsCr@i@dBkAlDcCpMeJxHmFn@e@bEwChFsDbFoDd@]tB{AdAw@vF_EtCqBfEyChBsAh@_@xAeAZSlFwD|B_B_@_AgE|CcD|B[RuBxAoBvA}CxBwEfD}EjDoAz@wJ`HyGzEoDdC]VuEfDqI`GaEtCgGlEkHfFiDbC}AjAiBnAgAx@aBpAyAbAg@^a@XIFeBlAkBrAuPrL}DnCcCxAeDlBwDpBsBbAwErBaC|@mC`AeEpAgBf@cFnAqB`@eB\iBZw@NYD_AL{ATmALsBTsCRgBJoBFsBBqB@}G@yDBiA?yAAyF?sF@o@?uHByDHwBDcABK?y@BQ@qA@eAAu@A_A?qJDeF?oJA_E?}E@}D?qGBq@?}A@qJ@yB?sC@sE@}A?_QKsD@mI?eCAmJ?_GAmC@i@?cWEsA?mVD_K?gE@yB@mG@mC?o@AmAAwIMmDMgDQmDO]Ai@E_@CyDUoBOuGm@_Gq@_CYuEo@_De@kIwA_AO_LmB_C]iEk@gDc@{AQy@IkAK]EkCYyD[wCSmBMy@EmBKkBIo@CkHUiCG_FEq@AyAAaU?eN@}GKwHKcEGmFCkFEgHGy@AkDC}@?eBAwCEiCEc@?oFCkDEcEGmF?cFEeFCmB@eAAQ?kCEqHEsBCgBAaB?mBHsAJmANs@JUB[DcARa@JUHsAf@aAZ_A^y@\qAn@_BbAq@b@e@\{@l@_@ZaBzAoApAg@j@mA|Ae@p@c@p@q@pAQ^iAjBw@dBc@hAs@tBWz@k@xBYpAYbBOdAObAOlAI~@OvBC^GlACj@,,,,,,,,"""<b>Mon:</b><br/>8:00 PM - 12:00 AM<br/><br/><b>Tue:</b><br/>12:00 AM - 5:00 AM<br/><br/>""","[{""StartDate"": ""7/21/2025 8:00:00 PM-07:00:00"", ""EndDate"": ""7/22/2025 5:00:00 AM-07:00:00"", ""Times"": [{""StartTime"": ""20:00:00-07:00:00"", ""EndTime"": ""23:59:59-07:00:00""}], ""DaysOfWeek"": [""Monday""]}, {""StartDate"": ""7/21/2025 8:00:00 PM-07:00:00"", ""EndDate"": ""7/22/2025 5:00:00 AM-07:00:00"", ""Times"": [{""StartTime"": ""00:00:00-07:00:00"", ""EndTime"": ""04:59:59-07:00:00""}], ""DaysOfWeek"": [""Tuesday""]}]",,7.0,115N04186
463462,ERS,I-10,west,Disabled vehicle on the left shoulder on I-10 Westbound  near   Broadway Rd (MP 154)   ,1753201500,1753201526,1753201500,,No Data,33.4047218133209,-111.96830162758,,,accidentsAndIncidents,C34Lshoulder,0,None,,,,,,,,,,,,1.0,115P04183
463775,RADS,"I10 @ W BROADWAY RD WB EO ,TMP",,"I10 @ W BROADWAY RD WB EO ,TMP - AccidentIncident - vehicle on fire",1753231181,1753232348,1753231181,35659335599.0,No Data,33.405687311629,-111.968839907693,,,accidentsAndIncidents,AccidentIncident,0,,,,,,,,,,,,,,115P04183
463776,ERS,I-10,west,Vehicle fire on I-10 Westbound  near   Broadway Rd (MP 154)   ,1753231260,1753231348,1753231260,,No Data,33.4047218133209,-111.96830162758,,,accidentsAndIncidents,vehicleOnFire,0,Minor,,,,,,,,,,,,1.0,115P04183
463781,RADS,"I10 @ E RAY RD SB SO ,PHX",,"I10 @ E RAY RD SB SO ,PHX - AccidentIncident - injury accident",1753231844,1753232348,1753231844,35659335599.0,No Data,33.3145184714,-111.972408861537,,,accidentsAndIncidents,AccidentIncident,0,,,,,,,,,,,,,,115-04177
463834,ERS,I-10,west,Disabled vehicle on the right shoulder on I-10 Westbound  near   Broadway Rd (MP 172.0)   ,1753242600,1753242629,1753242600,,No Data,33.4004896288355,-111.967272699445,,,accidentsAndIncidents,C34Rshoulder,0,None,,,,,,,,,,,,1.0,115+04183
463836,ERS,I-10,east,Disabled vehicle blocking the on ramp on I-10 Eastbound  near   S 24th St (MP 150)   ,1753242960,1753243095,1753242960,,No Data,33.4242511854867,-112.024179359496,,,accidentsAndIncidents,TC34ONB,0,Minor,,,,,,,,,,,,1.0,115-04186
457589,ERS,I-10,east,Left lane closed on I-10 Eastbound from Hohokam Expy (MP 153)  to  SR-143 Northbound (MP 154) . 1 Left HOV Lane Closed.   7/22/2025 8:00 PM  to 7/23/2025 5:00 AM  ,1753239600,1752514157,1753239600,1753272000.0,1 Left HOV Lane Closed,33.4107709363581,-111.978583798111,33.4088826372958,-111.972722896022,roadwork,LeftLane,0,Minor,ip|jEbymjTBs@@]RiCHu@PuAPmA^uBR}@f@sBp@{Bd@qAfAkCt@{A,,,,,,,,"""<b>Tue:</b><br/>8:00 PM - 12:00 AM<br/><br/><b>Wed:</b><br/>12:00 AM - 5:00 AM<br/><br/>""","[{""StartDate"": ""7/22/2025 8:00:00 PM-07:00:00"", ""EndDate"": ""7/23/2025 5:00:00 AM-07:00:00"", ""Times"": [{""StartTime"": ""20:00:00-07:00:00"", ""EndTime"": ""23:59:59-07:00:00""}], ""DaysOfWeek"": [""Tuesday""]}, {""StartDate"": ""7/22/2025 8:00:00 PM-07:00:00"", ""EndDate"": ""7/23/2025 5:00:00 AM-07:00:00"", ""Times"": [{""StartTime"": ""00:00:00-07:00:00"", ""EndTime"": ""04:59:59-07:00:00""}], ""DaysOfWeek"": [""Wednesday""]}]",,5.0,115N04184
464597,ERS,I-10,west,Disabled vehicle on the right shoulder on I-10 Westbound  near   Broadway Rd (MP 154)   ,1753277460,1753277540,1753277460,,No Data,33.4047218133209,-111.96830162758,,,accidentsAndIncidents,C34Rshoulder,0,None,,,,,,,,,,,,1.0,115P04183
464590,ERS,I-10,west,Abandoned vehicle on the right shoulder on I-10 Westbound  near   SR-143 Northbound (MP 154)   ,1753275600,1753282767,1753275600,,No Data,33.4071844460926,-111.970108459597,,,accidentsAndIncidents,T1018SR,0,Minor,,,,,,,,,,,,1.0,115P04184
465055,ERS,I-10,west,Debris blocking the left lane on I-10 Westbound  near   24th St (MP 150)   ,1753318500,1753318522,1753318500,,No Data,33.4254892033632,-112.025898254986,,,accidentsAndIncidents,debrisLlane,0,Minor,,,,,,,,,,,,1.0,115P04187
465106,ERS,I-10,west,Crash on the exit ramp on I-10 Westbound  near   E Ray Rd (MP 160)   ,1753326720,1753327586,1753326720,,No Data,33.3210099262473,-111.97212145987,,,accidentsAndIncidents,crashExit,0,Minor,,,,,,,,,,,,1.0,115P04178
465159,ERS,I-10,east,Disabled vehicle on the right shoulder on I-10 Eastbound  near   40th St (MP 152)   ,1753338720,1753339151,1753338720,,No Data,33.4107223248959,-112.001946333227,,,accidentsAndIncidents,C34Rshoulder,0,None,,,,,,,,,,,,1.0,115-04185
457591,ERS,I-10,east,Left lanes closed on I-10 Eastbound from I-10 (MP 172.0)  to  I-10 (MP 155) . All HOV Lanes Closed.   7/23/2025 8:00 PM  to 7/24/2025 5:00 AM  ,1753326000,1752514284,1753326000,1753358400.0,All HOV Lanes Closed,33.4010922059853,-111.967598574666,33.3914244401414,-111.967845966573,roadwork,leftlanes,0,Minor,yszjEntkjTfACbAAR?jABhB@r@@|EBzA@vC@tDFhBFbCFxEFxC@`EBvA@,,,,,,,,"""<b>Wed, Thu:</b><br/>Active all day<br/><br/>""","[{""StartDate"": ""7/23/2025 8:00:00 PM-07:00:00"", ""EndDate"": ""7/24/2025 5:00:00 AM-07:00:00"", ""Times"": [{""StartTime"": ""00:00:00-07:00:00"", ""EndTime"": ""23:59:59-07:00:00""}], ""DaysOfWeek"": [""Wednesday"", ""Thursday""]}]",,6.0,115-04182
457592,ERS,I-10 Eastbound,east,HOV ramp closed on  ramp  from I-10 Eastbound  to  US-60 Eastbound . All HOV Lanes Closed.   7/23/2025 8:00 PM  to 7/24/2025 5:00 AM  ,1753326000,1752514358,1753326000,1753358400.0,All HOV Lanes Closed,33.39588,-111.96769,33.388517964937,-111.966599956171,closures,hovrampclosed,1,Major,gsyjE`ukjTREFAJAJA`A?bB?hDB|EBlEDlBB~B?Z?VAZCXERC^IXINGZKXOZQXQTS\[PQX_@V]R_@LYJUFORm@Le@H_@DUF_@D]B[Dg@P}BHeANqBJsAFw@JaATwBNcBBWBS@IBQDWBON{@V{AHc@DS@E@EBI@CHQHQ,,,,,,,,"""<b>Wed:</b><br/>8:00 PM - 12:00 AM<br/><br/><b>Thu:</b><br/>12:00 AM - 5:00 AM<br/><br/>""","[{""StartDate"": ""7/23/2025 8:00:00 PM-07:00:00"", ""EndDate"": ""7/24/2025 5:00:00 AM-07:00:00"", ""Times"": [{""StartTime"": ""20:00:00-07:00:00"", ""EndTime"": ""23:59:59-07:00:00""}], ""DaysOfWeek"": [""Wednesday""]}, {""StartDate"": ""7/23/2025 8:00:00 PM-07:00:00"", ""EndDate"": ""7/24/2025 5:00:00 AM-07:00:00"", ""Times"": [{""StartTime"": ""00:00:00-07:00:00"", ""EndTime"": ""04:59:59-07:00:00""}], ""DaysOfWeek"": [""Thursday""]}]",,1.0,115N04182
465232,ERS,I-10,east,ITS equipment damage on I-10 Eastbound  near   E Elliot Rd (MP 158)   ,1753367160,1753367244,1753367160,,No Data,33.3458470822943,-111.972291645885,,,accidentsAndIncidents,ITS Equipment Damage,0,Minor,,,,,,,,,,,,1.0,115N04180
463497,ERS,I-10,west,Disabled vehicle on the left shoulder on I-10 Westbound  near   E University Dr (MP 151)   ,1753206660,1753206808,1753206660,,No Data,33.4157678396127,-112.015292034446,,,accidentsAndIncidents,C34Lshoulder,0,None,,,,,,,,,,,,1.0,115+04187
465199,ERS,I-10,west,Abandoned vehicle on the right shoulder on I-10 Westbound  near   Elliot Rd (MP 158)   ,1753363200,1753376792,1753363200,,No Data,33.3457896889813,-111.972038380042,,,accidentsAndIncidents,T1018SR,0,Minor,,,,,,,,,,,,1.0,115P04180
465376,ERS,I-10,west,Debris on the left shoulder on I-10 Westbound  near   24th St (MP 150)   ,1753380960,1753380987,1753380960,,No Data,33.4254892033632,-112.025898254986,,,accidentsAndIncidents,debrisLshoulder,0,Minor,,,,,,,,,,,,1.0,115P04187
465383,ERS,I-10,east,Debris on the left shoulder on I-10 Eastbound  near   SR-143 (MP 153)   ,1753381560,1753381586,1753381560,,No Data,33.41083,-111.984381,,,accidentsAndIncidents,debrisLshoulder,0,Minor,,,,,,,,,,,,1.0,115N04184
465648,ERS,I-10,west,Disabled vehicle on the left shoulder on I-10 Westbound  near   W Broadway Rd (MP 154)   ,1753403700,1753403724,1753403700,,No Data,33.410534015544,-111.975761259067,,,accidentsAndIncidents,C34Lshoulder,0,None,,,,,,,,,,,,1.0,115P04184
465670,ERS,I-10,west,Disabled vehicle on the left shoulder on I-10 Westbound  near   24th St (MP 150)   ,1753405020,1753405105,1753405020,,No Data,33.4254892033632,-112.025898254986,,,accidentsAndIncidents,C34Lshoulder,0,None,,,,,,,,,,,,1.0,115P04187
465374,ERS,I-10,east,Disabled vehicle blocking the exit ramp on I-10 Eastbound  near   E Warner Rd (MP 159)   ,1753380780,1753380853,1753380780,,No Data,33.331200150968,-111.972342330238,,,accidentsAndIncidents,TC34EXB,0,Minor,,,,,,,,,,,,1.0,115N04179
465478,ERS,I-10,west,Debris on I-10 Westbound  near   Hohokam Expy (MP 153)   ,1753387560,1753387643,1753387560,,No Data,33.4111100000001,-111.986068,,,accidentsAndIncidents,debrisinroad,0,Minor,,,,,,,,,,,,1.0,115+04185
457593,ERS,I-10,west,Left lanes closed on I-10 Westbound from W Broadway Rd (MP 153)  to  University Dr (MP 151) . 3 Left Lanes Closed.   7/24/2025 8:00 PM  to 7/25/2025 4:00 AM  ,1753412400,1752514494,1753412400,1753441200.0,3 Left Lanes Closed,33.4110625424025,-111.978647288424,33.4120527845375,-112.010359815186,roadwork,leftlanes,0,Minor,cr|jEpymjTALCt@CvBAzAAbACzJ?h@D`H?|D@jC?pC@jC@xAB`B?fM@`Z?nEHvY@fB?tD@`D@`CC`C?lABnBA~BE`CI~BOjCK`BUlBc@lC[zAQv@GTk@rBK^,,,,,,,,"""<b>Thu:</b><br/>8:00 PM - 12:00 AM<br/><br/><b>Fri:</b><br/>12:00 AM - 4:00 AM<br/><br/>""","[{""StartDate"": ""7/24/2025 8:00:00 PM-07:00:00"", ""EndDate"": ""7/25/2025 4:00:00 AM-07:00:00"", ""Times"": [{""StartTime"": ""20:00:00-07:00:00"", ""EndTime"": ""23:59:59-07:00:00""}], ""DaysOfWeek"": [""Thursday""]}, {""StartDate"": ""7/24/2025 8:00:00 PM-07:00:00"", ""EndDate"": ""7/25/2025 4:00:00 AM-07:00:00"", ""Times"": [{""StartTime"": ""00:00:00-07:00:00"", ""EndTime"": ""03:59:59-07:00:00""}], ""DaysOfWeek"": [""Friday""]}]",,7.0,115P04184
466052,ERS,I-10,west,Debris on the right shoulder on I-10 Westbound  near   E University Dr (MP 151)   ,1753476900,1753476979,1753476900,,No Data,33.4157678396127,-112.015292034446,,,accidentsAndIncidents,DebrisRshoulder,0,None,,,,,,,,,,,,1.0,115+04187
466193,ERS,I-10,east,Crash on the right shoulder on I-10 Eastbound  near   32nd St (MP 151)   ,1753489140,1753491445,1753489140,,No Data,33.4144690845362,-112.014512459794,,,accidentsAndIncidents,Crash on right shoulder,0,Minor,,,,,,,,,,,,1.0,115N04186
466197,RADS,"I10 @ E UNIVERSITY DR EB WO ,PHX",,"I10 @ E UNIVERSITY DR EB WO ,PHX - AccidentIncident - injury accident",1753489019,1753491554,1753489019,35659335599.0,No Data,33.4153146962843,-112.015402448682,,,accidentsAndIncidents,AccidentIncident,0,,,,,,,,,,,,,,115-04186
462904,ERS,I-10,east,Right lanes closed on I-10 Eastbound from 32nd St (MP 151)  to  32nd St (MP 152) . Lanes Closed.   7/25/2025 8:00 PM  to 7/26/2025 5:00 AM  ,1753498800,1753116968,1753498800,1753531200.0,Lanes Closed,33.4141498191962,-112.014178226428,33.4107305392211,-112.005802902029,roadwork,rightlanes,0,Minor,me}jErwtjTFGj@o@jAyAfAaBbAgB^s@~@sBXs@\y@Ts@L_@X}@b@{APs@Nq@b@yB^eCX{BP}BL_CDkA,,,,,,,,"""<b>Fri:</b><br/>8:00 PM - 12:00 AM<br/><br/><b>Sat:</b><br/>12:00 AM - 5:00 AM<br/><br/>""","[{""StartDate"": ""7/25/2025 8:00:00 PM-07:00:00"", ""EndDate"": ""7/26/2025 5:00:00 AM-07:00:00"", ""Times"": [{""StartTime"": ""20:00:00-07:00:00"", ""EndTime"": ""23:59:59-07:00:00""}], ""DaysOfWeek"": [""Friday""]}, {""StartDate"": ""7/25/2025 8:00:00 PM-07:00:00"", ""EndDate"": ""7/26/2025 5:00:00 AM-07:00:00"", ""Times"": [{""StartTime"": ""00:00:00-07:00:00"", ""EndTime"": ""04:59:59-07:00:00""}], ""DaysOfWeek"": [""Saturday""]}]",,7.0,115N04186
462907,ERS,I-10 Eastbound,east,Exit ramp closed on  ramp  from I-10 Eastbound  to  S 32nd St . All Ramps Closed.   7/25/2025 8:00 PM  to 7/26/2025 5:00 AM  ,1753498800,1753117252,1753498800,1753531200.0,All Ramps Closed,33.41454,-112.01461,33.4126991409377,-112.012990969125,closures,exitclosed,1,Minor,{g}jEhztjTh@STM^]tAkAd@a@\]xAuA\c@X_@`AyAPYNYXi@Ra@~@eCJc@,,,,,,,,"""<b>Fri:</b><br/>8:00 PM - 12:00 AM<br/><br/><b>Sat:</b><br/>12:00 AM - 5:00 AM<br/><br/>""","[{""StartDate"": ""7/25/2025 8:00:00 PM-07:00:00"", ""EndDate"": ""7/26/2025 5:00:00 AM-07:00:00"", ""Times"": [{""StartTime"": ""20:00:00-07:00:00"", ""EndTime"": ""23:59:59-07:00:00""}], ""DaysOfWeek"": [""Friday""]}, {""StartDate"": ""7/25/2025 8:00:00 PM-07:00:00"", ""EndDate"": ""7/26/2025 5:00:00 AM-07:00:00"", ""Times"": [{""StartTime"": ""00:00:00-07:00:00"", ""EndTime"": ""04:59:59-07:00:00""}], ""DaysOfWeek"": [""Saturday""]}]",,1.0,115N04186
466980,RADS,"W BASELINE RD/I10 ,TMP",,"W BASELINE RD/I10 ,TMP - AccidentIncident - injury accident",1753673897,1753675142,1753673897,35659335599.0,No Data,33.3782069754836,-111.968605550248,,,accidentsAndIncidents,AccidentIncident,0,,,,,,,,,,,,,,115N04181
466776,ERS,I-10,east,Debris on the right shoulder on I-10 Eastbound  near   32nd St (MP 151)   ,1753621380,1753622123,1753621380,,No Data,33.4144690845362,-112.014512459794,,,accidentsAndIncidents,DebrisRshoulder,0,None,,,,,,,,,,,,1.0,115N04186
467151,ERS,I-10,east,Disabled vehicle on the right shoulder on I-10 Eastbound  near   32nd St (MP 151)   ,1753715340,1753715423,1753715340,,No Data,33.4168103463397,-112.016602460768,,,accidentsAndIncidents,C34Rshoulder,0,None,,,,,,,,,,,,1.0,115-04186
467155,ERS,I-10,east,Disabled vehicle on the right shoulder on I-10 Eastbound  near   Baseline Rd (MP 155)   ,1753715820,1753715901,1753715820,,No Data,33.3931876150084,-111.967815355649,,,accidentsAndIncidents,C34Rshoulder,0,None,,,,,,,,,,,,1.0,115N04182
467248,ERS,I-10,west,Disabled vehicle on the right shoulder on I-10 Westbound  near   W Warner Rd (MP 159)   ,1753722900,1753722974,1753722900,,No Data,33.3370818299629,-111.97207025464,,,accidentsAndIncidents,C34Rshoulder,0,None,,,,,,,,,,,,1.0,115P04179
467583,ERS,I-10,west,Disabled vehicle blocking the exit ramp on I-10 Westbound  near   US-60 Eastbound (MP 156)   ,1753750320,1753750402,1753750320,,No Data,33.375223,-111.96784,,,accidentsAndIncidents,TC34EXB,0,Minor,,,,,,,,,,,,1.0,115P04181
467384,ERS,I-10,west,Water or irrigation leak on I-10 Westbound  near   Superstition Fwy (MP 155)   ,1753733280,1753733478,1753733280,,No Data,33.393148,-111.96741,,,accidentsAndIncidents,TDMGLEAK,0,Minor,,,,,,,,,,,,1.0,115P04182
462915,ERS,I-10 Westbound,west,Exit ramp closed on  ramp  from I-10 Westbound  to  S 24th St . All Ramps Closed.   7/28/2025 8:00 PM  to 7/29/2025 4:00 AM  ,1753758000,1753117335,1753758000,1753786800.0,All Ramps Closed,33.4248400000001,-112.02462,33.4263299309322,-112.027309819656,closures,exitclosed,1,Minor,gh_kEzxvjT{@`Ag@r@_@n@o@zAk@zAe@|Ac@|A]|AWtAADSjAWdBIj@m@~D,,,,,,,,"""<b>Mon:</b><br/>8:00 PM - 12:00 AM<br/><br/><b>Tue:</b><br/>12:00 AM - 4:00 AM<br/><br/>""","[{""StartDate"": ""7/28/2025 8:00:00 PM-07:00:00"", ""EndDate"": ""7/29/2025 4:00:00 AM-07:00:00"", ""Times"": [{""StartTime"": ""20:00:00-07:00:00"", ""EndTime"": ""23:59:59-07:00:00""}], ""DaysOfWeek"": [""Monday""]}, {""StartDate"": ""7/28/2025 8:00:00 PM-07:00:00"", ""EndDate"": ""7/29/2025 4:00:00 AM-07:00:00"", ""Times"": [{""StartTime"": ""00:00:00-07:00:00"", ""EndTime"": ""03:59:59-07:00:00""}], ""DaysOfWeek"": [""Tuesday""]}]",,1.0,115P04187
462916,ERS,I-10,west,Right lanes closed on I-10 Westbound from 24th St (MP 150)  to  24th St (MP 150) . 2 Right Lanes Closed.   7/28/2025 8:00 PM  to 7/29/2025 4:00 AM  ,1753758000,1753117577,1753758000,1753786800.0,2 Right Lanes Closed,33.4248469184248,-112.024632299422,33.4264486180279,-112.028524472111,roadwork,rightlanes,0,Minor,ih_kE|xvjTa@|@[r@Wn@i@zA[~@a@pAQj@]jAOj@i@|BQ`AET,,,,,,,,"""<b>Mon:</b><br/>8:00 PM - 12:00 AM<br/><br/><b>Tue:</b><br/>12:00 AM - 4:00 AM<br/><br/>""","[{""StartDate"": ""7/28/2025 8:00:00 PM-07:00:00"", ""EndDate"": ""7/29/2025 4:00:00 AM-07:00:00"", ""Times"": [{""StartTime"": ""20:00:00-07:00:00"", ""EndTime"": ""23:59:59-07:00:00""}], ""DaysOfWeek"": [""Monday""]}, {""StartDate"": ""7/28/2025 8:00:00 PM-07:00:00"", ""EndDate"": ""7/29/2025 4:00:00 AM-07:00:00"", ""Times"": [{""StartTime"": ""00:00:00-07:00:00"", ""EndTime"": ""03:59:59-07:00:00""}], ""DaysOfWeek"": [""Tuesday""]}]",,7.0,115P04187
464791,ERS,I-10,west,Left lane closed on I-10 Westbound from Ray Rd (MP 160)  to  E Ray Rd (MP 160) . All HOV Lanes Closed.   7/31/2025 8:00 PM  to 8/1/2025 4:00 PM  ,1754017200,1753296218,1754017200,1754089200.0,All HOV Lanes Closed,33.3156491085058,-111.972111400586,33.3228124729713,-111.972083906813,roadwork,LeftLane,0,Minor,y}ijEtpljT}H@yB?sC@sE@}A?yOK,,,,,,,,"""<b>Thu:</b><br/>8:00 PM - 12:00 AM<br/><br/><b>Fri:</b><br/>12:00 AM - 4:00 AM<br/><br/>""","[{""StartDate"": ""7/31/2025 8:00:00 PM-07:00:00"", ""EndDate"": ""8/1/2025 4:00:00 PM-07:00:00"", ""Times"": [{""StartTime"": ""20:00:00-07:00:00"", ""EndTime"": ""23:59:59-07:00:00""}], ""DaysOfWeek"": [""Thursday""]}, {""StartDate"": ""7/31/2025 8:00:00 PM-07:00:00"", ""EndDate"": ""8/1/2025 4:00:00 PM-07:00:00"", ""Times"": [{""StartTime"": ""00:00:00-07:00:00"", ""EndTime"": ""03:59:59-07:00:00""}], ""DaysOfWeek"": [""Friday""]}]",,5.0,115P04178
464818,ERS,I-10,east,Left lanes closed on I-10 Eastbound from Ray Rd (MP 159)  to  Ray Rd (MP 160) . 1 Left lane closed.   7/31/2025 8:00 PM  to 8/1/2025 5:00 AM  ,1754017200,1753300687,1754017200,1754049600.0,1 Left lane closed,33.3253668882682,-111.97237,33.3154771492898,-111.9724,roadwork,leftlanes,0,Minor,qzkjEhrljTdH?rVBbB?~JA|BB|H?,,,,,,,,"""<b>Thu:</b><br/>8:00 PM - 12:00 AM<br/><br/><b>Fri:</b><br/>12:00 AM - 5:00 AM<br/><br/>""","[{""StartDate"": ""7/31/2025 8:00:00 PM-07:00:00"", ""EndDate"": ""8/1/2025 5:00:00 AM-07:00:00"", ""Times"": [{""StartTime"": ""20:00:00-07:00:00"", ""EndTime"": ""23:59:59-07:00:00""}], ""DaysOfWeek"": [""Thursday""]}, {""StartDate"": ""7/31/2025 8:00:00 PM-07:00:00"", ""EndDate"": ""8/1/2025 5:00:00 AM-07:00:00"", ""Times"": [{""StartTime"": ""00:00:00-07:00:00"", ""EndTime"": ""04:59:59-07:00:00""}], ""DaysOfWeek"": [""Friday""]}]",,5.0,115N04178
467778,ERS,I-10,west,Disabled vehicle on the right shoulder on I-10 Westbound  near   Broadway Rd (MP 172.0)   ,1753804080,1753804170,1753804080,,No Data,33.4004896288355,-111.967272699445,,,accidentsAndIncidents,C34Rshoulder,0,None,,,,,,,,,,,,1.0,115+04183
467700,ERS,I-10,east,Shoulder closed on I-10 Eastbound  near   S 24th St (MP 150) . All Shoulders Closed.   7/29/2025 10:30 AM  to 7/29/2025 3:00 PM  ,1753810200,1753794455,1753810200,1753826400.0,All Shoulders Closed,33.4274578386322,-112.035744891312,,,roadwork,shoulderclosed,0,None,,,,,,,,,"""<b>Tue:</b><br/>Active all day<br/><br/>""","[{""StartDate"": ""7/29/2025 10:30:00 AM-07:00:00"", ""EndDate"": ""7/29/2025 3:00:00 PM-07:00:00"", ""Times"": [{""StartTime"": ""00:00:00-07:00:00"", ""EndTime"": ""23:59:59-07:00:00""}], ""DaysOfWeek"": [""Tuesday""]}]","I-10EB @ Split ,off right. Shoulder closure. Guardrail repair.",4.0,115N04188
462917,ERS,I-10 Westbound,west,Exit ramp closed on  ramp  from I-10 Westbound  to  S 24th St . All Ramps Closed.   7/29/2025 8:00 PM  to 7/30/2025 4:00 AM  ,1753844400,1753117528,1753844400,1753873200.0,All Ramps Closed,33.4248400000001,-112.02462,33.4263299309322,-112.027309819656,closures,exitclosed,1,Minor,gh_kEzxvjT{@`Ag@r@_@n@o@zAk@zAe@|Ac@|A]|AWtAADSjAWdBIj@m@~D,,,,,,,,"""<b>Tue:</b><br/>8:00 PM - 12:00 AM<br/><br/><b>Wed:</b><br/>12:00 AM - 4:00 AM<br/><br/>""","[{""StartDate"": ""7/29/2025 8:00:00 PM-07:00:00"", ""EndDate"": ""7/30/2025 4:00:00 AM-07:00:00"", ""Times"": [{""StartTime"": ""20:00:00-07:00:00"", ""EndTime"": ""23:59:59-07:00:00""}], ""DaysOfWeek"": [""Tuesday""]}, {""StartDate"": ""7/29/2025 8:00:00 PM-07:00:00"", ""EndDate"": ""7/30/2025 4:00:00 AM-07:00:00"", ""Times"": [{""StartTime"": ""00:00:00-07:00:00"", ""EndTime"": ""03:59:59-07:00:00""}], ""DaysOfWeek"": [""Wednesday""]}]",,1.0,115P04187
462918,ERS,I-10,west,Right lanes closed on I-10 Westbound from 24th St (MP 150)  to  24th St (MP 150) . 2 Right Lanes Closed.   7/29/2025 8:00 PM  to 7/30/2025 4:00 AM  ,1753844400,1753117601,1753844400,1753873200.0,2 Right Lanes Closed,33.4248469184248,-112.024632299422,33.4264486180279,-112.028524472111,roadwork,rightlanes,0,Minor,ih_kE|xvjTa@|@[r@Wn@i@zA[~@a@pAQj@]jAOj@i@|BQ`AET,,,,,,,,"""<b>Tue:</b><br/>8:00 PM - 12:00 AM<br/><br/><b>Wed:</b><br/>12:00 AM - 4:00 AM<br/><br/>""","[{""StartDate"": ""7/29/2025 8:00:00 PM-07:00:00"", ""EndDate"": ""7/30/2025 4:00:00 AM-07:00:00"", ""Times"": [{""StartTime"": ""20:00:00-07:00:00"", ""EndTime"": ""23:59:59-07:00:00""}], ""DaysOfWeek"": [""Tuesday""]}, {""StartDate"": ""7/29/2025 8:00:00 PM-07:00:00"", ""EndDate"": ""7/30/2025 4:00:00 AM-07:00:00"", ""Times"": [{""StartTime"": ""00:00:00-07:00:00"", ""EndTime"": ""03:59:59-07:00:00""}], ""DaysOfWeek"": [""Wednesday""]}]",,7.0,115P04187
468077,ERS,I-10,west,Debris on the left shoulder on I-10 Westbound  near   24th St (MP 150)   ,1753831740,1753831821,1753831740,,No Data,33.426830269663,-112.030807831461,,,accidentsAndIncidents,debrisLshoulder,0,Minor,,,,,,,,,,,,1.0,115P04188
468324,RADS,"I10 CD @ W BROADWAY RD WB EO ,TMP",,"I10 CD @ W BROADWAY RD WB EO ,TMP - AccidentIncident - injury accident",1753889766,1753891146,1753889766,35659335599.0,No Data,33.4057683125271,-111.96854889983,,,accidentsAndIncidents,AccidentIncident,0,,,,,,,,,,,,,,115P04183
468325,ERS,I-10,west,Crash on I-10 Westbound  near   SR-143 Northbound (MP 154)   ,1753890060,1753890079,1753890060,,No Data,33.4071844460926,-111.970108459597,,,accidentsAndIncidents,accident,0,Minor,,,,,,,,,,,,1.0,115P04184
468318,ERS,I-10,west,Disabled vehicle on the right shoulder on I-10 Westbound  near   US-60 Westbound (MP 155)   ,1753889280,1753889302,1753889280,,No Data,33.3902459400167,-111.967492401,,,accidentsAndIncidents,C34Rshoulder,0,None,,,,,,,,,,,,1.0,115P04182
468540,ERS,I-10,west,Disabled vehicle on the right shoulder on I-10 Westbound  near   US-60 Eastbound (MP 156)   ,1753906860,1753906933,1753906860,,No Data,33.375223,-111.96784,,,accidentsAndIncidents,C34Rshoulder,0,None,,,,,,,,,,,,1.0,115P04181
468683,ERS,I-10,east,Vehicle fire on I-10 Eastbound  near   S 40th St (MP 152)   ,1753919880,1753919962,1753919880,,No Data,33.4107913445965,-111.995027134887,,,accidentsAndIncidents,vehicleOnFire,0,Minor,,,,,,,,,,,,1.0,115N04185
468865,ERS,I-10,west,Disabled vehicle on the right shoulder on I-10 Westbound  near   Broadway Rd (MP 172.0)   ,1753957800,1753957831,1753957800,,No Data,33.4004896288355,-111.967272699445,,,accidentsAndIncidents,C34Rshoulder,0,None,,,,,,,,,,,,1.0,115+04183
468987,ERS,I-10,east,Disabled vehicle on the exit ramp on I-10 Eastbound  near   32nd St (MP 151)   ,1753977420,1753977501,1753977420,,No Data,33.4168103463397,-112.016602460768,,,accidentsAndIncidents,C34exit,0,None,,,,,,,,,,,,1.0,115-04186
468979,ERS,I-10,west,Disabled vehicle on the right shoulder on I-10 Westbound  near   US-60 Eastbound (MP 156)   ,1753976520,1753976595,1753976520,,No Data,33.375223,-111.96784,,,accidentsAndIncidents,C34Rshoulder,0,None,,,,,,,,,,,,1.0,115P04181
469081,ERS,I-10,east,Disabled vehicle on the right shoulder on I-10 Eastbound  near   Baseline Rd (MP 156)   ,1753986060,1753986141,1753986060,,No Data,33.3844811309771,-111.967947060291,,,accidentsAndIncidents,C34Rshoulder,0,None,,,,,,,,,,,,1.0,115-04181
469197,RADS,"I10 @ E ELLIOT RD SB UP ,PHX",,"I10 @ E ELLIOT RD SB UP ,PHX - AccidentIncident - medical emergency",1753998665,1753999152,1753998665,35659335599.0,No Data,33.3493366384687,-111.971995289485,,,accidentsAndIncidents,AccidentIncident,0,,,,,,,,,,,,,,115N04180
465920,ERS,I-10 Eastbound,east,Exit ramp restricted on  ramp  from I-10 Eastbound  to  S 40th St . 1 Left Ramp Closed.   7/31/2025 8:00 PM  to 8/1/2025 4:00 AM  ,1754017200,1753460717,1754017200,1754046000.0,1 Left Ramp Closed,33.4107300000001,-112.00134,33.4104997380191,-111.99831099361,roadwork,exitrestricted,0,Minor,ap|jEjgrjTHkAFyCFkD@g@FcBFs@Fm@Ha@Vw@j@mAVe@R_@b@}@J[HYFs@@m@AkA,,,,,,,,"""<b>Thu:</b><br/>8:00 PM - 12:00 AM<br/><br/><b>Fri:</b><br/>12:00 AM - 4:00 AM<br/><br/>""","[{""StartDate"": ""7/31/2025 8:00:00 PM-07:00:00"", ""EndDate"": ""8/1/2025 4:00:00 AM-07:00:00"", ""Times"": [{""StartTime"": ""20:00:00-07:00:00"", ""EndTime"": ""23:59:59-07:00:00""}], ""DaysOfWeek"": [""Thursday""]}, {""StartDate"": ""7/31/2025 8:00:00 PM-07:00:00"", ""EndDate"": ""8/1/2025 4:00:00 AM-07:00:00"", ""Times"": [{""StartTime"": ""00:00:00-07:00:00"", ""EndTime"": ""03:59:59-07:00:00""}], ""DaysOfWeek"": [""Friday""]}]",,4.0,115N04185
469827,ERS,I-10,west,Crash on the right shoulder on I-10 Westbound  near   Warner Rd (MP 159)   ,1754083380,1754083461,1754083380,,No Data,33.3327291390222,-111.972060887521,,,accidentsAndIncidents,Crash on right shoulder,0,Minor,,,,,,,,,,,,1.0,115P04179
469989,ERS,I-10,west,Vehicle fire on I-10 Westbound  near   Hohokam Expy (MP 153)   ,1754095440,1754095461,1754095440,,No Data,33.41112,-111.984338,,,accidentsAndIncidents,vehicleOnFire,0,Minor,,,,,,,,,,,,1.0,115+04185
469992,RADS,"I10 @ S 40TH ST WB EO ,PHX",,"I10 @ S 40TH ST WB EO ,PHX - AccidentIncident - vehicle on fire",1754095519,1754096348,1754095519,35659335599.0,No Data,33.411117996454,-111.989909617877,,,accidentsAndIncidents,AccidentIncident,0,,,,,,,,,,,,,,115P04185
469995,ERS,I-10,west,Debris blocking the left lane on I-10 Westbound  near   40th St (MP 152)   ,1754095920,1754095936,1754095920,,No Data,33.4110600000001,-111.995005,,,accidentsAndIncidents,debrisLlane,0,Minor,,,,,,,,,,,,1.0,115P04185
469996,ERS,I-10,west,Crash on the right shoulder on I-10 Westbound  near   40th St (MP 152)   ,1754095980,1754096296,1754095980,,No Data,33.4110600000001,-111.995005,,,accidentsAndIncidents,Crash on right shoulder,0,Minor,,,,,,,,,,,,1.0,115P04185
464819,ERS,I-10,east,Left lanes closed on I-10 Eastbound from Ray Rd (MP 159)  to  Ray Rd (MP 160) . 1 Left lane closed.   8/1/2025 8:00 PM  to 8/2/2025 5:00 AM  ,1754103600,1753300724,1754103600,1754136000.0,1 Left lane closed,33.3253668882682,-111.97237,33.3154771492898,-111.9724,roadwork,leftlanes,0,Minor,qzkjEhrljTdH?rVBbB?~JA|BB|H?,,,,,,,,"""<b>Fri:</b><br/>8:00 PM - 12:00 AM<br/><br/><b>Sat:</b><br/>12:00 AM - 5:00 AM<br/><br/>""","[{""StartDate"": ""8/1/2025 8:00:00 PM-07:00:00"", ""EndDate"": ""8/2/2025 5:00:00 AM-07:00:00"", ""Times"": [{""StartTime"": ""20:00:00-07:00:00"", ""EndTime"": ""23:59:59-07:00:00""}], ""DaysOfWeek"": [""Friday""]}, {""StartDate"": ""8/1/2025 8:00:00 PM-07:00:00"", ""EndDate"": ""8/2/2025 5:00:00 AM-07:00:00"", ""Times"": [{""StartTime"": ""00:00:00-07:00:00"", ""EndTime"": ""04:59:59-07:00:00""}], ""DaysOfWeek"": [""Saturday""]}]",,5.0,115N04178
470160,ERS,I-10,west,Disabled vehicle on the right shoulder on I-10 Westbound  near   Broadway Rd (MP 154)   ,1754124960,1754124982,1754124960,,No Data,33.4047218133209,-111.96830162758,,,accidentsAndIncidents,C34Rshoulder,0,None,,,,,,,,,,,,1.0,115P04183
470153,ERS,I-10,west,Infrastructure damage on I-10 Westbound  near   Broadway Rd (MP 154)   ,1754121720,1754131043,1754121720,,No Data,33.4047218133209,-111.96830162758,,,accidentsAndIncidents,TDMG,0,Minor,,,,,,,,,,,,1.0,115P04183
464792,ERS,I-10,west,Left lane closed on I-10 Westbound from Ray Rd (MP 160)  to  E Ray Rd (MP 160) . All HOV Lanes Closed.   8/1/2025 8:00 PM  to 8/2/2025 4:00 PM  ,1754103600,1753300562,1754103600,1754175600.0,All HOV Lanes Closed,33.3156491085058,-111.972111400586,33.3228124729713,-111.972083906813,roadwork,LeftLane,0,Minor,y}ijEtpljT}H@yB?sC@sE@}A?yOK,,,,,,,,"""<b>Fri:</b><br/>8:00 PM - 12:00 AM<br/><br/><b>Sat:</b><br/>12:00 AM - 4:00 AM<br/><br/>""","[{""StartDate"": ""8/1/2025 8:00:00 PM-07:00:00"", ""EndDate"": ""8/2/2025 4:00:00 PM-07:00:00"", ""Times"": [{""StartTime"": ""20:00:00-07:00:00"", ""EndTime"": ""23:59:59-07:00:00""}], ""DaysOfWeek"": [""Friday""]}, {""StartDate"": ""8/1/2025 8:00:00 PM-07:00:00"", ""EndDate"": ""8/2/2025 4:00:00 PM-07:00:00"", ""Times"": [{""StartTime"": ""00:00:00-07:00:00"", ""EndTime"": ""03:59:59-07:00:00""}], ""DaysOfWeek"": [""Saturday""]}]",,5.0,115P04178
470404,ERS,I-10,west,Disabled vehicle blocking the HOV lane on I-10 Westbound  near   SR-143 Northbound (MP 154)   ,1754180400,1754180487,1754180400,,No Data,33.4071844460926,-111.970108459597,,,accidentsAndIncidents,C34HOVlane,0,Minor,,,,,,,,,,,,1.0,115P04184
470531,ERS,I-10,east,Disabled vehicle on the right shoulder on I-10 Eastbound  near   32nd St (MP 151)   ,1754213400,1754213417,1754213400,,No Data,33.4144690845362,-112.014512459794,,,accidentsAndIncidents,C34Rshoulder,0,None,,,,,,,,,,,,1.0,115N04186
470823,ERS,I-10,west,Crash on the right shoulder on I-10 Westbound  near   W Baseline Rd (MP 156)   ,1754287260,1754287275,1754287260,,No Data,33.3844430200244,-111.967646787626,,,accidentsAndIncidents,Crash on right shoulder,0,Minor,,,,,,,,,,,,1.0,115+04182
468372,ERS,I-10,east,Left lanes closed on I-10 Eastbound from Hohokam Expy (MP 153)  to  SR-143 Northbound (MP 154) . 3 Left Lanes Closed.   8/6/2025 8:00 PM  to 8/7/2025 5:00 AM  ,1754535600,1753893529,1754535600,1754568000.0,3 Left Lanes Closed,33.4107952360872,-111.978889974698,33.4089269638824,-111.972798680186,roadwork,leftlanes,0,Minor,op|jE`{mjTHqB@]RiCHu@PuAPmA^uBR}@f@sBp@{Bd@qAfAkCj@kA,,,,,,,,"""<b>Wed:</b><br/>8:00 PM - 12:00 AM<br/><br/><b>Thu:</b><br/>12:00 AM - 5:00 AM<br/><br/>""","[{""StartDate"": ""8/6/2025 8:00:00 PM-07:00:00"", ""EndDate"": ""8/7/2025 5:00:00 AM-07:00:00"", ""Times"": [{""StartTime"": ""20:00:00-07:00:00"", ""EndTime"": ""23:59:59-07:00:00""}], ""DaysOfWeek"": [""Wednesday""]}, {""StartDate"": ""8/6/2025 8:00:00 PM-07:00:00"", ""EndDate"": ""8/7/2025 5:00:00 AM-07:00:00"", ""Times"": [{""StartTime"": ""00:00:00-07:00:00"", ""EndTime"": ""04:59:59-07:00:00""}], ""DaysOfWeek"": [""Thursday""]}]",,7.0,115N04184
468379,ERS,I-10,west,Left lanes closed on I-10 Westbound from Western Canal (MP 155)  to  Broadway Rd (MP 154) . 3 Left Lanes Closed.   8/7/2025 8:00 PM  to 8/8/2025 4:00 AM  ,1754622000,1753893836,1754622000,1754650800.0,3 Left Lanes Closed,33.3859525007861,-111.967606418898,33.4090130829614,-111.972432067025,roadwork,leftlanes,0,Minor,euwjEptkjTiBCkDC}@?eBAwCEiCEc@?oFCkDEcEGmF?cFEeFCmB@eAAQ?kCEqHEsBCgBAaB?mBHsAJmANs@JUB[DcARa@JUHsAf@aAZ_A^y@\qAn@_BbAq@b@e@\{@l@_@ZaBzAoApAg@j@mA|Ae@p@c@p@q@pAQ^KP,,,,,,,,"""<b>Thu:</b><br/>8:00 PM - 12:00 AM<br/><br/><b>Fri:</b><br/>12:00 AM - 4:00 AM<br/><br/>""","[{""StartDate"": ""8/7/2025 8:00:00 PM-07:00:00"", ""EndDate"": ""8/8/2025 4:00:00 AM-07:00:00"", ""Times"": [{""StartTime"": ""20:00:00-07:00:00"", ""EndTime"": ""23:59:59-07:00:00""}], ""DaysOfWeek"": [""Thursday""]}, {""StartDate"": ""8/7/2025 8:00:00 PM-07:00:00"", ""EndDate"": ""8/8/2025 4:00:00 AM-07:00:00"", ""Times"": [{""StartTime"": ""00:00:00-07:00:00"", ""EndTime"": ""03:59:59-07:00:00""}], ""DaysOfWeek"": [""Friday""]}]",,7.0,115P04182
468381,ERS,I-10 Westbound,west,HOV ramp closed on  ramp  from I-10 Westbound  to  SR-143 Northbound . All HOV Lanes Closed.   8/7/2025 8:00 PM  to 8/8/2025 4:00 AM  ,1754622000,1753893986,1754622000,1754650800.0,All HOV Lanes Closed,33.4067600000001,-111.96971,33.4106397162038,-111.974524893464,closures,hovrampclosed,1,Major,gw{jEtaljTcAj@w@f@i@^k@f@_@^QR_AjAk@x@Yb@a@r@GJU^}@`BaAfBuAbCqAzBcA~Am@~@s@dAQXi@z@KNaAzAa@j@]j@a@h@c@d@c@b@m@d@c@Ri@Tq@No@Jo@Fu@BO@_@@aBF,,,,,,,,"""<b>Thu:</b><br/>8:00 PM - 12:00 AM<br/><br/><b>Fri:</b><br/>12:00 AM - 4:00 AM<br/><br/>""","[{""StartDate"": ""8/7/2025 8:00:00 PM-07:00:00"", ""EndDate"": ""8/8/2025 4:00:00 AM-07:00:00"", ""Times"": [{""StartTime"": ""20:00:00-07:00:00"", ""EndTime"": ""23:59:59-07:00:00""}], ""DaysOfWeek"": [""Thursday""]}, {""StartDate"": ""8/7/2025 8:00:00 PM-07:00:00"", ""EndDate"": ""8/8/2025 4:00:00 AM-07:00:00"", ""Times"": [{""StartTime"": ""00:00:00-07:00:00"", ""EndTime"": ""03:59:59-07:00:00""}], ""DaysOfWeek"": [""Friday""]}]",,1.0,115P04184
471128,ERS,I-10,west,Debris blocking the right lane on I-10 Westbound  near   E University Dr (MP 151)   ,1754331840,1754331855,1754331840,,No Data,33.4169557760553,-112.016304711254,,,accidentsAndIncidents,debrisRlane,0,Minor,,,,,,,,,,,,1.0,115+04187
471142,ERS,I-10,west,Disabled vehicle blocking the exit ramp on I-10 Westbound  near   40th St (MP 152)   ,1754333040,1754333174,1754333040,,No Data,33.4110600000001,-111.995005,,,accidentsAndIncidents,TC34EXB,0,Minor,,,,,,,,,,,,1.0,115P04185
471252,ERS,I-10,east,Crash on the right shoulder on I-10 Eastbound  near   Elliot Rd (MP 158)   ,1754342760,1754342787,1754342760,,No Data,33.3492770115606,-111.972025075145,,,accidentsAndIncidents,Crash on right shoulder,0,Minor,,,,,,,,,,,,1.0,115N04180
471272,RADS,"I10 @ E ELLIOT RD SB UP ,PHX",,"I10 @ E ELLIOT RD SB UP ,PHX - AccidentIncident - injury accident",1754344213,1754344744,1754344213,35659335599.0,No Data,33.3493366384687,-111.971995289485,,,accidentsAndIncidents,AccidentIncident,0,,,,,,,,,,,,,,115N04180
471532,ERS,I-10,west,Disabled vehicle on the right shoulder on I-10 Westbound  near   24th St (MP 150)   ,1754370000,1754370919,1754370000,,No Data,33.4254892033632,-112.025898254986,,,accidentsAndIncidents,C34Rshoulder,0,None,,,,,,,,,,,,1.0,115P04187
471652,ERS,I-10,east,Crash on the right shoulder on I-10 Eastbound  near   Superstition Fwy (MP 156)   ,1754404620,1754404642,1754404620,,No Data,33.378606666715,-111.968111445781,,,accidentsAndIncidents,Crash on right shoulder,0,Minor,,,,,,,,,,,,1.0,115N04181
471808,ERS,I-10,east,Disabled vehicle on the left shoulder on I-10 Eastbound  near   SR-143 (MP 153)   ,1754416800,1754416881,1754416800,,No Data,33.41083,-111.984381,,,accidentsAndIncidents,C34Lshoulder,0,None,,,,,,,,,,,,1.0,115N04184
472247,ERS,I-10,east,Disabled vehicle on the right shoulder on I-10 Eastbound  near   S 40th St (MP 152)   ,1754489460,1754489479,1754489460,,No Data,33.4107913445965,-111.995027134887,,,accidentsAndIncidents,C34Rshoulder,0,None,,,,,,,,,,,,1.0,115N04185
472727,ERS,I-10,east,Disabled vehicle on the right shoulder on I-10 Eastbound  near   S 24th St (MP 150)   ,1754533080,1754533880,1754533080,,No Data,33.4242511854867,-112.024179359496,,,accidentsAndIncidents,C34Rshoulder,0,None,,,,,,,,,,,,1.0,115-04186
472755,ERS,I-10,west,Crash on the right shoulder on I-10 Westbound  near   202-LOOP Eastbound (MP 161)   ,1754538900,1754538922,1754538900,,No Data,33.3060087207162,-111.972059222498,,,accidentsAndIncidents,Crash on right shoulder,0,Minor,,,,,,,,,,,,1.0,115P04177
471035,ERS,I-10,east,Right lanes closed on I-10 Eastbound from Hohokam Expy (MP 153)  to  I-10 (MP 172.0) . 3 Right Lanes Closed.   8/6/2025 8:00 PM  to 8/7/2025 5:00 AM  ,1754535600,1754515113,1754535600,1754568000.0,3 Right Lanes Closed,33.4108019493364,-111.978990936064,33.400098187479,-111.967580095396,roadwork,rightlanes,0,Minor,op|jEt{mjT?GH}B@]RiCHu@PuAPmA^uBR}@f@sBp@{Bd@qAfAkC|@iBP_@xBkDxAmB`@g@bAeA|AyAxAiAh@a@l@a@`BcAf@UpAm@`@SrBy@vA]|Bi@lB]xAQpAKhAGlACbAAR?d@@,,,,,,,,"""<b>Wed:</b><br/>8:00 PM - 12:00 AM<br/><br/><b>Thu:</b><br/>12:00 AM - 5:00 AM<br/><br/>""","[{""StartDate"": ""8/6/2025 8:00:00 PM-07:00:00"", ""EndDate"": ""8/7/2025 5:00:00 AM-07:00:00"", ""Times"": [{""StartTime"": ""20:00:00-07:00:00"", ""EndTime"": ""23:59:59-07:00:00""}], ""DaysOfWeek"": [""Wednesday""]}, {""StartDate"": ""8/6/2025 8:00:00 PM-07:00:00"", ""EndDate"": ""8/7/2025 5:00:00 AM-07:00:00"", ""Times"": [{""StartTime"": ""00:00:00-07:00:00"", ""EndTime"": ""04:59:59-07:00:00""}], ""DaysOfWeek"": [""Thursday""]}]",,7.0,115N04184
472202,ERS,I-10,west,Infrastructure damage on I-10 Westbound  near   SR-143 Northbound (MP 154)   ,1754471100,1754474119,1754471100,,No Data,33.4071844460926,-111.970108459597,,,accidentsAndIncidents,TDMG,0,Minor,,,,,,,,,,,,1.0,115P04184
472347,ERS,I-10,east,Debris on the right shoulder on I-10 Eastbound  near   S 40th St (MP 152)   ,1754498400,1754501903,1754498400,,No Data,33.4107913445965,-111.995027134887,,,accidentsAndIncidents,DebrisRshoulder,0,None,,,,,,,,,,,,1.0,115N04185
473652,ERS,I-10,west,Debris on the left shoulder on I-10 Westbound  near   US-60 Eastbound (MP 156)   ,1754676780,1754678596,1754676780,,No Data,33.375223,-111.96784,,,accidentsAndIncidents,debrisLshoulder,0,Minor,,,,,,,,,,,,1.0,115P04181
473762,ERS,I-10,west,Crash blocking the right lane on I-10 Westbound  near   Baseline Rd (MP 157)   ,1754687880,1754688090,1754687880,,No Data,33.3665312833442,-111.968231654847,,,accidentsAndIncidents,crashRlane,0,Minor,,,,,,,,,,,,1.0,115+04181
473770,RADS,"I10 @ W BASELINE RD NB NO ,TMP",,"I10 @ W BASELINE RD NB NO ,TMP - AccidentIncident - medical emergency",1754688107,1754690355,1754688107,35659335599.0,No Data,33.3821168891413,-111.967742573534,,,accidentsAndIncidents,AccidentIncident,0,,,,,,,,,,,,,,115P04181
473613,ERS,I-10,east,Disabled vehicle on the right shoulder on I-10 Eastbound  near   Hohokam Expy (MP 154)   ,1754672700,1754672784,1754672700,,No Data,33.4069825644783,-111.97034096599,,,accidentsAndIncidents,C34Rshoulder,0,None,,,,,,,,,,,,1.0,115-04183
473925,ERS,I-10,east,Crash on the left shoulder on I-10 Eastbound  near   SR-143 (MP 154)   ,1754705220,1754707467,1754705220,,No Data,33.4106379045093,-111.97746868435,,,accidentsAndIncidents,CrashLshoulder,0,Minor,,,,,,,,,,,,1.0,115N04184
473956,ERS,I-10,east,Vehicle fire on I-10 Eastbound  near   Baseline Rd (MP 155)   ,1754710380,1754710470,1754710380,,No Data,33.3917364889306,-111.967841691932,,,accidentsAndIncidents,vehicleOnFire,0,Minor,,,,,,,,,,,,1.0,115N04182
473957,RADS,"I10 @ W SOUTHERN AV SB OP ,TMP",,"I10 @ W SOUTHERN AV SB OP ,TMP - AccidentIncident - vehicle on fire",1754710389,1754711955,1754710389,35659335599.0,No Data,33.3929316290215,-111.967764712798,,,accidentsAndIncidents,AccidentIncident,0,,,,,,,,,,,,,,115N04182
474039,ERS,I-10,west,Disabled vehicle on the right shoulder on I-10 Westbound  near   W Baseline Rd (MP 155)   ,1754720400,1754720424,1754720400,,No Data,33.3917329331533,-111.967454083727,,,accidentsAndIncidents,C34Rshoulder,0,None,,,,,,,,,,,,1.0,115P04182
471055,ERS,I-10,east,Left lanes closed on I-10 Eastbound from Hohokam Expy (MP 153)  to  SR-143 Northbound (MP 154) . 3 Left Lanes Closed.   8/8/2025 8:00 PM  to 8/9/2025 5:00 AM  ,1754708400,1754324980,1754708400,1754740800.0,3 Left Lanes Closed,33.4107996360264,-111.978945413932,33.4089923318784,-111.972910438373,roadwork,leftlanes,0,Minor,op|jEl{mjTH}B@]RiCHu@PuAPmA^uBR}@f@sBp@{Bd@qAfAkC^u@,,,,,,,,"""<b>Fri:</b><br/>8:00 PM - 12:00 AM<br/><br/><b>Sat:</b><br/>12:00 AM - 5:00 AM<br/><br/>""","[{""StartDate"": ""8/8/2025 8:00:00 PM-07:00:00"", ""EndDate"": ""8/9/2025 5:00:00 AM-07:00:00"", ""Times"": [{""StartTime"": ""20:00:00-07:00:00"", ""EndTime"": ""23:59:59-07:00:00""}], ""DaysOfWeek"": [""Friday""]}, {""StartDate"": ""8/8/2025 8:00:00 PM-07:00:00"", ""EndDate"": ""8/9/2025 5:00:00 AM-07:00:00"", ""Times"": [{""StartTime"": ""00:00:00-07:00:00"", ""EndTime"": ""04:59:59-07:00:00""}], ""DaysOfWeek"": [""Saturday""]}]",,8.0,115N04184
472512,ERS,I-10,east,Right lanes closed on I-10 Eastbound from Hohokam Expy (MP 153)  to  I-10 (MP 172.0) . 3 Right Lanes Closed.   8/8/2025 8:00 PM  to 8/9/2025 5:00 AM  ,1754708400,1754515112,1754708400,1754740800.0,3 Right Lanes Closed,33.4107990563833,-111.978938110429,33.4000717060468,-111.967581489155,roadwork,rightlanes,0,Minor,op|jEj{mjTH{B@]RiCHu@PuAPmA^uBR}@f@sBp@{Bd@qAfAkC|@iBP_@xBkDxAmB`@g@bAeA|AyAxAiAh@a@l@a@`BcAf@UpAm@`@SrBy@vA]|Bi@lB]xAQpAKhAGlACbAAR?j@@,,,,,,,,"""<b>Fri:</b><br/>8:00 PM - 12:00 AM<br/><br/><b>Sat:</b><br/>12:00 AM - 5:00 AM<br/><br/>""","[{""StartDate"": ""8/8/2025 8:00:00 PM-07:00:00"", ""EndDate"": ""8/9/2025 5:00:00 AM-07:00:00"", ""Times"": [{""StartTime"": ""20:00:00-07:00:00"", ""EndTime"": ""23:59:59-07:00:00""}], ""DaysOfWeek"": [""Friday""]}, {""StartDate"": ""8/8/2025 8:00:00 PM-07:00:00"", ""EndDate"": ""8/9/2025 5:00:00 AM-07:00:00"", ""Times"": [{""StartTime"": ""00:00:00-07:00:00"", ""EndTime"": ""04:59:59-07:00:00""}], ""DaysOfWeek"": [""Saturday""]}]",,7.0,115N04184
474217,ERS,I-10,east,Road closed due to a crash on I-10 Eastbound  near   S 24th St (MP 150)   ,1754778300,1754781918,1754778300,,No Data,33.4262193923079,-112.028764438462,,,closures,RoadClosedDueToCrash,1,Major,,,,,,,,,,,,1.0,115N04187
474294,ERS,I-10,east,Crash blocking the right lane on I-10 Eastbound  near   S 24th St (MP 150)   ,1754794260,1754794293,1754794260,,No Data,33.4262193923079,-112.028764438462,,,accidentsAndIncidents,crashRlane,0,Minor,,,,,,,,,,,,1.0,115N04187
474273,ERS,I-10,west,Debris on the right shoulder on I-10 Westbound  near   SR-143 Northbound (MP 154)   ,1754787780,1754789121,1754787780,,No Data,33.4071844460926,-111.970108459597,,,accidentsAndIncidents,DebrisRshoulder,0,None,,,,,,,,,,,,1.0,115P04184
474582,ERS,I-10,west,Debris blocking the right lane on I-10 Westbound  near   24th St (MP 150)   ,1754873040,1754873066,1754873040,,No Data,33.426830269663,-112.030807831461,,,accidentsAndIncidents,debrisRlane,0,Minor,,,,,,,,,,,,1.0,115P04188
474629,ERS,I-10,west,Disabled vehicle blocking the right lane on I-10 Westbound  near   40th St (MP 152)   ,1754883900,1754883931,1754883900,,No Data,33.4110600000001,-111.995005,,,accidentsAndIncidents,C34Rlane,0,Minor,,,,,,,,,,,,1.0,115P04185
474521,ERS,I-10,west,Debris on I-10 Westbound  near   24th St (MP 150)   ,1754860320,1754860346,1754860320,,No Data,33.426830269663,-112.030807831461,,,accidentsAndIncidents,debrisinroad,0,Minor,,,,,,,,,,,,1.0,115P04188
475001,ERS,I-10,east,Disabled vehicle on the right shoulder on I-10 Eastbound  near   Elliot Rd (MP 157)   ,1754948820,1754948836,1754948820,,No Data,33.3606895543767,-111.969555883289,,,accidentsAndIncidents,C34Rshoulder,0,None,,,,,,,,,,,,1.0,115-04180
475250,ERS,I-10,east,Disabled vehicle on the right shoulder on I-10 Eastbound  near   Hohokam Expy (MP 154)   ,1754979420,1754979448,1754979420,,No Data,33.4069825644783,-111.97034096599,,,accidentsAndIncidents,C34Rshoulder,0,None,,,,,,,,,,,,1.0,115-04183
471065,ERS,I-10 Westbound,west,Exit ramp closed on  ramp  from I-10 Westbound  to  W Broadway Rd . All Ramps Closed.   8/11/2025 8:00 PM  to 8/12/2025 5:00 AM  ,1754967600,1754325374,1754967600,1755000000.0,All Ramps Closed,33.4036100000001,-111.96778,33.4063961133179,-111.968887614313,closures,exitclosed,1,Minor,qc{jErukjTqAJw@Fo@Nm@RyAh@cCdAkBv@oAj@iA`@q@N[D]Fg@Dy@Bk@?kAAOUKOCMEa@,,,,,,,,"""<b>Mon:</b><br/>8:00 PM - 12:00 AM<br/><br/><b>Tue:</b><br/>12:00 AM - 5:00 AM<br/><br/>""","[{""StartDate"": ""8/11/2025 8:00:00 PM-07:00:00"", ""EndDate"": ""8/12/2025 5:00:00 AM-07:00:00"", ""Times"": [{""StartTime"": ""20:00:00-07:00:00"", ""EndTime"": ""23:59:59-07:00:00""}], ""DaysOfWeek"": [""Monday""]}, {""StartDate"": ""8/11/2025 8:00:00 PM-07:00:00"", ""EndDate"": ""8/12/2025 5:00:00 AM-07:00:00"", ""Times"": [{""StartTime"": ""00:00:00-07:00:00"", ""EndTime"": ""04:59:59-07:00:00""}], ""DaysOfWeek"": [""Tuesday""]}]",,1.0,115P04183
471071,ERS,I-10,east,Left lanes closed on I-10 Eastbound from I-17 Northbound (MP 150)  to  S 24th St (MP 150) . 1 Left lane closed.   8/11/2025 8:00 PM  to 8/12/2025 5:00 AM  ,1754967600,1754325775,1754967600,1755000000.0,1 Left lane closed,33.4275127707421,-112.035851482196,33.4243098251654,-112.024280851248,roadwork,leftlanes,0,Minor,}x_kE`_yjTHSTs@VeAN}@Ju@H}@JwAl@oKN{BL}ADo@D_@Fm@LgBLy@b@cCb@wBf@uBh@oBf@_Bn@kBVs@Vo@d@aAP_@Xq@d@aA,,,,,,,,"""<b>Mon:</b><br/>8:00 PM - 12:00 AM<br/><br/><b>Tue:</b><br/>12:00 AM - 5:00 AM<br/><br/>""","[{""StartDate"": ""8/11/2025 8:00:00 PM-07:00:00"", ""EndDate"": ""8/12/2025 5:00:00 AM-07:00:00"", ""Times"": [{""StartTime"": ""20:00:00-07:00:00"", ""EndTime"": ""23:59:59-07:00:00""}], ""DaysOfWeek"": [""Monday""]}, {""StartDate"": ""8/11/2025 8:00:00 PM-07:00:00"", ""EndDate"": ""8/12/2025 5:00:00 AM-07:00:00"", ""Times"": [{""StartTime"": ""00:00:00-07:00:00"", ""EndTime"": ""04:59:59-07:00:00""}], ""DaysOfWeek"": [""Tuesday""]}]",,6.0,115N04188
476907,RADS,"I10 CD @ USB TO EB ,TMP",,"I10 CD @ US60 NB TO EB ,TMP - AccidentIncident - medical emergency",1755034811,1755035948,1755034811,35659335599.0,No Data,33.3869187899791,-111.96595358019,,,accidentsAndIncidents,AccidentIncident,0,,,,,,,,,,,,,,115P04182
477131,ERS,I-10,east,Crash on the left shoulder on I-10 Eastbound  near   S 24th St (MP 150)   ,1755053940,1755056718,1755053940,,No Data,33.4242511854867,-112.024179359496,,,accidentsAndIncidents,CrashLshoulder,0,Minor,,,,,,,,,,,,1.0,115-04186
471066,ERS,I-10 Westbound,west,Exit ramp closed on  ramp  from I-10 Westbound  to  W Broadway Rd . All Ramps Closed.   8/12/2025 8:00 PM  to 8/13/2025 5:00 AM  ,1755054000,1754325414,1755054000,1755086400.0,All Ramps Closed,33.4036100000001,-111.96778,33.4063961133179,-111.968887614313,closures,exitclosed,1,Minor,qc{jErukjTqAJw@Fo@Nm@RyAh@cCdAkBv@oAj@iA`@q@N[D]Fg@Dy@Bk@?kAAOUKOCMEa@,,,,,,,,"""<b>Tue:</b><br/>8:00 PM - 12:00 AM<br/><br/><b>Wed:</b><br/>12:00 AM - 5:00 AM<br/><br/>""","[{""StartDate"": ""8/12/2025 8:00:00 PM-07:00:00"", ""EndDate"": ""8/13/2025 5:00:00 AM-07:00:00"", ""Times"": [{""StartTime"": ""20:00:00-07:00:00"", ""EndTime"": ""23:59:59-07:00:00""}], ""DaysOfWeek"": [""Tuesday""]}, {""StartDate"": ""8/12/2025 8:00:00 PM-07:00:00"", ""EndDate"": ""8/13/2025 5:00:00 AM-07:00:00"", ""Times"": [{""StartTime"": ""00:00:00-07:00:00"", ""EndTime"": ""04:59:59-07:00:00""}], ""DaysOfWeek"": [""Wednesday""]}]",,1.0,115P04183
471074,ERS,I-10,east,Left lanes closed on I-10 Eastbound from 32nd St (MP 151)  to  40th St (MP 153) . 3 Left Lanes Closed.   8/12/2025 8:00 PM  to 8/13/2025 5:00 AM  ,1755054000,1754326078,1755054000,1755086400.0,3 Left Lanes Closed,33.4142492459769,-112.014273676138,33.4108222888214,-111.989608285321,roadwork,leftlanes,0,Minor,af}jEdxtjTZYj@o@jAyAfAaBbAgB^s@~@sBXs@\y@Ts@L_@X}@b@{APs@Nq@b@yB^eCX{BP}BL_CH_C@{A?gICeGA}C?aCEuME_P?qAC_PAcJ?{E,,,,,,,,"""<b>Tue:</b><br/>8:00 PM - 12:00 AM<br/><br/><b>Wed:</b><br/>12:00 AM - 5:00 AM<br/><br/>""","[{""StartDate"": ""8/12/2025 8:00:00 PM-07:00:00"", ""EndDate"": ""8/13/2025 5:00:00 AM-07:00:00"", ""Times"": [{""StartTime"": ""20:00:00-07:00:00"", ""EndTime"": ""23:59:59-07:00:00""}], ""DaysOfWeek"": [""Tuesday""]}, {""StartDate"": ""8/12/2025 8:00:00 PM-07:00:00"", ""EndDate"": ""8/13/2025 5:00:00 AM-07:00:00"", ""Times"": [{""StartTime"": ""00:00:00-07:00:00"", ""EndTime"": ""04:59:59-07:00:00""}], ""DaysOfWeek"": [""Wednesday""]}]",,7.0,115N04186
472516,ERS,I-10,west,Left lane closed on I-10 Westbound from Salt River (MP 151)  to  24th St (MP 150) . 1 Left HOV Lane Closed.   8/12/2025 8:00 PM  to 8/13/2025 4:00 AM  ,1755054000,1754515268,1755054000,1755082800.0,1 Left HOV Lane Closed,33.4185991899933,-112.017692867238,33.4267622792554,-112.030267884974,roadwork,LeftLane,0,Minor,ga~jEpmujT}ExDUPiBxAIFyBhB{AtAmAjAoAtAuAbB_BtB_@h@{@nAe@v@mAtBq@rAkAbCc@~@[r@Wn@i@zA[~@s@|B]jAOj@i@|BQ`A[nBOlAQhCEj@,,,,,,,,"""<b>Tue:</b><br/>8:00 PM - 12:00 AM<br/><br/><b>Wed:</b><br/>12:00 AM - 4:00 AM<br/><br/>""","[{""StartDate"": ""8/12/2025 8:00:00 PM-07:00:00"", ""EndDate"": ""8/13/2025 4:00:00 AM-07:00:00"", ""Times"": [{""StartTime"": ""20:00:00-07:00:00"", ""EndTime"": ""23:59:59-07:00:00""}], ""DaysOfWeek"": [""Tuesday""]}, {""StartDate"": ""8/12/2025 8:00:00 PM-07:00:00"", ""EndDate"": ""8/13/2025 4:00:00 AM-07:00:00"", ""Times"": [{""StartTime"": ""00:00:00-07:00:00"", ""EndTime"": ""03:59:59-07:00:00""}], ""DaysOfWeek"": [""Wednesday""]}]",,7.0,115+04187
477535,ERS,I-10,west,Crash on the right shoulder on I-10 Westbound  near   24th St (MP 150)   ,1755121140,1755121994,1755121140,,No Data,33.426830269663,-112.030807831461,,,accidentsAndIncidents,Crash on right shoulder,0,Minor,,,,,,,,,,,,1.0,115P04188
477743,ERS,I-10,west,Disabled vehicle on the right shoulder on I-10 Westbound  near   E University Dr (MP 151)   ,1755139740,1755139757,1755139740,,No Data,33.4146202702701,-112.014238378378,,,accidentsAndIncidents,C34Rshoulder,0,None,,,,,,,,,,,,1.0,115P04186
471078,ERS,I-10,east,Right lanes closed on I-10 Eastbound from 40th St (MP 152)  to  S 40th St (MP 153) . 2 Right Lanes Closed.   8/13/2025 8:00 PM  to 8/14/2025 5:00 AM  ,1755140400,1754326261,1755140400,1755172800.0,2 Right Lanes Closed,33.4107300000001,-112.000892937885,33.410820702128,-111.99004621269,roadwork,rightlanes,0,Minor,ap|jEpdrjT?g@EuME_P?qAC_PAcJ?cC,,,,,,,,"""<b>Wed:</b><br/>8:00 PM - 12:00 AM<br/><br/><b>Thu:</b><br/>12:00 AM - 5:00 AM<br/><br/>""","[{""StartDate"": ""8/13/2025 8:00:00 PM-07:00:00"", ""EndDate"": ""8/14/2025 5:00:00 AM-07:00:00"", ""Times"": [{""StartTime"": ""20:00:00-07:00:00"", ""EndTime"": ""23:59:59-07:00:00""}], ""DaysOfWeek"": [""Wednesday""]}, {""StartDate"": ""8/13/2025 8:00:00 PM-07:00:00"", ""EndDate"": ""8/14/2025 5:00:00 AM-07:00:00"", ""Times"": [{""StartTime"": ""00:00:00-07:00:00"", ""EndTime"": ""04:59:59-07:00:00""}], ""DaysOfWeek"": [""Thursday""]}]",,7.0,115N04185
478459,ERS,I-10,west,Crash on the exit ramp on I-10 Westbound  near   Broadway Rd (MP 154)   ,1755231840,1755231925,1755231840,,No Data,33.4047218133209,-111.96830162758,,,accidentsAndIncidents,crashExit,0,Minor,,,,,,,,,,,,1.0,115P04183
478473,ERS,I-10,west,Crash blocking the intersection on I-10 Westbound  near   US-60 Eastbound (MP 156)   ,1755234780,1755234865,1755234780,,No Data,33.375223,-111.96784,,,accidentsAndIncidents,crashBIntersection,0,Minor,,,,,,,,,,,,1.0,115P04181
472525,ERS,I-10 Westbound,west,Exit ramp closed on  ramp  from I-10 Westbound  to  S 24th St . All Ramps Closed.   8/14/2025 8:00 PM  to 8/15/2025 4:00 AM  ,1755226800,1754515556,1755226800,1755255600.0,All Ramps Closed,33.4248400000001,-112.02462,33.4263299309322,-112.027309819656,closures,exitclosed,1,Minor,gh_kEzxvjT{@`Ag@r@_@n@o@zAk@zAe@|Ac@|A]|AWtAADSjAWdBIj@m@~D,,,,,,,,"""<b>Thu:</b><br/>8:00 PM - 12:00 AM<br/><br/><b>Fri:</b><br/>12:00 AM - 4:00 AM<br/><br/>""","[{""StartDate"": ""8/14/2025 8:00:00 PM-07:00:00"", ""EndDate"": ""8/15/2025 4:00:00 AM-07:00:00"", ""Times"": [{""StartTime"": ""20:00:00-07:00:00"", ""EndTime"": ""23:59:59-07:00:00""}], ""DaysOfWeek"": [""Thursday""]}, {""StartDate"": ""8/14/2025 8:00:00 PM-07:00:00"", ""EndDate"": ""8/15/2025 4:00:00 AM-07:00:00"", ""Times"": [{""StartTime"": ""00:00:00-07:00:00"", ""EndTime"": ""03:59:59-07:00:00""}], ""DaysOfWeek"": [""Friday""]}]",,1.0,115P04187
478797,RADS,"W BASELINE RD/I10 ,TMP",,"W BASELINE RD/I10 ,TMP - AccidentIncident - injury accident",1755283626,1755284350,1755283626,35659335599.0,No Data,33.3782069754836,-111.968605550248,,,accidentsAndIncidents,AccidentIncident,0,,,,,,,,,,,,,,115N04181
478882,ERS,I-10,west,Crash on the right shoulder on I-10 Westbound  near   24th St (MP 150)   ,1755291780,1755292110,1755291780,,No Data,33.4228999139156,-112.021728019188,,,accidentsAndIncidents,Crash on right shoulder,0,Minor,,,,,,,,,,,,1.0,115+04187
479090,RADS,"I10 @ S 40TH ST WB UP ,PHX",,"I10 @ S 40TH ST WB UP ,PHX - AccidentIncident - injury accident",1755316150,1755316742,1755316150,35659335599.0,No Data,33.4110839494339,-111.99533478197,,,accidentsAndIncidents,AccidentIncident,0,,,,,,,,,,,,,,115P04185
479091,ERS,I-10,west,Crash on the left shoulder on I-10 Westbound  near   40th St (MP 152)   ,1755316200,1755316294,1755316200,,No Data,33.4110600000001,-111.995005,,,accidentsAndIncidents,CrashLshoulder,0,Minor,,,,,,,,,,,,1.0,115P04185
471080,ERS,I-10,west,Left lanes closed on I-10 Westbound from S 40th St (MP 152)  to  Salt River (MP 151) . 3 Left Lanes Closed.   8/15/2025 8:00 PM  to 8/16/2025 4:00 AM  ,1755313200,1754326483,1755313200,1755342000.0,3 Left Lanes Closed,33.4110114447756,-111.999778638855,33.4157428607466,-112.015270313693,roadwork,leftlanes,0,Minor,yq|jEr}qjT@~B?tD@`D@`CC`C?lABnBA~BE`CI~BOjCK`BUlBc@lC[zAQv@GTk@rBUv@M`@g@rAu@fBaApBi@~@q@fAc@p@sAfB}@`AUVi@j@gC~BoAdA,,,,,,,,"""<b>Fri:</b><br/>8:00 PM - 12:00 AM<br/><br/><b>Sat:</b><br/>12:00 AM - 4:00 AM<br/><br/>""","[{""StartDate"": ""8/15/2025 8:00:00 PM-07:00:00"", ""EndDate"": ""8/16/2025 4:00:00 AM-07:00:00"", ""Times"": [{""StartTime"": ""20:00:00-07:00:00"", ""EndTime"": ""23:59:59-07:00:00""}], ""DaysOfWeek"": [""Friday""]}, {""StartDate"": ""8/15/2025 8:00:00 PM-07:00:00"", ""EndDate"": ""8/16/2025 4:00:00 AM-07:00:00"", ""Times"": [{""StartTime"": ""00:00:00-07:00:00"", ""EndTime"": ""03:59:59-07:00:00""}], ""DaysOfWeek"": [""Saturday""]}]",,8.0,115P04185
479530,ERS,I-10,east,Crash blocking the on ramp on I-10 Eastbound  near   32nd St (MP 151)   ,1755432240,1755432270,1755432240,,No Data,33.4156237016577,-112.015595331492,,,accidentsAndIncidents,crashBOnramp,0,Minor,,,,,,,,,,,,1.0,115-04186
480003,ERS,I-10,west,Crash on the right shoulder on I-10 Westbound  near   SR-143 Northbound (MP 154)   ,1755540780,1755540809,1755540780,,No Data,33.4071844460926,-111.970108459597,,,accidentsAndIncidents,Crash on right shoulder,0,Minor,,,,,,,,,,,,1.0,115P04184
480100,ERS,I-10,east,Disabled vehicle on the right shoulder on I-10 Eastbound  near   Baseline Rd (MP 155)   ,1755550740,1755550826,1755550740,,No Data,33.3931876150084,-111.967815355649,,,accidentsAndIncidents,C34Rshoulder,0,None,,,,,,,,,,,,1.0,115N04182
480451,ERS,I-10,west,Disabled vehicle on the right shoulder on I-10 Westbound  near   Ray Rd (MP 160)   ,1755585900,1755585981,1755585900,,No Data,33.3161677988956,-111.972114204318,,,accidentsAndIncidents,C34Rshoulder,0,None,,,,,,,,,,,,1.0,115P04178
481803,ERS,I-10,west,Debris on the right shoulder on I-10 Westbound  near   Arizona Veterans Memorial Hwy (MP 150)   ,1755618720,1755618798,1755618720,,No Data,33.4270067073172,-112.032200365854,,,accidentsAndIncidents,DebrisRshoulder,0,None,,,,,,,,,,,,1.0,115P04188
481685,ERS,I-10,west,Abandoned vehicle on the right shoulder on I-10 Westbound  near   Ray Rd (MP 160)   ,1755610740,1755610760,1755610740,,No Data,33.3161677988956,-111.972114204318,,,accidentsAndIncidents,T1018SR,0,Minor,,,,,,,,,,,,1.0,115P04178
481862,ERS,I-10,east,Debris on the right shoulder on I-10 Eastbound  near   Baseline Rd (MP 156)   ,1755620580,1755620602,1755620580,,No Data,33.3844811309771,-111.967947060291,,,accidentsAndIncidents,DebrisRshoulder,0,None,,,,,,,,,,,,1.0,115-04181
482151,ERS,I-10 Westbound,east,Crash on the right shoulder on  ramp  from I-10 Westbound  to  I-10 Westbound (MP 172.0)   ,1755647460,1755647603,1755647460,,No Data,33.3878190722524,-111.964174929719,33.3878190722524,-111.964174929719,accidentsAndIncidents,Crash on right shoulder,0,Minor,eswjExzhjTDjA?ZCjACz@Ez@Gx@Gx@MhAIl@Kr@Kl@Qz@WjAWbA{@lD[lAOp@Ml@Ml@Kl@Kj@Mz@Ih@Kx@Ir@Ir@It@Gt@KtASlCQ~B_@xEGv@E`@E^G^G^ERGTKZM`@Q`@S^QXSXORUVWV[VWP[RYNYJc@Nk@LWD]DQ@e@@mA?aAAiBCsBAwAAwAAaCCgCCwBEiCEcBCq@ASEWK,,,,,,,,,,,1.0,115N04182
482372,ERS,I-10,west,Disabled vehicle on the right shoulder on I-10 Westbound  near   E University Dr (MP 151)   ,1755696840,1755696921,1755696840,,No Data,33.4169557760553,-112.016304711254,,,accidentsAndIncidents,C34Rshoulder,0,None,,,,,,,,,,,,1.0,115+04187
482407,ERS,I-10,east,Disabled vehicle on the right shoulder on I-10 Eastbound  near   32nd St (MP 151)   ,1755700500,1755700585,1755700500,,No Data,33.4168103463397,-112.016602460768,,,accidentsAndIncidents,C34Rshoulder,0,None,,,,,,,,,,,,1.0,115-04186
482605,ERS,I-10,west,Disabled vehicle on the right shoulder on I-10 Westbound  near   SR-143 Northbound (MP 154)   ,1755719160,1755719246,1755719160,,No Data,33.4071844460926,-111.970108459597,,,accidentsAndIncidents,C34Rshoulder,0,None,,,,,,,,,,,,1.0,115P04184
482841,ERS,I-10,east,Disabled vehicle on the right shoulder on I-10 Eastbound  near   Elliot Rd (MP 157)   ,1755737580,1755737663,1755737580,,No Data,33.3606895543767,-111.969555883289,,,accidentsAndIncidents,C34Rshoulder,0,None,,,,,,,,,,,,1.0,115-04180
482902,ERS,I-10,west,Crash blocking the exit ramp on I-10 Westbound  near   Ray Rd (MP 160)   ,1755746040,1755746068,1755746040,,No Data,33.314716,-111.9721,,,accidentsAndIncidents,crashBExit,0,Minor,,,,,,,,,,,,1.0,115+04178
482904,ERS,I-10,west,Crash on the right shoulder on I-10 Westbound  near   W Baseline Rd (MP 156)   ,1755746340,1755748338,1755746340,,No Data,33.3844430200244,-111.967646787626,,,accidentsAndIncidents,Crash on right shoulder,0,Minor,,,,,,,,,,,,1.0,115+04182
483022,ERS,I-10,west,Disabled vehicle on the on ramp on I-10 Westbound  near   Ray Rd (MP 160)   ,1755781020,1755781108,1755781020,,No Data,33.3161677988956,-111.972114204318,,,accidentsAndIncidents,C34onramp,0,None,,,,,,,,,,,,1.0,115P04178
483982,ERS,I-10,east,Debris on the left shoulder on I-10 Eastbound  near   Elliot Rd (MP 158)   ,1755886740,1755887361,1755886740,,No Data,33.3492770115606,-111.972025075145,,,accidentsAndIncidents,debrisLshoulder,0,Minor,,,,,,,,,,,,1.0,115N04180
483990,ERS,I-10,east,Sign damage on I-10 Eastbound  near   Elliot Rd (MP 158)   ,1755887400,1755887429,1755887400,,No Data,33.3492770115606,-111.972025075145,,,accidentsAndIncidents,signdamaged,0,Minor,,,,,,,,,,,,1.0,115N04180
483991,ERS,I-10,east,Disabled vehicle on the exit ramp on I-10 Eastbound  near   Elliot Rd (MP 158)   ,1755887460,1755887483,1755887460,,No Data,33.3492770115606,-111.972025075145,,,accidentsAndIncidents,C34exit,0,None,,,,,,,,,,,,1.0,115N04180
484091,ERS,I-10,east,Crash on the left shoulder on I-10 Eastbound  near   E Ray Rd (MP 160)   ,1755899280,1755899311,1755899280,,No Data,33.3148096139548,-111.972403194166,,,accidentsAndIncidents,CrashLshoulder,0,Minor,,,,,,,,,,,,1.0,115-04177
484394,ERS,I-10,east,Debris on the left shoulder on I-10 Eastbound  near   S 24th St (MP 150)   ,1755941160,1755943347,1755941160,,No Data,33.4262193923079,-112.028764438462,,,accidentsAndIncidents,debrisLshoulder,0,Minor,,,,,,,,,,,,1.0,115N04187
486664,ERS,I-10,west,Debris on the right shoulder on I-10 Westbound  near   Hohokam Expy (MP 153)   ,1755964020,1755964107,1755964020,,No Data,33.41112,-111.984338,,,accidentsAndIncidents,DebrisRshoulder,0,None,,,,,,,,,,,,1.0,115+04185
486665,ERS,I-10,west,Wrong-way driver on I-10 Westbound  near   Ray Rd (MP 160)   ,1755964080,1755964107,1755964080,,No Data,33.3161677988956,-111.972114204318,,,accidentsAndIncidents,WrongWay,0,Major,,,,,,,,,,,,1.0,115P04178
493096,ERS,I-10,east,Disabled vehicle on the right shoulder on I-10 Eastbound  near   Ray Rd (MP 160)   ,1756146720,1756146751,1756146720,,No Data,33.3210417678461,-111.972385122921,,,accidentsAndIncidents,C34Rshoulder,0,None,,,,,,,,,,,,1.0,115N04178
493099,ERS,I-10,east,Disabled vehicle on the left shoulder on I-10 Eastbound  near   S 24th St (MP 151)   ,1756146900,1756146929,1756146900,,No Data,33.4212878370161,-112.020425191966,,,accidentsAndIncidents,C34Lshoulder,0,None,,,,,,,,,,,,1.0,115-04186
493393,ERS,I-10,east,Crash on the right shoulder on I-10 Eastbound  near   Elliot Rd (MP 158)   ,1756167600,1756167622,1756167600,,No Data,33.3492770115606,-111.972025075145,,,accidentsAndIncidents,Crash on right shoulder,0,Minor,,,,,,,,,,,,1.0,115N04180
493396,RADS,"I10 @ E WARNER RD SB NO ,PHX",,"I10 @ E WARNER RD SB NO ,PHX - AccidentIncident - injury accident",1756167788,1756169955,1756167788,35659335599.0,No Data,33.3406398440782,-111.972390191501,,,accidentsAndIncidents,AccidentIncident,0,,,,,,,,,,,,,,115-04179
493410,RADS,I10 / W WARNER RD[JN RD PULLED OFF RIGHT                                    TE,,I10 / W WARNER RD[JN RD PULLED OFF RIGHT                                    TE - AccidentIncident - accident On I10 / W WARNER RD[JN RD PULLED OFF RIGHT                                    TE between None and None,1756168006,1756169955,1756168006,35659335599.0,No Data,33.3343955017581,-111.972230827145,,,accidentsAndIncidents,AccidentIncident,0,,,,,,,,,,,,,,115N04179
493458,ERS,I-10,east,Crash blocking the right lane on I-10 Eastbound  near   Elliot Rd (MP 158)   ,1756169640,1756169726,1756169640,,No Data,33.3492770115606,-111.972025075145,,,accidentsAndIncidents,crashRlane,0,Minor,,,,,,,,,,,,1.0,115N04180
493638,RADS,W WARNER RD / I10                                                           TE,,W WARNER RD / I10                                                           TE - AccidentIncident - traffic signal out On W WARNER RD / I10                                                           TE between None and None,1756177987,1756180743,1756177987,35659335599.0,No Data,33.3343955017581,-111.972230827145,,,accidentsAndIncidents,AccidentIncident,0,,,,,,,,,,,,,,115N04179
493642,ERS,I-10,east,Traffic signal issue on I-10 Eastbound  near   E Elliot Rd (MP 158)   ,1756178760,1756178789,1756178760,,No Data,33.3458470822943,-111.972291645885,,,accidentsAndIncidents,SignalIssue,0,Minor,,,,,,,,,,,,1.0,115N04180
494084,ERS,I-10,east,Disabled vehicle on the right shoulder on I-10 Eastbound  near   Elliot Rd (MP 157)   ,1756238760,1756238841,1756238760,,No Data,33.3606895543767,-111.969555883289,,,accidentsAndIncidents,C34Rshoulder,0,None,,,,,,,,,,,,1.0,115-04180
494268,ERS,I-10,west,Disabled vehicle on the right shoulder on I-10 Westbound  near   40th St (MP 152)   ,1756251900,1756251989,1756251900,,No Data,33.4110600000001,-111.995005,,,accidentsAndIncidents,C34Rshoulder,0,None,,,,,,,,,,,,1.0,115P04185
494804,ERS,I-10,east,Disabled vehicle on the exit ramp on I-10 Eastbound  near   Elliot Rd (MP 158)   ,1756325100,1756325599,1756325100,,No Data,33.3492770115606,-111.972025075145,,,accidentsAndIncidents,C34exit,0,None,,,,,,,,,,,,1.0,115N04180
495544,ERS,I-10,east,Disabled vehicle on the right shoulder on I-10 Eastbound  near   32nd St (MP 151)   ,1756379880,1756379963,1756379880,,No Data,33.4168103463397,-112.016602460768,,,accidentsAndIncidents,C34Rshoulder,0,None,,,,,,,,,,,,1.0,115-04186
495886,ERS,I-10,west,Crash on the exit ramp on I-10 Westbound  near   Broadway Rd (MP 154)   ,1756416240,1756417112,1756416240,,No Data,33.4047218133209,-111.96830162758,,,accidentsAndIncidents,crashExit,0,Minor,,,,,,,,,,,,1.0,115P04183
496117,RADS,W WARNER RD / I10                                                           TE,,W WARNER RD / I10                                                           TE - AccidentIncident - accident On W WARNER RD / I10                                                           TE between W WARNER RD and I10,1756435601,1756439951,1756435601,35659335599.0,No Data,33.3343955017581,-111.972230827145,,,accidentsAndIncidents,AccidentIncident,0,,,,,,,,,,,,,,115N04179
496216,ERS,I-10,east,Crash blocking the on ramp on I-10 Eastbound  near   Baseline Rd (MP 156)   ,1756467120,1756467144,1756467120,,No Data,33.3844811309771,-111.967947060291,,,accidentsAndIncidents,crashBOnramp,0,Minor,,,,,,,,,,,,1.0,115-04181
497417,ERS,I-10,west,Graffiti on I-10 Westbound  near   US-60 Eastbound (MP 156)   ,1756507080,1756507159,1756507080,,No Data,33.375223,-111.96784,,,accidentsAndIncidents,Graffiti,0,Minor,,,,,,,,,,,,1.0,115P04181
497634,ERS,I-10,west,Crash on the right shoulder on I-10 Westbound  near   E Elliot Rd (MP 158)   ,1756535760,1756535838,1756535760,,No Data,33.3491839384615,-111.971739507692,,,accidentsAndIncidents,Crash on right shoulder,0,Minor,,,,,,,,,,,,1.0,115P04180
497635,ERS,I-10,west,Disabled vehicle on the right shoulder on I-10 Westbound  near   40th St (MP 152)   ,1756536660,1756536748,1756536660,,No Data,33.4110600000001,-111.995005,,,accidentsAndIncidents,C34Rshoulder,0,None,,,,,,,,,,,,1.0,115P04185
498060,ERS,I-10,east,Debris blocking the center lane on I-10 Eastbound  near   S 24th St (MP 151)   ,1756651560,1756651644,1756651560,,No Data,33.4212878370161,-112.020425191966,,,accidentsAndIncidents,debrisClane,0,Minor,,,,,,,,,,,,1.0,115-04186
498111,ERS,I-10,east,Disabled vehicle on the right shoulder on I-10 Eastbound  near   Baseline Rd (MP 155)   ,1756661760,1756661838,1756661760,,No Data,33.3917364889306,-111.967841691932,,,accidentsAndIncidents,C34Rshoulder,0,None,,,,,,,,,,,,1.0,115N04182
498248,RADS,W BASELINE RD / I10                                                         TE,,W BASELINE RD / I10                                                         TE - AccidentIncident - injury accident On W BASELINE RD / I10                                                         TE between I10 and W BASELINE RD,1756685153,1756688291,1756685153,35659335599.0,No Data,33.3782375067325,-111.967993469997,,,accidentsAndIncidents,AccidentIncident,0,,,,,,,,,,,,,,115N04181
498282,RADS,W BASELINE RD / I10                                                         TE,,W BASELINE RD / I10                                                         TE - AccidentIncident - accident On W BASELINE RD / I10                                                         TE between I10 and W BASELINE RD,1756693029,1756699150,1756693029,35659335599.0,No Data,33.3782375067325,-111.967993469997,,,accidentsAndIncidents,AccidentIncident,0,,,,,,,,,,,,,,115N04181
498338,ERS,I-10,west,Abandoned vehicle on the right shoulder on I-10 Westbound  near   Elliot Rd (MP 158)   ,1756705380,1756705471,1756705380,,No Data,33.3457896889813,-111.972038380042,,,accidentsAndIncidents,T1018SR,0,Minor,,,,,,,,,,,,1.0,115P04180
498591,ERS,I-10,east,Disabled vehicle on the right shoulder on I-10 Eastbound  near   Elliot Rd (MP 157)   ,1756773840,1756773925,1756773840,,No Data,33.3606895543767,-111.969555883289,,,accidentsAndIncidents,C34Rshoulder,0,None,,,,,,,,,,,,1.0,115-04180
498643,ERS,I-10,east,Disabled vehicle on the right shoulder on I-10 Eastbound  near   Superstition Fwy (MP 156)   ,1756781580,1756782137,1756781580,,No Data,33.3698982028857,-111.968221898335,,,accidentsAndIncidents,C34Rshoulder,0,None,,,,,,,,,,,,1.0,115-04180
498772,ERS,I-10,west,Disabled vehicle on the right shoulder on I-10 Westbound  near   E University Dr (MP 151)   ,1756823460,1756823546,1756823460,,No Data,33.4146202702701,-112.014238378378,,,accidentsAndIncidents,C34Rshoulder,0,None,,,,,,,,,,,,1.0,115P04186
498816,ERS,I-10,west,Crash on the right shoulder on I-10 Westbound  near   E University Dr (MP 151)   ,1756826820,1756826971,1756826820,,No Data,33.4146202702701,-112.014238378378,,,accidentsAndIncidents,Crash on right shoulder,0,Minor,,,,,,,,,,,,1.0,115P04186
498931,ERS,I-10,east,Debris on the right shoulder on I-10 Eastbound  near   S 24th St (MP 151)   ,1756834440,1756834522,1756834440,,No Data,33.4212878370161,-112.020425191966,,,accidentsAndIncidents,DebrisRshoulder,0,None,,,,,,,,,,,,1.0,115-04186
498961,ERS,I-10,west,ITS equipment damage on I-10 Westbound  near   SR-143 Northbound (MP 154)   ,1756836300,1756836439,1756836300,,No Data,33.4071844460926,-111.970108459597,,,accidentsAndIncidents,ITS Equipment Damage,0,Minor,,,,,,,,,,,,1.0,115P04184
501592,ERS,I-10,east,Disabled vehicle on the right shoulder on I-10 Eastbound  near   Baseline Rd (MP 155)   ,1756908600,1756908678,1756908600,,No Data,33.3902852209167,-111.967862440671,,,accidentsAndIncidents,C34Rshoulder,0,None,,,,,,,,,,,,1.0,115N04182
502022,ERS,I-10,east,Crash on the left shoulder on I-10 Eastbound  near   Elliot Rd (MP 158)   ,1756947180,1756947268,1756947180,,No Data,33.3492770115606,-111.972025075145,,,accidentsAndIncidents,CrashLshoulder,0,Minor,,,,,,,,,,,,1.0,115N04180
502025,ERS,I-10,east,Crash on the right shoulder on I-10 Eastbound  near   Elliot Rd (MP 157)   ,1756947360,1756947454,1756947360,,No Data,33.3606895543767,-111.969555883289,,,accidentsAndIncidents,Crash on right shoulder,0,Minor,,,,,,,,,,,,1.0,115-04180
502079,ERS,I-10,east,Pedestrian on roadway on I-10 Eastbound  near   Elliot Rd (MP 158)   ,1756958160,1756958237,1756958160,,No Data,33.3492770115606,-111.972025075145,,,accidentsAndIncidents,pedestrianOnRoadway,0,Minor,,,,,,,,,,,,1.0,115N04180
502023,ERS,I-10,east,Debris on the right shoulder on I-10 Eastbound  near   S 24th St (MP 151)   ,1756947180,1756955720,1756947180,,No Data,33.4212878370161,-112.020425191966,,,accidentsAndIncidents,DebrisRshoulder,0,None,,,,,,,,,,,,1.0,115-04186
502243,RADS,W BASELINE RD / I10                                                         TE,,W BASELINE RD / I10                                                         TE - AccidentIncident - accident On W BASELINE RD / I10                                                         TE between I10 and W BASELINE RD,1756988950,1756990743,1756988950,35659335599.0,No Data,33.3782375067325,-111.967993469997,,,accidentsAndIncidents,AccidentIncident,0,,,,,,,,,,,,,,115N04181
502940,ERS,I-10,west,ITS equipment damage on I-10 Westbound  near   Hohokam Expy (MP 153)   ,1757073360,1757073441,1757073360,,No Data,33.4111100000001,-111.986068,,,accidentsAndIncidents,ITS Equipment Damage,0,Minor,,,,,,,,,,,,1.0,115+04185
503017,ERS,I-10,west,Crash on the right shoulder on I-10 Westbound  near   E Elliot Rd (MP 158)   ,1757085600,1757086703,1757085600,,No Data,33.3491839384615,-111.971739507692,,,accidentsAndIncidents,Crash on right shoulder,0,Minor,,,,,,,,,,,,1.0,115P04180
503024,ERS,I-10,east,Disabled vehicle on the right shoulder on I-10 Eastbound  near   Baseline Rd (MP 155)   ,1757086740,1757086833,1757086740,,No Data,33.3917364889306,-111.967841691932,,,accidentsAndIncidents,C34Rshoulder,0,None,,,,,,,,,,,,1.0,115N04182
503606,ERS,I-10,west,Disabled vehicle blocking the right lane on I-10 Westbound  near   40th St (MP 152)   ,1757150220,1757150300,1757150220,,No Data,33.4110600000001,-111.995005,,,accidentsAndIncidents,C34Rlane,0,Minor,,,,,,,,,,,,1.0,115P04185
503639,ERS,I-10,west,Disabled vehicle on the right shoulder on I-10 Westbound  near   S 40th St (MP 152)   ,1757166000,1757166085,1757166000,,No Data,33.410992685157,-112.001922502286,,,accidentsAndIncidents,C34Rshoulder,0,None,,,,,,,,,,,,1.0,115P04185
503768,RADS,I10 / W ELLIOT RD                                                           TE,,I10 / W ELLIOT RD                                                           TE - AccidentIncident - accident On I10 / W ELLIOT RD                                                           TE between I10 and W ELLIOT RD,1757197641,1757217550,1757197641,35659335599.0,No Data,33.3490338090142,-111.971909368607,,,accidentsAndIncidents,AccidentIncident,0,,,,,,,,,,,,,,115N04180
503926,RADS,W BROADWAY RD / I10                                                         TE,,W BROADWAY RD / I10                                                         TE - AccidentIncident - traffic hazard On W BROADWAY RD / I10                                                         TE between W BROADWAY RD and I10,1757227627,1757228349,1757227627,35659335599.0,No Data,33.4088226703259,-111.97242563323,,,accidentsAndIncidents,AccidentIncident,0,,,,,,,,,,,,,,115N04184
504340,ERS,I-10,west,Debris on the right shoulder on I-10 Westbound  near   US-60 Eastbound (MP 156)   ,1757340240,1757340326,1757340240,,No Data,33.375223,-111.96784,,,accidentsAndIncidents,DebrisRshoulder,0,None,,,,,,,,,,,,1.0,115P04181
504404,ERS,I-10,west,Crash on the right shoulder on I-10 Westbound  near   24th St (MP 150)   ,1757344620,1757344707,1757344620,,No Data,33.426830269663,-112.030807831461,,,accidentsAndIncidents,Crash on right shoulder,0,Minor,,,,,,,,,,,,1.0,115P04188
504439,ERS,I-10,east,Pedestrian on roadway on I-10 Eastbound  near   S 24th St (MP 150)   ,1757347020,1757347114,1757347020,,No Data,33.4262193923079,-112.028764438462,,,accidentsAndIncidents,pedestrianOnRoadway,0,Minor,,,,,,,,,,,,1.0,115N04187
504602,ERS,I-10,west,Disabled vehicle on the right shoulder on I-10 Westbound  near   Superstition Fwy (MP 155)   ,1757360460,1757360559,1757360460,,No Data,33.393148,-111.96741,,,accidentsAndIncidents,C34Rshoulder,0,None,,,,,,,,,,,,1.0,115P04182
504924,ERS,I-10,west,Crash on the right shoulder on I-10 Westbound  near   24th St (MP 150)   ,1757369040,1757369134,1757369040,,No Data,33.4254892033632,-112.025898254986,,,accidentsAndIncidents,Crash on right shoulder,0,Minor,,,,,,,,,,,,1.0,115P04187
504672,ERS,I-10,west,Fence damage on I-10 Westbound  near   Hohokam Expy (MP 153)   ,1757366220,1757366299,1757366220,,No Data,33.4111100000001,-111.986068,,,accidentsAndIncidents,fencedamage,0,Minor,,,,,,,,,,,,1.0,115+04185
505000,ERS,I-10,east,Debris on the right shoulder on I-10 Eastbound  near   Elliot Rd (MP 158)   ,1757375700,1757378486,1757375700,,No Data,33.3492770115606,-111.972025075145,,,accidentsAndIncidents,DebrisRshoulder,0,None,,,,,,,,,,,,1.0,115N04180
505258,ERS,I-10,west,Crash on the right shoulder on I-10 Westbound  near   Warner Rd (MP 159)   ,1757429220,1757429300,1757429220,,No Data,33.3327291390222,-111.972060887521,,,accidentsAndIncidents,Crash on right shoulder,0,Minor,,,,,,,,,,,,1.0,115P04179
505314,ERS,I-10,west,Crash on the right shoulder on I-10 Westbound  near   Broadway Rd (MP 172.0)   ,1757432040,1757432127,1757432040,,No Data,33.4004896288355,-111.967272699445,,,accidentsAndIncidents,Crash on right shoulder,0,Minor,,,,,,,,,,,,1.0,115+04183
505555,ERS,I-10,west,Crash on the right shoulder on I-10 Westbound  near   24th St (MP 150)   ,1757451720,1757451801,1757451720,,No Data,33.4254892033632,-112.025898254986,,,accidentsAndIncidents,Crash on right shoulder,0,Minor,,,,,,,,,,,,1.0,115P04187
505565,ERS,I-10,east,Disabled vehicle on the right shoulder on I-10 Eastbound  near   S 40th St (MP 152)   ,1757453280,1757453370,1757453280,,No Data,33.4107913445965,-111.995027134887,,,accidentsAndIncidents,C34Rshoulder,0,None,,,,,,,,,,,,1.0,115N04185
505679,ERS,I-10,west,Crash on the right shoulder on I-10 Westbound  near   24th St (MP 150)   ,1757461800,1757462790,1757461800,,No Data,33.4228999139156,-112.021728019188,,,accidentsAndIncidents,Crash on right shoulder,0,Minor,,,,,,,,,,,,1.0,115+04187
505686,RADS,I10 / W WARNER RD[JE                                                        TE,,I10 / W WARNER RD[JE                                                        TE - AccidentIncident - accident On I10 / W WARNER RD[JE                                                        TE between W WARNER RD and I10,1757462104,1757465951,1757462104,35659335599.0,No Data,33.3343955017581,-111.972230827145,,,accidentsAndIncidents,AccidentIncident,0,,,,,,,,,,,,,,115N04179
505710,ERS,I-10,east,Crash blocking the intersection on I-10 Eastbound  near   E Warner Rd (MP 159)   ,1757462460,1757462551,1757462460,,No Data,33.3327901296008,-111.972346492486,,,accidentsAndIncidents,crashBIntersection,0,Minor,,,,,,,,,,,,1.0,115N04179
506425,ERS,I-10,west,Crash on the left shoulder on I-10 Westbound  near   E University Dr (MP 151)   ,1757557080,1757557164,1757557080,,No Data,33.4169557760553,-112.016304711254,,,accidentsAndIncidents,CrashLshoulder,0,Minor,,,,,,,,,,,,1.0,115+04187
506531,ERS,I-10,west,Disabled vehicle on the right shoulder on I-10 Westbound  near   E Elliot Rd (MP 157)   ,1757584320,1757584403,1757584320,,No Data,33.3605770085628,-111.969301169868,,,accidentsAndIncidents,C34Rshoulder,0,None,,,,,,,,,,,,1.0,115+04181
506627,ERS,I-10,west,Crash on the right shoulder on I-10 Westbound  near   24th St (MP 150)   ,1757602020,1757603125,1757602020,,No Data,33.4228999139156,-112.021728019188,,,accidentsAndIncidents,Crash on right shoulder,0,Minor,,,,,,,,,,,,1.0,115+04187
506730,ERS,I-10,east,Disabled vehicle on the right shoulder on I-10 Eastbound  near   S 24th St (MP 151)   ,1757607360,1757607444,1757607360,,No Data,33.4212878370161,-112.020425191966,,,accidentsAndIncidents,C34Rshoulder,0,None,,,,,,,,,,,,1.0,115-04186
506731,ERS,I-10,east,Disabled vehicle on the right shoulder on I-10 Eastbound  near   S 24th St (MP 150)   ,1757607420,1757607503,1757607420,,No Data,33.4242511854867,-112.024179359496,,,accidentsAndIncidents,C34Rshoulder,0,None,,,,,,,,,,,,1.0,115-04186
506910,ERS,I-10,west,Crash on the left shoulder on I-10 Westbound  near   24th St (MP 150)   ,1757627640,1757627722,1757627640,,No Data,33.4228999139156,-112.021728019188,,,accidentsAndIncidents,CrashLshoulder,0,Minor,,,,,,,,,,,,1.0,115+04187
507193,ERS,I-10,west,Road closed due to a crash on I-10 Westbound  near   Warner Rd (MP 159)   ,1757663880,1757664137,1757663880,,No Data,33.3327291390222,-111.972060887521,,,closures,RoadClosedDueToCrash,1,Major,,,,,,,,,,,,1.0,115P04179
507726,RADS,W BROADWAY RD / I10                                                         TE,,W BROADWAY RD / I10                                                         TE - AccidentIncident - accident On W BROADWAY RD / I10                                                         TE between W BROADWAY RD and I10,1757724409,1757725095,1757724409,35659335599.0,No Data,33.4088226703259,-111.97242563323,,,accidentsAndIncidents,AccidentIncident,0,,,,,,,,,,,,,,115N04184
517992,RADS,W BASELINE RD / I10                                                         TE,,W BASELINE RD / I10                                                         TE - AccidentIncident - accident On W BASELINE RD / I10                                                         TE between I10 and W BASELINE RD,1757807827,1757811544,1757807827,35659335599.0,No Data,33.3782375067325,-111.967993469997,,,accidentsAndIncidents,AccidentIncident,0,,,,,,,,,,,,,,115N04181
498888,ERS,I-10,west,Freeway closed on I-10 Westbound from Arizona Veterans Memorial Hwy (MP 150)  to  7th Ave (MP 145) . All lanes closed.   9/12/2025 9:00 PM  to 9/14/2025 9:00 AM  ,1757736000,1756910556,1757736000,1757865600.0,All lanes closed,33.4267853868125,-112.0304430945,33.4612243482102,-112.082323971973,closures,Freewayclosed,1,Major,mt_kEf}wjTEr@Ch@OxBGr@UbEEf@Cf@SnCKnAQxAOx@Mj@Wv@[v@Q^o@bAa@f@SRURk@^_@P_@NuA^_AP[DW@}@Ba@@k@@y@?cA@qC?sA@yB@e@?mEB_A?uA@aIBsA?oBEcAEqFWsCMcCGcCAkN?qB@oEAyC?yCA{@A[?eA@gC?cBAmICyG?yHEo@@sCAqBA{DAiBAmA?wEA}B?k@@q@Bq@Fo@Jo@Pw@Xg@Tk@^e@\cAbAy@hAYf@Sd@Sf@Ur@WdAO|@In@G|@CfBArB?jCAxA?pAA~B?rBCbEG|G@pB?x@ErD?dEA~@?~ACrDBfC@`B@T@ZNtFDjB@vA@\AlAAn@?|BClK?fAA~@?f@BlFArDAdACbAUhHKfDEpB?ZA^AVAd@Q~DKdBIhDCxCFtCL~AP`CBTD\b@dDVbCLrAP|CBt@@p@@R@hA?tB@|BAnC?n@@~BBnCBdABx@HpAL~ALfA\tDNfBXlE,,,,,,,,"""<b>Fri:</b><br/>9:00 PM - 12:00 AM<br/><br/><b>Sat:</b><br/>Active all day<br/><br/><b>Sun:</b><br/>12:00 AM - 9:00 AM<br/><br/>""","[{""StartDate"": ""9/12/2025 9:00:00 PM-07:00:00"", ""EndDate"": ""9/14/2025 9:00:00 AM-07:00:00"", ""Times"": [{""StartTime"": ""21:00:00-07:00:00"", ""EndTime"": ""23:59:59-07:00:00""}], ""DaysOfWeek"": [""Friday""]}, {""StartDate"": ""9/12/2025 9:00:00 PM-07:00:00"", ""EndDate"": ""9/14/2025 9:00:00 AM-07:00:00"", ""Times"": [{""StartTime"": ""00:00:00-07:00:00"", ""EndTime"": ""23:59:59-07:00:00""}], ""DaysOfWeek"": [""Saturday""]}, {""StartDate"": ""9/12/2025 9:00:00 PM-07:00:00"", ""EndDate"": ""9/14/2025 9:00:00 AM-07:00:00"", ""Times"": [{""StartTime"": ""00:00:00-07:00:00"", ""EndTime"": ""08:59:59-07:00:00""}], ""DaysOfWeek"": [""Sunday""]}]",Freeway closed on I-10 Westbound from Arizona Veterans Memorial Hwy (MP 150) to 7th Ave (MP 145).  9/12/2025 9:00 PM to 9/15/2025 5:00 AM,4.0,115P04188
517641,ERS,I-10,east,Dead animal near roadway on I-10 Eastbound  near   Superstition Fwy (MP 156)   ,1757806020,1757806110,1757806020,,No Data,33.378606666715,-111.968111445781,,,accidentsAndIncidents,DeadAnimalRoad,0,Minor,,,,,,,,,,,,1.0,115N04181
522233,ERS,I-10,west,Sign damage on I-10 Westbound  near   24th St (MP 150)   ,1757853600,1757853768,1757853600,,No Data,33.426830269663,-112.030807831461,,,accidentsAndIncidents,signdamaged,0,Minor,,,,,,,,,,,,1.0,115P04188
522474,ERS,I-10,east,Disabled vehicle on the right shoulder on I-10 Eastbound  near   I-10 (MP 172.0)   ,1757902080,1757902162,1757902080,,No Data,33.4002506353591,-111.967572071823,,,accidentsAndIncidents,C34Rshoulder,0,None,,,,,,,,,,,,1.0,115-04182
522561,RADS,W BASELINE RD / I10 [WB                                                     TE,,W BASELINE RD / I10 [WB                                                     TE - AccidentIncident - accident On W BASELINE RD / I10 [WB                                                     TE between I10 and W BASELINE RD,1757936393,1757941093,1757936393,35659335599.0,No Data,33.3782375067325,-111.967993469997,,,accidentsAndIncidents,AccidentIncident,0,,,,,,,,,,,,,,115N04181
523299,ERS,I-10,east,Disabled vehicle on the left shoulder on I-10 Eastbound  near   Baseline Rd (MP 155)   ,1757951520,1757951601,1757951520,,No Data,33.3931876150084,-111.967815355649,,,accidentsAndIncidents,C34Lshoulder,0,None,,,,,,,,,,,,1.0,115N04182
523505,ERS,I-10,east,Crash on I-10 Eastbound  near   Hohokam Expy (MP 154)   ,1757967540,1757967630,1757967540,,No Data,33.4069825644783,-111.97034096599,,,accidentsAndIncidents,accident,0,Minor,,,,,,,,,,,,1.0,115-04183
523524,ERS,I-10,east,Guardrail damage on I-10 Eastbound  near   Baseline Rd (MP 155)   ,1757969460,1757973994,1757969460,,No Data,33.3931876150084,-111.967815355649,,,accidentsAndIncidents,guardrail,0,Minor,,,,,,,,,,,,1.0,115N04182
523875,ERS,I-10,west,Crash on the right shoulder on I-10 Westbound  near   24th St (MP 150)   ,1758023340,1758023433,1758023340,,No Data,33.426830269663,-112.030807831461,,,accidentsAndIncidents,Crash on right shoulder,0,Minor,,,,,,,,,,,,1.0,115P04188
523962,ERS,I-10,east,Disabled vehicle on the right shoulder on I-10 Eastbound  near   S 24th St (MP 150)   ,1758033240,1758033326,1758033240,,No Data,33.4262193923079,-112.028764438462,,,accidentsAndIncidents,C34Rshoulder,0,None,,,,,,,,,,,,1.0,115N04187
523982,ERS,I-10,west,Debris on the left shoulder on I-10 Westbound  near   Ray Rd (MP 160)   ,1758034500,1758035422,1758034500,,No Data,33.3161677988956,-111.972114204318,,,accidentsAndIncidents,debrisLshoulder,0,Minor,,,,,,,,,,,,1.0,115P04178
523896,ERS,I-10,east,Shoulder closed on I-10 Eastbound  near   I-17 Northbound (MP 150) . All Shoulders Closed.   9/16/2025 10:30 AM  to 9/16/2025 1:00 PM  ,1758043800,1758027960,1758043800,1758052800.0,All Shoulders Closed,33.4273785985454,-112.035557596562,,,roadwork,shoulderclosed,0,None,,,,,,,,,"""<b>Tue:</b><br/>Active all day<br/><br/>""","[{""StartDate"": ""9/16/2025 10:30:00 AM-07:00:00"", ""EndDate"": ""9/16/2025 1:00:00 PM-07:00:00"", ""Times"": [{""StartTime"": ""00:00:00-07:00:00"", ""EndTime"": ""23:59:59-07:00:00""}], ""DaysOfWeek"": [""Tuesday""]}]","I-10EB @ Split ,off right. Shoulder closure . Guardrail repair.",4.0,115N04188
524069,ERS,I-10,west,Crash on the left shoulder on I-10 Westbound  near   Hohokam Expy (MP 153)   ,1758040920,1758042739,1758040920,,No Data,33.4111100000001,-111.986068,,,accidentsAndIncidents,CrashLshoulder,0,Minor,,,,,,,,,,,,1.0,115+04185
524271,RADS,W WARNER RD / I10                                                           TE,,W WARNER RD / I10                                                           TE - AccidentIncident - disabled vehicle On W WARNER RD / I10                                                           TE between W WARNER RD and I10,1758058849,1758059942,1758058849,35659335599.0,No Data,33.3343955017581,-111.972230827145,,,accidentsAndIncidents,AccidentIncident,0,,,,,,,,,,,,,,115N04179
524405,ERS,I-10,west,Disabled vehicle on the left shoulder on I-10 Westbound  near   24th St (MP 150)   ,1758069120,1758069931,1758069120,,No Data,33.4228999139156,-112.021728019188,,,accidentsAndIncidents,C34Lshoulder,0,None,,,,,,,,,,,,1.0,115+04187
524412,ERS,I-10,west,Crash on the right shoulder on I-10 Westbound  near   24th St (MP 150)   ,1758069840,1758069932,1758069840,,No Data,33.4228999139156,-112.021728019188,,,accidentsAndIncidents,Crash on right shoulder,0,Minor,,,,,,,,,,,,1.0,115+04187
524517,RADS,W BASELINE RD / I10                                                         TE,,W BASELINE RD / I10                                                         TE - AccidentIncident - disabled vehicle On W BASELINE RD / I10                                                         TE between I10 and W BASELINE RD,1758085787,1758092355,1758085787,35659335599.0,No Data,33.3782375067325,-111.967993469997,,,accidentsAndIncidents,AccidentIncident,0,,,,,,,,,,,,,,115N04181
524717,ERS,I-10,west,Disabled vehicle on the right shoulder on I-10 Westbound  near   E University Dr (MP 151)   ,1758123600,1758123742,1758123600,,No Data,33.4169557760553,-112.016304711254,,,accidentsAndIncidents,C34Rshoulder,0,None,,,,,,,,,,,,1.0,115+04187
525117,ERS,I-10,east,Disabled vehicle on the right shoulder on I-10 Eastbound  near   I-10 (MP 172.0)   ,1758155340,1758155431,1758155340,,No Data,33.4002506353591,-111.967572071823,,,accidentsAndIncidents,C34Rshoulder,0,None,,,,,,,,,,,,1.0,115-04182
525456,RADS,W BASELINE RD / I10                                                         TE,,W BASELINE RD / I10                                                         TE - AccidentIncident - accident On W BASELINE RD / I10                                                         TE between I10 and W BASELINE RD,1758219077,1758221944,1758219077,35659335599.0,No Data,33.3782375067325,-111.967993469997,,,accidentsAndIncidents,AccidentIncident,0,,,,,,,,,,,,,,115N04181
525617,RADS,I10 / W BROADWAY RD                                                         TE,,I10 / W BROADWAY RD                                                         TE - AccidentIncident - accident On I10 / W BROADWAY RD                                                         TE between W BROADWAY RD and I10,1758232505,1758232744,1758232505,35659335599.0,No Data,33.4088226703259,-111.97242563323,,,accidentsAndIncidents,AccidentIncident,0,,,,,,,,,,,,,,115N04184
525685,ERS,I-10,east,Crash blocking the intersection on I-10 Eastbound  near   202-LOOP Eastbound (MP 161)   ,1758236760,1758239605,1758236760,,No Data,33.3061017625544,-111.972331707983,,,accidentsAndIncidents,crashBIntersection,0,Minor,,,,,,,,,,,,1.0,115N04177
525716,ERS,I-10,west,Disabled vehicle on the right shoulder on I-10 Westbound  near   Superstition Fwy (MP 155)   ,1758239400,1758239479,1758239400,,No Data,33.393148,-111.96741,,,accidentsAndIncidents,C34Rshoulder,0,None,,,,,,,,,,,,1.0,115P04182
525899,ERS,I-10,east,Crash on the right shoulder on I-10 Eastbound  near   S 24th St (MP 150)   ,1758263700,1758263783,1758263700,,No Data,33.4262193923079,-112.028764438462,,,accidentsAndIncidents,Crash on right shoulder,0,Minor,,,,,,,,,,,,1.0,115N04187
525993,ERS,I-10,west,Disabled vehicle on the right shoulder on I-10 Westbound  near   S 40th St (MP 152)   ,1758289020,1758289107,1758289020,,No Data,33.410992685157,-112.001922502286,,,accidentsAndIncidents,C34Rshoulder,0,None,,,,,,,,,,,,1.0,115P04185
525998,ERS,I-10,west,Crash on the left shoulder on I-10 Westbound  near   Broadway Rd (MP 154)   ,1758289380,1758289461,1758289380,,No Data,33.4033679753846,-111.967683403077,,,accidentsAndIncidents,CrashLshoulder,0,Minor,,,,,,,,,,,,1.0,115+04183
526703,ERS,I-10,west,Abandoned vehicle on the right shoulder on I-10 Westbound  near   S 40th St (MP 152)   ,1758388680,1758388757,1758388680,,No Data,33.410992685157,-112.001922502286,,,accidentsAndIncidents,T1018SR,0,Minor,,,,,,,,,,,,1.0,115P04185
526763,ERS,I-10,west,Traffic signal timing issue or timing adjusted  on I-10 Westbound  near   W Warner Rd (MP 159)   ,1758398040,1758398128,1758398040,,No Data,33.3356308508255,-111.972058646807,,,accidentsAndIncidents,signaltiming,0,None,,,,,,,,,,,,1.0,115P04179
526891,ERS,I-10,east,Disabled vehicle blocking the exit ramp on I-10 Eastbound  near   Ray Rd (MP 160)   ,1758415320,1758415348,1758415320,,No Data,33.3210417678461,-111.972385122921,,,accidentsAndIncidents,TC34EXB,0,Minor,,,,,,,,,,,,1.0,115N04178
527052,ERS,I-10,east,Debris on the left shoulder on I-10 Eastbound  near   Elliot Rd (MP 157)   ,1758456660,1758458895,1758456660,,No Data,33.3606895543767,-111.969555883289,,,accidentsAndIncidents,debrisLshoulder,0,Minor,,,,,,,,,,,,1.0,115-04180
527057,RADS,I10 / W BASELINE RD [ES                                                     TE,,I10 / W BASELINE RD [ES                                                     TE - AccidentIncident - traffic hazard On I10 / W BASELINE RD [ES                                                     TE between I10 and W BASELINE RD,1758458153,1758470342,1758458153,35659335599.0,No Data,33.3782375067325,-111.967993469997,,,accidentsAndIncidents,AccidentIncident,0,,,,,,,,,,,,,,115N04181
527082,ERS,I-10,east,Disabled vehicle on the right shoulder on I-10 Eastbound  near   Baseline Rd (MP 155)   ,1758462960,1758463049,1758462960,,No Data,33.3931876150084,-111.967815355649,,,accidentsAndIncidents,C34Rshoulder,0,None,,,,,,,,,,,,1.0,115N04182
527145,ERS,I-10,west,Dead animal near roadway on I-10 Westbound  near   E Ray Rd (MP 160)   ,1758475860,1758475955,1758475860,,No Data,33.3210099262473,-111.97212145987,,,accidentsAndIncidents,DeadAnimalRoad,0,Minor,,,,,,,,,,,,1.0,115P04178
523450,ERS,I-10 Westbound,west,Patching on  ramp  from I-10 Westbound  to  US-60 Eastbound . All lanes closed.   9/21/2025 9:00 PM  to 9/22/2025 4:00 AM  ,1758513600,1757962870,1758513600,1758538800.0,All lanes closed,33.3759400000001,-111.96784,33.3851107469837,-111.967182897384,closures,patching,1,Minor,svujE~ukjTy@Q}@MmACk@Ay@Ac@Aa@AgA?k@?qB?oAA_@?}AAw@?w@AoBA_BCcAAU?mCAq@A}@Cq@EgAGk@Ey@Io@IsB_@YGq@Qa@Oa@Qa@SYOa@YYUQQW[OUS]Sa@MYKWGYKc@Ie@Ge@Ec@Cg@Ag@?g@@m@@s@@q@Bs@DaADy@F_AHmAJyAJeAHu@Hs@NgAZuBL}@,,,,,,,,"""<b>Mon:</b><br/>12:00 AM - 4:00 AM<br/><br/><b>Sun:</b><br/>9:00 PM - 12:00 AM<br/><br/>""","[{""StartDate"": ""9/21/2025 9:00:00 PM-07:00:00"", ""EndDate"": ""9/22/2025 4:00:00 AM-07:00:00"", ""Times"": [{""StartTime"": ""00:00:00-07:00:00"", ""EndTime"": ""03:59:59-07:00:00""}], ""DaysOfWeek"": [""Monday""]}, {""StartDate"": ""9/21/2025 9:00:00 PM-07:00:00"", ""EndDate"": ""9/22/2025 4:00:00 AM-07:00:00"", ""Times"": [{""StartTime"": ""21:00:00-07:00:00"", ""EndTime"": ""23:59:59-07:00:00""}], ""DaysOfWeek"": [""Sunday""]}]",Patching on ramp from I-10 Westbound to US-60 Eastbound . All lanes closed. 9/21/2025 9:00 PM to 9/22/2025 4:00 AM,2.0,115P04181
527933,ERS,I-10,west,Disabled vehicle on the right shoulder on I-10 Westbound  near   E University Dr (MP 151)   ,1758586860,1758587664,1758586860,,No Data,33.4157678396127,-112.015292034446,,,accidentsAndIncidents,C34Rshoulder,0,None,,,,,,,,,,,,1.0,115+04187
527993,ERS,I-10,west,Disabled vehicle on the right shoulder on I-10 Westbound  near   E Elliot Rd (MP 157)   ,1758594540,1758594570,1758594540,,No Data,33.3605770085628,-111.969301169868,,,accidentsAndIncidents,C34Rshoulder,0,None,,,,,,,,,,,,1.0,115+04181
528071,RADS,I10 / W SOUTHERN AVE                                                        TE,,I10 / W SOUTHERN AVE                                                        TE - AccidentIncident - disabled vehicle On I10 / W SOUTHERN AVE                                                        TE between I10 and W SOUTHERN AVE,1758611613,1758621550,1758611613,35659335599.0,No Data,33.3928179810027,-111.967677669982,,,accidentsAndIncidents,AccidentIncident,0,,,,,,,,,,,,,,115N04182
528387,ERS,I-10,east,Debris blocking the right lanes on I-10 Eastbound  near   S 40th St (MP 152)   ,1758652560,1758652644,1758652560,,No Data,33.4107913445965,-111.995027134887,,,accidentsAndIncidents,TDEBRISRM,0,Minor,,,,,,,,,,,,1.0,115N04185
528466,ERS,I-10,west,Crash on the left shoulder on I-10 Westbound  near   24th St (MP 150)   ,1758661920,1758662012,1758661920,,No Data,33.426830269663,-112.030807831461,,,accidentsAndIncidents,CrashLshoulder,0,Minor,,,,,,,,,,,,1.0,115P04188
528475,ERS,I-10,east,Debris blocking the right lane on I-10 Eastbound  near   E Warner Rd (MP 159)   ,1758662820,1758662969,1758662820,,No Data,33.331200150968,-111.972342330238,,,accidentsAndIncidents,debrisRlane,0,Minor,,,,,,,,,,,,1.0,115N04179
528484,ERS,I-10,east,Debris blocking the left lane on I-10 Eastbound  near   32nd St (MP 151)   ,1758663780,1758663873,1758663780,,No Data,33.4168103463397,-112.016602460768,,,accidentsAndIncidents,debrisLlane,0,Minor,,,,,,,,,,,,1.0,115-04186
528492,ERS,I-10,west,Dead animal near roadway on I-10 Westbound  near   E Elliot Rd (MP 157)   ,1758664560,1758664700,1758664560,,No Data,33.3605770085628,-111.969301169868,,,accidentsAndIncidents,DeadAnimalRoad,0,Minor,,,,,,,,,,,,1.0,115+04181
528726,RADS,W BASELINE RD / I10                                                         TE,,W BASELINE RD / I10                                                         TE - AccidentIncident - accident On W BASELINE RD / I10                                                         TE between I10 and W BASELINE RD,1758683317,1758718741,1758683317,35659335599.0,No Data,33.3782375067325,-111.967993469997,,,accidentsAndIncidents,AccidentIncident,0,,,,,,,,,,,,,,115N04181
530831,ERS,I-10,west,Disabled vehicle blocking the center lane on I-10 Westbound  near   24th St (MP 150)   ,1758837360,1758837439,1758837360,,No Data,33.4254892033632,-112.025898254986,,,accidentsAndIncidents,C34Clane,0,Minor,,,,,,,,,,,,1.0,115P04187
531413,ERS,I-10,east,Disabled vehicle on the right shoulder on I-10 Eastbound  near   S 24th St (MP 151)   ,1758898320,1758898407,1758898320,,No Data,33.4212878370161,-112.020425191966,,,accidentsAndIncidents,C34Rshoulder,0,None,,,,,,,,,,,,1.0,115-04186
531573,ERS,I-10,west,Disabled vehicle on the right shoulder on I-10 Westbound  near   24th St (MP 150)   ,1758912360,1758912444,1758912360,,No Data,33.4228999139156,-112.021728019188,,,accidentsAndIncidents,C34Rshoulder,0,None,,,,,,,,,,,,1.0,115+04187
531787,ERS,I-10,east,Disabled vehicle on the right shoulder on I-10 Eastbound  near   S 24th St (MP 150)   ,1758921780,1758921867,1758921780,,No Data,33.4262193923079,-112.028764438462,,,accidentsAndIncidents,C34Rshoulder,0,None,,,,,,,,,,,,1.0,115N04187
531997,ERS,I-10,east,Crash on the right shoulder on I-10 Eastbound  near   Ray Rd (MP 160)   ,1758932640,1758932724,1758932640,,No Data,33.3210417678461,-111.972385122921,,,accidentsAndIncidents,Crash on right shoulder,0,Minor,,,,,,,,,,,,1.0,115N04178
532104,ERS,I-10,west,Disabled vehicle on the right shoulder on I-10 Westbound  near   E Elliot Rd (MP 157)   ,1758945660,1758945681,1758945660,,No Data,33.3605770085628,-111.969301169868,,,accidentsAndIncidents,C34Rshoulder,0,None,,,,,,,,,,,,1.0,115+04181
532179,ERS,I-10,west,Traffic signal issue on I-10 Westbound  near   Arizona Veterans Memorial Hwy (MP 150)   ,1758955440,1758955522,1758955440,,No Data,33.4278088196229,-112.035851234885,,,accidentsAndIncidents,SignalIssue,0,Minor,,,,,,,,,,,,1.0,115P04188
532125,ERS,I-10,east,ITS equipment damage on I-10 Eastbound  near   Hohokam Expy (MP 154)   ,1758948240,1758948331,1758948240,,No Data,33.4069825644783,-111.97034096599,,,accidentsAndIncidents,ITS Equipment Damage,0,Minor,,,,,,,,,,,,1.0,115-04183
532141,ERS,I-10,east,Infrastructure damage on I-10 Eastbound  near   Superstition Fwy (MP 156)   ,1758951240,1758956370,1758951240,,No Data,33.378606666715,-111.968111445781,,,accidentsAndIncidents,TDMG,0,Minor,,,,,,,,,,,,1.0,115N04181
532231,ERS,I-10,east,Crash in the median on I-10 Eastbound  near   202-LOOP HOV Eastbound (MP 161)   ,1758984420,1758984679,1758984420,,No Data,33.3021880735849,-111.972442692453,,,accidentsAndIncidents,CrashMedian,0,Minor,,,,,,,,,,,,1.0,115N04177
532236,ERS,I-10,west,Crash in the median on I-10 Westbound  near   202-LOOP Westbound (MP 161)   ,1758985260,1758985345,1758985260,,No Data,33.3021651340789,-111.971950706133,,,accidentsAndIncidents,CrashMedian,0,Minor,,,,,,,,,,,,1.0,115P04177
532304,ERS,I-10,east,Crash on the left shoulder on I-10 Eastbound  near   32nd St (MP 151)   ,1758987540,1758987629,1758987540,,No Data,33.4156237016577,-112.015595331492,,,accidentsAndIncidents,CrashLshoulder,0,Minor,,,,,,,,,,,,1.0,115-04186
532430,ERS,I-10,west,Debris on the left shoulder on I-10 Westbound  near   24th St (MP 150)   ,1758995460,1758996028,1758995460,,No Data,33.4228999139156,-112.021728019188,,,accidentsAndIncidents,debrisLshoulder,0,Minor,,,,,,,,,,,,1.0,115+04187
532598,RADS,"I10 @ W BASELINE RD SB OF ,TMP",,"I10 @ W BASELINE RD SB OF ,TMP - AccidentIncident - injury accident",1759020425,1759021153,1759020425,35659335599.0,No Data,33.3798399368243,-111.968534569028,,,accidentsAndIncidents,AccidentIncident,0,,,,,,,,,,,,,,115N04181
532840,ERS,I-10,east,Disabled vehicle on the left shoulder on I-10 Eastbound  near   Baseline Rd (MP 156)   ,1759083780,1759083863,1759083780,,No Data,33.3844811309771,-111.967947060291,,,accidentsAndIncidents,C34Lshoulder,0,None,,,,,,,,,,,,1.0,115-04181
524018,ERS,I-10 Eastbound,east,Exit ramp restricted on  ramp  from I-10 Eastbound  to  E Elliot Rd    9/27/2025 5:00 AM  to 9/28/2025 7:00 PM  ,1758974400,1758036863,1758974400,1759111200.0,No Data,33.35328,-111.97135,33.351133398745,-111.972115859266,roadwork,exitrestricted,0,Minor,_iqjE|kljTv@\f@PjAV|FnAbAVp@PpD~@|@Rd@Fh@@,,,,,,,,"""<b>Sat, Sun:</b><br/>Active all day<br/><br/>""","[{""StartDate"": ""9/27/2025 5:00:00 AM-07:00:00"", ""EndDate"": ""9/28/2025 7:00:00 PM-07:00:00"", ""Times"": [{""StartTime"": ""00:00:00-07:00:00"", ""EndTime"": ""23:59:59-07:00:00""}], ""DaysOfWeek"": [""Saturday"", ""Sunday""]}]",Exit ramp restricted on ramp from I-10 Eastbound to E Elliot Rd ,1.0,115-04180
524026,ERS,I-10 Westbound,west,Exit ramp restricted on  ramp  from I-10 Westbound  to  E Elliot Rd    9/27/2025 5:00 AM  to 9/28/2025 7:00 PM  ,1758974400,1758037167,1758974400,1759111200.0,No Data,33.34452,-111.97209,33.3468819657313,-111.971631612565,roadwork,exitrestricted,0,Minor,grojEppljTsAQu@Eu@GsBQu@IsAU{@Uw@U[Iy@ScAWoBe@]Ea@Ag@?,,,,,,,,"""<b>Sat, Sun:</b><br/>Active all day<br/><br/>""","[{""StartDate"": ""9/27/2025 5:00:00 AM-07:00:00"", ""EndDate"": ""9/28/2025 7:00:00 PM-07:00:00"", ""Times"": [{""StartTime"": ""00:00:00-07:00:00"", ""EndTime"": ""23:59:59-07:00:00""}], ""DaysOfWeek"": [""Saturday"", ""Sunday""]}]",Exit ramp restricted on ramp from I-10 Westbound to E Elliot Rd,1.0,115+04180
532954,ERS,I-10,east,Disabled vehicle blocking the exit ramp on I-10 Eastbound  near   Elliot Rd (MP 157)   ,1759104960,1759105038,1759104960,,No Data,33.3606895543767,-111.969555883289,,,accidentsAndIncidents,TC34EXB,0,Minor,,,,,,,,,,,,1.0,115-04180
534184,ERS,I-10,west,Disabled vehicle on the left shoulder on I-10 Westbound  near   202-LOOP Westbound (MP 161)   ,1759180560,1759180651,1759180560,,No Data,33.3021651340789,-111.971950706133,,,accidentsAndIncidents,C34Lshoulder,0,None,,,,,,,,,,,,1.0,115P04177
534582,ERS,I-10,west,Crash on the right shoulder on I-10 Westbound  near   Ray Rd (MP 160)   ,1759243140,1759243229,1759243140,,No Data,33.3161677988956,-111.972114204318,,,accidentsAndIncidents,Crash on right shoulder,0,Minor,,,,,,,,,,,,1.0,115P04178
534540,ERS,I-10,west,Disabled vehicle on the right shoulder on I-10 Westbound  near   E University Dr (MP 151)   ,1759237560,1759237703,1759237560,,No Data,33.4169557760553,-112.016304711254,,,accidentsAndIncidents,C34Rshoulder,0,None,,,,,,,,,,,,1.0,115+04187
534680,ERS,I-10,west,ITS equipment damage on I-10 Westbound  near   Superstition Fwy (MP 155)   ,1759249620,1759249700,1759249620,,No Data,33.393148,-111.96741,,,accidentsAndIncidents,ITS Equipment Damage,0,Minor,,,,,,,,,,,,1.0,115P04182
535368,ERS,I-10,east,Disabled vehicle on the right shoulder on I-10 Eastbound  near   Hohokam Expy (MP 154)   ,1759339140,1759339227,1759339140,,No Data,33.4069825644783,-111.97034096599,,,accidentsAndIncidents,C34Rshoulder,0,None,,,,,,,,,,,,1.0,115-04183
535415,ERS,I-10,east,Rough road due to potholes on I-10 Eastbound  near   Hohokam Expy (MP 154)   ,1759342140,1759342224,1759342140,,No Data,33.4069825644783,-111.97034096599,,,accidentsAndIncidents,Potholes,0,Minor,,,,,,,,,,,,1.0,115-04183
535671,ERS,I-10,east,Crash on the right shoulder on I-10 Eastbound  near   Elliot Rd (MP 157)   ,1759363860,1759365089,1759363860,,No Data,33.3606895543767,-111.969555883289,,,accidentsAndIncidents,Crash on right shoulder,0,Minor,,,,,,,,,,,,1.0,115-04180
535672,RADS,W BROADWAY RD / I10                                                         TE,,W BROADWAY RD / I10                                                         TE - AccidentIncident - traffic hazard On W BROADWAY RD / I10                                                         TE between W BROADWAY RD and I10,1759363746,1759366746,1759363746,35659335599.0,No Data,33.4088226703259,-111.97242563323,,,accidentsAndIncidents,AccidentIncident,0,,,,,,,,,,,,,,115N04184
536106,ERS,I-10,west,Disabled vehicle on the right shoulder on I-10 Westbound  near   E Elliot Rd (MP 157)   ,1759430940,1759430959,1759430940,,No Data,33.3605770085628,-111.969301169868,,,accidentsAndIncidents,C34Rshoulder,0,None,,,,,,,,,,,,1.0,115+04181
536399,ERS,I-10,west,Crash on the right shoulder on I-10 Westbound  near   24th St (MP 150)   ,1759449840,1759452035,1759449840,,No Data,33.426830269663,-112.030807831461,,,accidentsAndIncidents,Crash on right shoulder,0,Minor,,,,,,,,,,,,1.0,115P04188
536408,ERS,I-10,west,Crash on the right shoulder on I-10 Westbound  near   E University Dr (MP 151)   ,1759450680,1759451908,1759450680,,No Data,33.4169557760553,-112.016304711254,,,accidentsAndIncidents,Crash on right shoulder,0,Minor,,,,,,,,,,,,1.0,115+04187
536236,ERS,I-10,west,Red signal bulb out on I-10 Westbound  near   E University Dr (MP 151)   ,1759441320,1759441399,1759441320,,No Data,33.4157678396127,-112.015292034446,,,accidentsAndIncidents,SignalRedbulb,0,Minor,,,,,,,,,,,,1.0,115+04187
536562,ERS,I-10,west,Guardrail damage on I-10 Westbound  near   24th St (MP 150)   ,1759488060,1759489406,1759488060,,No Data,33.426830269663,-112.030807831461,,,accidentsAndIncidents,guardrail,0,Minor,,,,,,,,,,,,1.0,115P04188
472853,ERS,I-10 Eastbound,east,Interchange ramp to Westbound closed on  ramp  from I-10 Eastbound  to  202-LOOP Westbound    11/7/2025 9:00 PM  to 11/8/2025 2:00 PM  ,1762574400,1754570064,1762574400,1762635600.0,No Data,33.3073200000001,-111.97234,33.2985297770554,-111.97403264078,roadwork,ramp2westclosed,0,Major,wihjEbrljTXJNFLDLBRB`BFdBFtADf@BfFPz@B~EN`ATb@HbAH|AN`@D~@JjAHlCVfARx@Zr@\x@l@p@t@Xb@Tb@`ArBh@lAz@lBr@vAd@|@j@xA|@nBdBxDhAdCt@hBh@hAJXf@rAVp@`@dAh@lA,,,,,,,,"""<b>Fri, Sat:</b><br/>Active all day<br/><br/>""","[{""StartDate"": ""11/7/2025 9:00:00 PM-07:00:00"", ""EndDate"": ""11/8/2025 2:00:00 PM-07:00:00"", ""Times"": [{""StartTime"": ""00:00:00-07:00:00"", ""EndTime"": ""23:59:59-07:00:00""}], ""DaysOfWeek"": [""Friday"", ""Saturday""]}]",Interchange ramp closed due to road maintenance. Follow detours and please use caution.,3.0,115N04177
472868,ERS,I-10 Eastbound,east,Interchange ramp to Eastbound closed on  ramp  from I-10 Eastbound  to  202-LOOP Eastbound    11/8/2025 9:00 PM  to 11/9/2025 2:00 PM  ,1762660800,1754574123,1762660800,1762722000.0,No Data,33.3073200000001,-111.97234,33.2969509608907,-111.970818249158,roadwork,ramp2eastclosed,0,Major,wihjEbrljTXJNFLDLBRB`BFdBFtADf@BfFPz@B~ENbBDxBFx@Bx@Bz@Cx@Ez@Ix@Mx@Qx@Sd@OdCeAp@Yr@WTSRUp@aA~@oAz@mAb@u@f@}@p@aB`@mA\uA^sBL_AD[J{AHqBF}BRiFBgAFyBJkCDaAHoAFgAF{@f@sI,,,,,,,,"""<b>Sat, Sun:</b><br/>Active all day<br/><br/>""","[{""StartDate"": ""11/8/2025 9:00:00 PM-07:00:00"", ""EndDate"": ""11/9/2025 2:00:00 PM-07:00:00"", ""Times"": [{""StartTime"": ""00:00:00-07:00:00"", ""EndTime"": ""23:59:59-07:00:00""}], ""DaysOfWeek"": [""Saturday"", ""Sunday""]}]",Interchange ramp closed due to road maintenance. Follow detour and please use caution.,3.0,115N04177
524020,ERS,I-10 Eastbound,east,Exit ramp restricted on  ramp  from I-10 Eastbound  to  E Elliot Rd    9/30/2025 9:00 PM  to 10/4/2025 5:00 AM  ,1759291200,1758036982,1759291200,1759579200.0,No Data,33.35328,-111.97135,33.351133398745,-111.972115859266,roadwork,exitrestricted,0,Minor,_iqjE|kljTv@\f@PjAV|FnAbAVp@PpD~@|@Rd@Fh@@,,,,,,,,"""<b>Tue, Wed, Thu, Fri, Sat:</b><br/>Active all day<br/><br/>""","[{""StartDate"": ""9/30/2025 9:00:00 PM-07:00:00"", ""EndDate"": ""10/4/2025 5:00:00 AM-07:00:00"", ""Times"": [{""StartTime"": ""00:00:00-07:00:00"", ""EndTime"": ""23:59:59-07:00:00""}], ""DaysOfWeek"": [""Tuesday"", ""Wednesday"", ""Thursday"", ""Friday"", ""Saturday""]}]",Exit ramp restricted on ramp from I-10 Eastbound to E Elliot Rd ,1.0,115-04180
524022,ERS,I-10 Eastbound,east,Exit ramp restricted on  ramp  from I-10 Eastbound  to  E Elliot Rd    10/18/2025 9:00 PM  to 10/23/2025 5:00 AM  ,1760846400,1758054826,1760846400,1761220800.0,No Data,33.35328,-111.97135,33.351133398745,-111.972115859266,roadwork,exitrestricted,0,Minor,_iqjE|kljTv@\f@PjAV|FnAbAVp@PpD~@|@Rd@Fh@@,,,,,,,,"""<b>Mon, Tue, Wed, Thu, Sat, Sun:</b><br/>Active all day<br/><br/>""","[{""StartDate"": ""10/18/2025 9:00:00 PM-07:00:00"", ""EndDate"": ""10/23/2025 5:00:00 AM-07:00:00"", ""Times"": [{""StartTime"": ""00:00:00-07:00:00"", ""EndTime"": ""23:59:59-07:00:00""}], ""DaysOfWeek"": [""Monday"", ""Tuesday"", ""Wednesday"", ""Thursday"", ""Saturday"", ""Sunday""]}]",Exit ramp restricted on ramp from I-10 Eastbound to E Elliot Rd ,1.0,115-04180
524025,ERS,I-10 Westbound,west,Exit ramp restricted on  ramp  from I-10 Westbound  to  E Elliot Rd    10/18/2025 9:00 PM  to 10/23/2025 5:00 AM  ,1760846400,1758054795,1760846400,1761220800.0,No Data,33.34452,-111.97209,33.3468819657313,-111.971631612565,roadwork,exitrestricted,0,Minor,grojEppljTsAQu@Eu@GsBQu@IsAU{@Uw@U[Iy@ScAWoBe@]Ea@Ag@?,,,,,,,,"""<b>Mon, Tue, Wed, Thu, Sat, Sun:</b><br/>Active all day<br/><br/>""","[{""StartDate"": ""10/18/2025 9:00:00 PM-07:00:00"", ""EndDate"": ""10/23/2025 5:00:00 AM-07:00:00"", ""Times"": [{""StartTime"": ""00:00:00-07:00:00"", ""EndTime"": ""23:59:59-07:00:00""}], ""DaysOfWeek"": [""Monday"", ""Tuesday"", ""Wednesday"", ""Thursday"", ""Saturday"", ""Sunday""]}]",Exit ramp restricted on ramp from I-10 Westbound to E Elliot Rd,1.0,115+04180
524029,ERS,I-10 Westbound,west,Exit ramp restricted on  ramp  from I-10 Westbound  to  E Elliot Rd    9/30/2025 9:00 PM  to 10/4/2025 5:00 AM  ,1759291200,1758037280,1759291200,1759579200.0,No Data,33.34452,-111.97209,33.3468819657313,-111.971631612565,roadwork,exitrestricted,0,Minor,grojEppljTsAQu@Eu@GsBQu@IsAU{@Uw@U[Iy@ScAWoBe@]Ea@Ag@?,,,,,,,,"""<b>Tue, Wed, Thu, Fri, Sat:</b><br/>Active all day<br/><br/>""","[{""StartDate"": ""9/30/2025 9:00:00 PM-07:00:00"", ""EndDate"": ""10/4/2025 5:00:00 AM-07:00:00"", ""Times"": [{""StartTime"": ""00:00:00-07:00:00"", ""EndTime"": ""23:59:59-07:00:00""}], ""DaysOfWeek"": [""Tuesday"", ""Wednesday"", ""Thursday"", ""Friday"", ""Saturday""]}]",Exit ramp restricted on ramp from I-10 Westbound to E Elliot Rd,1.0,115+04180
